Store Name,Address,City,State,Zip Code,Latitude,Longitude,Country,Country Code,County
Jewel-Osco,1340 Patriot Blvd,Glenview,IL,60026,42.0787105,-87.8195113,United States,US,Cook County
Albertsons,201 S Stephanie St,Henderson,NV,89012,36.0204536,-115.0492867,United States,US,Clark County
Albertsons,3130 W Carefree Hwy,Phoenix,AZ,85086,33.7999466,-112.1272796,United States,US,Maricopa County
Albertsons,200 S 23rd Ave,Bozeman,MT,59718,45.6767094,-111.0664662,United States,US,Gallatin County
Albertsons,6999 Jackrabbit Ln,Belgrade,MT,59714,45.7718018,-111.1871327,United States,US,Gallatin County
Albertsons,2550 S Fort Apache Rd,Las Vegas,NV,89117,36.1433072,-115.2958433,United States,US,Clark County
Albertsons,415 Blaine St,Wolf Point,MT,59201,48.092328,-105.6436174,United States,US,Roosevelt County
Albertsons,900 W Idaho St,Kalispell,MT,59901,48.1995995,-114.3291843,United States,US,Flathead County
Albertsons,117 W Janeaux St,Lewistown,MT,59457,47.0653342,-109.4227864,United States,US,Fergus County
Albertsons,2205 Oxford St,Missoula,MT,59801,46.8511114,-114.0179312,United States,US,Missoula County
Albertsons,861 E Warner Rd,Gilbert,AZ,85296,33.3337859,-111.7717134,United States,US,Maricopa County
Albertsons,1003 E Broadway St,Missoula,MT,59802,46.8676556,-113.9815483,United States,US,Missoula County
Albertsons,21001 N Tatum Blvd Ste 76,Phoenix,AZ,85050,33.6742826,-111.97447,United States,US,Maricopa County
Albertsons,20 26th St E,Williston,ND,58801,48.1676643,-103.6222675,United States,US,Williams County
Albertsons,501 W Main St,Cut Bank,MT,59427,48.6405255,-112.3385426,United States,US,Glacier County
Albertsons,1414 3rd St NW,Great Falls,MT,59404,47.5201944,-111.3113394,United States,US,Cascade County
Albertsons,2250 10th Ave S,Great Falls,MT,59405,47.4930474,-111.2693499,United States,US,Cascade County
Albertsons,1212 Grand Ave,Billings,MT,59102,45.782812,-108.5471914,United States,US,Yellowstone County
Albertsons,519 S Haynes Ave,Miles City,MT,59301,46.4032667,-105.8245254,United States,US,Custer County
Albertsons,2120 W Park St,Livingston,MT,59047,45.6423213,-110.5756779,United States,US,Park County
Albertsons,2230 N Reserve St,Missoula,MT,59808,46.885993,-114.0375026,United States,US,Missoula County
Albertsons,1760 E Charleston Blvd,Las Vegas,NV,89104,36.1569423,-115.1256058,United States,US,Clark County
Albertsons,1001 S Rainbow Blvd,Las Vegas,NV,89145,36.1600907,-115.2454174,United States,US,Clark County
Albertsons,511 Central Ave,Billings,MT,59102,45.7706254,-108.52849,United States,US,Yellowstone County
Jewel-Osco,21164 S La Grange Rd,Frankfort,IL,60423,41.5049081,-87.8535943,United States,US,Will County
Jewel-Osco,1156 Maple Ave,Lisle,IL,60532,41.7870212,-88.0755715,United States,US,Dupage County
Shaw's,175 High St,Ellsworth,ME,4605,44.5349133,-68.4132289,United States,US,Hancock County
Jewel-Osco,2855 W 95th St,Naperville,IL,60564,41.7121608,-88.2033479,United States,US,Will County
Jewel-Osco,1759 W Ogden Ave,Naperville,IL,60540,41.7623875,-88.1866234,United States,US,Dupage County
Albertsons,1076 CY Ave,Casper,WY,82604,42.8350817,-106.3389289,United States,US,Natrona County
Albertsons,4850 W Craig Rd,Las Vegas,NV,89130,36.2405185,-115.2090955,United States,US,Clark County
Albertsons,2625 E 2nd St,Casper,WY,82609,42.8480206,-106.2924865,United States,US,Natrona County
Jewel-Osco,763 E 162nd St,South Holland,IL,60473,41.5999605,-87.5983474,United States,US,Cook County
Albertsons,1865 Coffeen Ave,Sheridan,WY,82801,44.7776398,-106.9414881,United States,US,Sheridan County
Albertsons,3355 E Pershing Blvd,Cheyenne,WY,82001,41.1441736,-104.7694139,United States,US,Laramie County
Albertsons,5800 Yellowstone Rd,Cheyenne,WY,82009,41.1725592,-104.8299575,United States,US,Laramie County
Albertsons,2610 S Douglas Hwy,Gillette,WY,82718,44.2710208,-105.4966556,United States,US,Campbell County
Jewel-Osco,4 E Ogden Ave,Westmont,IL,60559,41.8115246,-87.9735994,United States,US,Dupage County
Albertsons,4000 Glade Rd,Colleyville,TX,76034,32.8825152,-97.1014533,United States,US,Tarrant County
Jewel-Osco,1276 N Main St,Crown Point,IN,46307,41.431646,-87.3633835,United States,US,Lake County
Jewel-Osco,2480 Route 59,Plainfield,IL,60586,41.5664177,-88.1980606,United States,US,Will County
Jewel-Osco,3795 Orchard Rd,Oswego,IL,60543,41.6835,-88.3832603,United States,US,Kendall County
Jewel-Osco,8801 S Ridgeland Ave,Oak Lawn,IL,60453,41.7317346,-87.7802962,United States,US,Cook County
Albertsons,6885 E Lake Mead Blvd,Las Vegas,NV,89156,36.1946846,-115.0238004,United States,US,Clark County
Albertsons,7075 W Ann Rd,Las Vegas,NV,89130,36.2609353,-115.2477717,United States,US,Clark County
Jewel-Osco,1655 E 95th St,Chicago,IL,60617,41.7203054,-87.5829113,United States,US,Cook County
Albertsons,1008 Nevada Hwy,Boulder City,NV,89005,35.9760734,-114.845262,United States,US,Clark County
Albertsons,1650 W State St,Boise,ID,83702,43.6249473,-116.2091721,United States,US,Ada County
Albertsons,415 Cleveland Blvd,Caldwell,ID,83605,43.6671765,-116.6929366,United States,US,Canyon County
Albertsons,1155 N Main St,Euless,TX,76039,32.8527022,-97.0833955,United States,US,Tarrant County
Albertsons,1735 W Artesia Blvd,Gardena,CA,90248,33.8742371,-118.3080208,United States,US,Los Angeles County
Albertsons,7201 Yorktown Ave,Huntington Beach,CA,92648,33.6808855,-118.0027806,United States,US,Orange County
Shaw's,300 Main St,Nashua,NH,3060,42.75284,-71.459926,United States,US,Hillsborough County
Acme Market,7010 Germantown Ave,Philadelphia,PA,19119,40.056677,-75.1894664,United States,US,Philadelphia County
Jewel-Osco,2203 E Oakland Ave,Bloomington,IL,61701,40.4722747,-88.9603869,United States,US,McLean County
Shaw's,570 Shelburne Rd,Burlington,VT,5401,44.4496407,-73.2077537,United States,US,Chittenden County
Albertsons,7151 W Craig Rd,Las Vegas,NV,89129,36.2381476,-115.2502461,United States,US,Clark County
Albertsons,2678 Johnston St,Lafayette,LA,70503,30.2087612,-92.0389148,United States,US,Lafayette Parish
Shaw's,2 Main St,Montpelier,VT,5602,44.258921,-72.577507,United States,US,Washington County
Jewel-Osco,2010 1st St A,Moline,IL,61265,41.491758,-90.5350879,United States,US,Rock Island County
Jewel-Osco,7329 S Cass Ave,Darien,IL,60561,41.766709,-87.9742738,United States,US,Dupage County
Albertsons,640 Hwy 16,Emmett,ID,83617,43.8625047,-116.4910571,United States,US,Gem County
Jewel-Osco,805 Joliet St,Dyer,IN,46311,41.4948432,-87.5082047,United States,US,Lake County
Albertsons,5975 W Tropicana Ave,Las Vegas,NV,89103,36.0987541,-115.2239295,United States,US,Clark County
Albertsons,911 N Main St,Hailey,ID,83333,43.52739,-114.3217798,United States,US,Blaine County
Albertsons,1410 Westpark Plaza,Ontario,OR,97914,44.0233894,-116.9837716,United States,US,Malheur County
Albertsons,101 E Willow Street,Long Beach,CA,90806,33.8054743,-118.1921677,United States,US,Los Angeles County
Albertsons,4415 W 7th St,Texarkana,TX,75501,33.4169212,-94.0990985,United States,US,Bowie County
Albertsons,590 E 17th St,Idaho Falls,ID,83404,43.4812002,-112.0217243,United States,US,Bonneville County
Albertsons,7676 Firestone Blvd,Downey,CA,90241,33.9455757,-118.144543,United States,US,Los Angeles County
Albertsons,1705 W Broadway St,Idaho Falls,ID,83402,43.495801,-112.0648789,United States,US,Bonneville County
Acme Market,920 Red Lion Rd,Philadelphia,PA,19115,40.1007114,-75.0262493,United States,US,Philadelphia County
Albertsons,15200 Rosecrans Ave,La Mirada,CA,90638,33.89715,-118.0076186,United States,US,Los Angeles County
Albertsons,1520 N Cole Rd,Boise,ID,83704,43.6181442,-116.2727316,United States,US,Ada County
Albertsons,2582 Idaho St,Elko,NV,89801,40.8514519,-115.742634,United States,US,Elko County
Albertsons,7100 W State St,Boise,ID,83714,43.6689289,-116.27764,United States,US,Ada County
Jewel-Osco,4650 W 103rd St,Oak Lawn,IL,60453,41.7067245,-87.7372361,United States,US,Cook County
Albertsons,1800 W Whittier Blvd,La Habra,CA,90631,33.9384575,-117.9664436,United States,US,Orange County
Albertsons,330 E Benton St,Pocatello,ID,83201,42.862453,-112.4431379,United States,US,Bannock County
Albertsons,10500 W Overland Rd,Boise,ID,83709,43.5918149,-116.3133271,United States,US,Ada County
Albertsons,10700 W Ustick Rd,Boise,ID,83713,43.6346066,-116.3163454,United States,US,Ada County
Albertsons,5100 W Overland Rd,Boise,ID,83705,43.5919398,-116.2450517,United States,US,Ada County
Star Market,49 White St,Cambridge,MA,2140,42.3899555,-71.1180063,United States,US,Middlesex County
Albertsons,20 E Fairview Ave,Meridian,ID,83642,43.6206892,-116.3927747,United States,US,Ada County
Albertsons,528 N Main St,Mountain Home,ID,83647,43.1346324,-115.6970398,United States,US,Elmore County
Albertsons,2500 Blaine St,Caldwell,ID,83605,43.6521995,-116.6710499,United States,US,Canyon County
Albertsons,405 S 8th St,Payette,ID,83661,44.0701839,-116.934123,United States,US,Payette County
Albertsons,909 E Parkcenter Blvd,Boise,ID,83706,43.5811399,-116.1722433,United States,US,Ada County
Albertsons,18579 Brookhurst,Fountain Valley,CA,92708,33.6929718,-117.9561113,United States,US,Orange County
Albertsons,490 N 2nd E,Rexburg,ID,83440,43.8363784,-111.7754774,United States,US,Madison County
Albertsons,2400 12th Ave Rd,Nampa,ID,83686,43.5465135,-116.5714573,United States,US,Canyon County
Albertsons,4700 N Eagle Rd,Boise,ID,83713,43.6474515,-116.3522331,United States,US,Ada County
Albertsons,3301 W Cherry Ln,Meridian,ID,83642,43.6179991,-116.4343071,United States,US,Ada County
Albertsons,250 S Eagle Rd,Eagle,ID,83616,43.6923241,-116.3520522,United States,US,Ada County
Albertsons,105 Buffalo Way,Jackson,WY,83001,43.4726105,-110.789149,United States,US,Teton County
Albertsons,6560 S Federal Way,Boise,ID,83716,43.5429706,-116.1534344,United States,US,Ada County
Jewel-Osco,127 E Ogden Ave,Naperville,IL,60563,41.7869188,-88.1451504,United States,US,Dupage County
Albertsons,8196 NE Hwy 104,Kingston,WA,98346,47.8114897,-122.5406338,United States,US,Kitsap County
Jewel-Osco,11730 S Marshfield Ave,Chicago,IL,60643,41.6802165,-87.6647403,United States,US,Cook County
Albertsons,3614 W State St,Boise,ID,83703,43.6400348,-116.2326694,United States,US,Ada County
Albertsons,5015 Del Amo Blvd,Lakewood,CA,90712,33.8476577,-118.1343034,United States,US,Los Angeles County
Acme Market,39 Leopard Rd,Paoli,PA,19301,40.0396879,-75.4768919,United States,US,Chester County
Albertsons,1653 S Vista Ave,Boise,ID,83705,43.5698551,-116.2249298,United States,US,Ada County
Albertsons,810 S State College Blvd,Anaheim,CA,92806,33.8313159,-117.8885566,United States,US,Orange County
Albertsons,11475 E Via Linda,Scottsdale,AZ,85259,33.5890355,-111.833849,United States,US,Maricopa County
Albertsons,1219 S Broadway Ave,Boise,ID,83706,43.598206,-116.1952305,United States,US,Ada County
Jewel-Osco,2550 N Clybourn Ave,Chicago,IL,60614,41.9273344,-87.6746008,United States,US,Cook County
Albertsons,9001 N Indian Trail Rd,Spokane,WA,99208,47.7397251,-117.4879922,United States,US,Spokane County
Albertsons,30241 Golden Lantern,Laguna Niguel,CA,92677,33.523915,-117.6879421,United States,US,Orange County
Albertsons,8350 W Cheyenne Ave,Las Vegas,NV,89129,36.2200792,-115.2754239,United States,US,Clark County
Albertsons,105 E Southfield Rd,Shreveport,LA,71105,32.4554217,-93.7093883,United States,US,Caddo Parish
Shaw's,97 E Main St,Wilmington,VT,5363,42.8645404,-72.8630866,United States,US,Windham County
Jewel-Osco,1537 N Larkin,Joliet,IL,60435,41.5508882,-88.127461,United States,US,Will County
Albertsons,100 E Taylor St,Sherman,TX,75092,33.6539057,-96.6140874,United States,US,Grayson County
Albertsons,1330 N 20th Ave,Pasco,WA,99301,46.240397,-119.1191037,United States,US,Franklin County
Jewel-Osco,7530 S Stony Island Ave,Chicago,IL,60649,41.758262,-87.5876199,United States,US,Cook County
Albertsons,3563 Alton Rd,Fort Worth,TX,76109,32.6978435,-97.3694819,United States,US,Tarrant County
Albertsons,1024 21st St,Lewiston,ID,83501,46.4094903,-117.0024526,United States,US,Nez Perce County
Albertsons,400 Bridge St,Clarkston,WA,99403,46.421235,-117.0430024,United States,US,Asotin County
Albertsons,220 Ironwood Dr,Coeur d'Alene,ID,83814,47.6936251,-116.7897092,United States,US,Kootenai County
Albertsons,8851 E Trent Ave,Spokane,WA,99212,47.6818398,-117.2855816,United States,US,Spokane County
Albertsons,690 Gage Blvd,Richland,WA,99352,46.2279601,-119.2673599,United States,US,Benton County
Albertsons,161 W Prairie Ave,Hayden,ID,83835,47.7461376,-116.7889984,United States,US,Kootenai County
Albertsons,13606 E 32nd Ave,Spokane,WA,99216,47.6259992,-117.2226762,United States,US,Spokane County
Jewel-Osco,652 Kirk Rd,St Charles,IL,60174,41.9245357,-88.2731448,United States,US,Kane County
Jewel-Osco,2164 Bloomingdale Rd,Glendale Heights,IL,60139,41.9382475,-88.0819847,United States,US,Dupage County
Albertsons,6520 N Nevada,Spokane,WA,99208,47.717908,-117.3935414,United States,US,Spokane County
Albertsons,2150 N Josey Lane,Carrollton,TX,75006,32.9749329,-96.8878252,United States,US,Dallas County
Albertsons,7350 S Rainbow Blvd,Las Vegas,NV,89139,36.0547444,-115.2413422,United States,US,Clark County
Jewel-Osco,2031 N Main St,Wheaton,IL,60187,41.8865625,-88.1061021,United States,US,Dupage County
Jewel-Osco,438 W Madison St,Oak Park,IL,60302,41.8933254,-87.7812524,United States,US,Cook County
Acme Market,180 W Girard Ave,Philadelphia,PA,19123,39.9684394,-75.1390321,United States,US,Philadelphia County
Acme Market,507 Prospect Ave,Little Silver,NJ,7739,40.339079,-74.0403858,United States,US,Monmouth County
Acme Market,9507 Coastal Hwy,Ocean City,MD,21842,38.4117719,-75.059837,United States,US,Worcester County
Acme Market,5100 Wellington Ave,Ventnor City,NJ,8406,39.3516903,-74.4781151,United States,US,Atlantic County
Acme Market,5 Ortley Plaza,Seaside Heights,NJ,8751,39.9502274,-74.0759086,United States,US,Ocean County
Acme Market,2101-41 Cottman Ave,Philadelphia,PA,19149,40.0499926,-75.0628958,United States,US,Philadelphia County
Albertsons,915 Redcliffs Dr,Washington,UT,84780,37.118877,-113.5439746,United States,US,Washington County
Albertsons,189 Niblick Rd,Paso Robles,CA,93446,35.616654,-120.6810095,United States,US,San Luis Obispo County
Shaw's,27 Mad River Canoe Rd,Waitsfield,VT,5673,44.1853841,-72.8381571,United States,US,Washington County
Albertsons,927 S China Lake Blvd,Ridgecrest,CA,93555,35.6056822,-117.6747433,United States,US,Kern County
Albertsons,4800 Blue Diamond Rd,Las Vegas,NV,89139,36.0354005,-115.2068864,United States,US,Clark County
Albertsons,1520 Brundage Ln,Bakersfield,CA,93304,35.3553818,-119.0196122,United States,US,Kern County
Albertsons,740 N Main St,Tooele,UT,84074,40.5443712,-112.2963354,United States,US,Tooele County
Albertsons,200 S Hwy 160,Pahrump,NV,89048,36.2168773,-115.9948866,United States,US,Nye County
Albertsons,7127 Hollister Ave #27,Goleta,CA,93117,34.4287963,-119.8769101,United States,US,Santa Barbara County
Albertsons,1018 Casitas Pass Rd,Carpinteria,CA,93013,34.3948084,-119.5119491,United States,US,Santa Barbara County
Albertsons,5801 Calle Real,Goleta,CA,93117,34.440612,-119.8262779,United States,US,Santa Barbara County
Albertsons,2691 Mt Vernon Ave,Bakersfield,CA,93306,35.3961755,-118.9657502,United States,US,Kern County
Albertsons,9022 Balboa Blvd,Northridge,CA,91325,34.2344426,-118.50145,United States,US,Los Angeles County
Jewel-Osco,2317 75th St,Woodridge,IL,60517,41.7494023,-88.0382955,United States,US,Dupage County
Albertsons,13045 Rosedale Hwy,Bakersfield,CA,93314,35.3818264,-119.1461513,United States,US,Kern County
Albertsons,2035 Hillhurst Ave,Los Angeles,CA,90027,34.1088182,-118.2880471,United States,US,Los Angeles County
Albertsons,541 S Reino Rd,Newbury Park,CA,91320,34.1694548,-118.9565817,United States,US,Ventura County
Albertsons,1268 Madera Rd,Simi Valley,CA,93065,34.2616858,-118.7946734,United States,US,Ventura County
Albertsons,4301 212th St SW,Mountlake Terrace,WA,98043,47.8079054,-122.2906708,United States,US,Snohomish County
Shaw's,780 S Main St,Sharon,MA,2067,42.093969,-71.2200989,United States,US,Norfolk County
Albertsons,370 SW Sedgwick Rd,Port Orchard,WA,98367,47.4960999,-122.6521134,United States,US,Kitsap County
Star Market,795 Providence Hwy,Dedham,MA,2026,42.2383296,-71.1793107,United States,US,Norfolk County
Shaw's,"95 Washington St, Cobbs Corner",Canton,MA,2021,42.1394455,-71.1459622,United States,US,Norfolk County
Shaw's,390 West St,Mansfield,MA,2048,42.0236375,-71.2326255,United States,US,Bristol County
Shaw's,35 Columbia Rd,Hanover,MA,2339,42.1173514,-70.8236087,United States,US,Plymouth County
Shaw's,320 Warwick Ave,Warwick,RI,2888,41.7669562,-71.4043322,United States,US,Kent County
Albertsons,4621 NE Sunset Blvd,Renton,WA,98059,47.5036387,-122.1573022,United States,US,King County
Albertsons,16304 Bothell Everett Hwy,Mill Creek,WA,98012,47.8508627,-122.2200993,United States,US,Snohomish County
Albertsons,11720 W Charleston Blvd,Las Vegas,NV,89135,36.1608783,-115.3506124,United States,US,Clark County
Albertsons,12811 Beverly Park Rd,Lynnwood,WA,98087,47.8810777,-122.2810305,United States,US,Snohomish County
Albertsons,301 Marysville Mall #60,Marysville,WA,98270,48.0506499,-122.1783906,United States,US,Snohomish County
Albertsons,1434 Olney Ave SE,Port Orchard,WA,98366,47.5357473,-122.6105257,United States,US,Kitsap County
Shaw's,1 Orchard View Dr,Londonderry,NH,3053,42.8626144,-71.3551597,United States,US,Rockingham County
Albertsons,104 Military Rd,Tacoma,WA,98444,47.1172907,-122.4326707,United States,US,Pierce County
Shaw's,180 A Cambridge St,Burlington,MA,1803,42.5115321,-71.1981356,United States,US,Middlesex County
Albertsons,5415 SW Beaverton Hwy,Portland,OR,97221,45.4879115,-122.7323104,United States,US,Multnomah County
Albertsons,4740 Royal Ave,Eugene,OR,97402,44.0685044,-123.1791411,United States,US,Lane County
Albertsons,3013 NW Stewart Pkwy,Roseburg,OR,97471,43.23931,-123.3641667,United States,US,Douglas County
Albertsons,12013 Central Ave,Chino,CA,91710,34.0354954,-117.6883332,United States,US,San Bernardino County
Albertsons,6601 Quail Hill Pkwy,Irvine,CA,92603,33.6552375,-117.779803,United States,US,Orange County
Shaw's,127 Vt Hwy 12s,Randolph,VT,5060,43.9119433,-72.6631424,United States,US,
Shaw's,64 Equinox Terrace,Manchester Center,VT,5255,43.1719275,-73.0616494,United States,US,Bennington County
Albertsons,2300-c Harbor Blvd,Costa Mesa,CA,92626,33.6568978,-117.9172336,United States,US,Orange County
Albertsons,25691 SE Stark,Troutdale,OR,97060,45.5202018,-122.4002805,United States,US,Multnomah County
Albertsons,27702 Crown Valley Pkwy Suite B,Ladera Ranch,CA,92694,33.5632981,-117.6469909,United States,US,Orange County
Shaw's,1 Chandler Dr,Bath,ME,4530,43.9092258,-69.8293817,United States,US,Sagadahoc County
Albertsons,55 Division Ave,Eugene,OR,97404,44.1006567,-123.1283431,United States,US,Lane County
Albertsons,298 E Live Oak Ave,Arcadia,CA,91006,34.1075492,-118.0228172,United States,US,Los Angeles County
Albertsons,451 NE 181st St,Portland,OR,97230,45.5255283,-122.4790738,United States,US,Multnomah County
Albertsons,42095 Washington St,Palm Desert,CA,92211,33.7428456,-116.3055706,United States,US,Riverside County
Albertsons,2000 Marcola Rd,Springfield,OR,97477,44.0656901,-122.9949774,United States,US,Lane County
Albertsons,19007 S Beavercreek Rd,Oregon City,OR,97045,45.3298248,-122.573234,United States,US,Clackamas County
Albertsons,311 Coburg Rd,Eugene,OR,97401,44.064527,-123.0738877,United States,US,Lane County
Albertsons,2301 Ashland St,Ashland,OR,97520,42.1867606,-122.6709492,United States,US,Jackson County
Albertsons,5755 S Main St,Springfield,OR,97478,44.0441721,-122.9275147,United States,US,Lane County
Albertsons,5850 NE Prescott,Portland,OR,97218,45.5542823,-122.6026893,United States,US,Multnomah County
Albertsons,5500 S 6th St,Klamath Falls,OR,97603,42.2057425,-121.7200642,United States,US,Klamath County
Shaw's,43 State St,Lynn,MA,1901,42.4621156,-70.9504075,United States,US,Essex County
Albertsons,14300 NE 20th Ave,Vancouver,WA,98686,45.7239555,-122.6525896,United States,US,Clark County
Albertsons,7500 SW Baseline Rd,Hillsboro,OR,97123,45.5148621,-122.9037425,United States,US,Washington County
Albertsons,888 NE 25th Ave,Hillsboro,OR,97124,45.5299171,-122.9556024,United States,US,Washington County
Albertsons,220 E Bonita Ave,San Dimas,CA,91773,34.1060214,-117.8034825,United States,US,Los Angeles County
Albertsons,18425 NW West Union Rd,Portland,OR,97229,45.5592489,-122.8663667,United States,US,Washington County
Albertsons,4541 Campus Dr,Irvine,CA,92612,33.6501367,-117.8314176,United States,US,Orange County
Albertsons,2000 E 17th St,Santa Ana,CA,92705,33.7587228,-117.8382862,United States,US,Orange County
Albertsons,1910 N Campus Ave,Upland,CA,91784,34.1311305,-117.6374336,United States,US,San Bernardino County
Albertsons,133 W Route 66,Glendora,CA,91740,34.130068,-117.8650256,United States,US,Los Angeles County
Star Market,53 Huntington Ave,Boston,MA,2199,42.3478421,-71.0793972,United States,US,Suffolk County
Shaw's,137 Tea Ticket Hwy,East Falmouth,MA,2536,41.5617778,-70.5939806,United States,US,Barnstable County
Star Market,4 River St,Dorchester,MA,2124,42.2718894,-71.0697406,United States,US,Suffolk County
Jewel-Osco,1300 S Milwaukee Ave,Libertyville,IL,60048,42.2623836,-87.9471891,United States,US,Lake County
Jewel-Osco,9424 S Pulaski Rd,Oak Lawn,IL,60453,41.7211943,-87.7220333,United States,US,Cook County
Shaw's,200 Lower Main St,Freeport,ME,4032,43.8442616,-70.1183133,United States,US,Cumberland County
Albertsons,28047 Scott Rd,Murrieta,CA,92563,33.6392718,-117.1697638,United States,US,Riverside County
Shaw's,4340 US Rt 5,Derby,VT,5829,44.9471455,-72.0749941,United States,US,Orleans County
Albertsons,3710 State Line Ave,Texarkana,AR,71854,33.4592826,-94.0418446,United States,US,Miller County
Acme Market,829 Montgomery Ave,Narberth,PA,19072,40.01102,-75.2582059,United States,US,Montgomery County
Albertsons,130 5th Ave N,Shelby,MT,59474,48.507294,-111.8599509,United States,US,Toole County
Shaw's,66 Mountain View,Colchester,VT,5446,44.5091138,-73.1810536,United States,US,Chittenden County
Shaw's,160 Paine Turnpike N,Berlin,VT,5602,44.2112472,-72.573114,United States,US,Washington County
Shaw's,15 State Rd,Dartmouth,MA,2747,41.6360572,-70.9615728,United States,US,Bristol County
Shaw's,100 Shaws Ln,Stratham,NH,3885,42.9966416,-70.9277444,United States,US,Rockingham County
Shaw's,68 Stafford St,Worcester,MA,1603,42.241455,-71.8428501,United States,US,Worcester County
Shaw's,17 Main St,Westbrook,ME,4092,43.6795255,-70.3309812,United States,US,Cumberland County
Shaw's,14 W Boylston St,Worcester,MA,1605,42.2886595,-71.8065436,United States,US,Worcester County
Shaw's,8 Chapel View Blvd,Cranston,RI,2920,41.7546022,-71.4609187,United States,US,Providence County
Shaw's,760 A Boston Rd,Groton,MA,1450,42.5799145,-71.5239916,United States,US,Middlesex County
Shaw's,147 Bath Rd,Brunswick,ME,4011,43.9081905,-69.9238978,United States,US,Cumberland County
Shaw's,1073 W Main St,Dover Foxcroft,ME,4426,45.1833036,-69.256531,United States,US,Piscataquis County
Albertsons,2334 Central Ave,Billings,MT,59102,45.7681381,-108.5752831,United States,US,Yellowstone County
Star Market,1 Boylston St,Chestnut Hill,MA,2467,42.3237109,-71.166296,United States,US,Middlesex County
Shaw's,820 Waterbury Stowe Rd,Waterbury,VT,5676,44.3477265,-72.7438299,United States,US,Washington County
Jewel-Osco,3153 W 183rd,Homewood,IL,60430,41.5558941,-87.6931648,United States,US,Cook County
Albertsons,2885 E Desert Inn Rd,Las Vegas,NV,89121,36.1282355,-115.1110015,United States,US,Clark County
Acme Market,175 Route 70,Medford,NJ,8055,39.9035227,-74.835178,United States,US,Burlington County
Shaw's,1175 Main St,Clinton,MA,1510,42.4342173,-71.6843394,United States,US,Worcester County
Shaw's,93 Prospect St,Milford,MA,1757,42.1388342,-71.5335402,United States,US,Worcester County
Shaw's,7 Continental,Merrimack,NH,3054,42.8368912,-71.4987616,United States,US,Hillsborough County
Shaw's,43 Indian Rock Rd,Windham,NH,3087,42.8080135,-71.2898337,United States,US,Rockingham County
Shaw's,9 West Rd,Orleans,MA,2653,41.7803833,-70.000489,United States,US,Barnstable County
Albertsons,28090 S Western Ave,San Pedro,CA,90732,33.7647111,-118.3099033,United States,US,Los Angeles County
Acme Market,400 Simpson Dr,Chester Springs,PA,19425,40.0763226,-75.6893517,United States,US,Chester County
Albertsons,2955 Alpine Blvd,Alpine,CA,91901,32.8329579,-116.7502896,United States,US,San Diego County
Albertsons,7090 Broadway,Lemon Grove,CA,91945,32.7438052,-117.0453883,United States,US,San Diego County
Albertsons,151 Woodland Pkwy,San Marcos,CA,92069,33.140048,-117.1384242,United States,US,San Diego County
Albertsons,2950 College Dr,Baton Rouge,LA,70808,30.422103,-91.1413439,United States,US,East Baton Rouge Parish
Albertsons,8920 Fletcher Pkwy,La Mesa,CA,91942,32.7862599,-117.0055227,United States,US,San Diego County
Albertsons,1929 W San Marcos Blvd,San Marcos,CA,92078,33.1318735,-117.21093,United States,US,San Diego County
Albertsons,9650 Airline Hwy,Baton Rouge,LA,70815,30.4321901,-91.0833121,United States,US,East Baton Rouge Parish
Albertsons,1801 W Thomas St,Hammond,LA,70401,30.4991418,-90.4798771,United States,US,Tangipahoa Parish
Albertsons,200 W Crawford St,Denison,TX,75020,33.7520965,-96.5378122,United States,US,Grayson County
Albertsons,4060 Ryan St S,Lake Charles,LA,70605,30.185313,-93.2201105,United States,US,Calcasieu Parish
Albertsons,4400 Ambassador Caffery,Lafayette,LA,70508,30.1565088,-92.0510497,United States,US,Lafayette Parish
Acme Market,785 Starr St,Phoenixville,PA,19460,40.1238501,-75.507106,United States,US,Chester County
Albertsons,9831 Campo Rd,Spring Valley,CA,91977,32.7469488,-116.9839681,United States,US,San Diego County
Albertsons,19640 Beach Blvd,Huntington Beach,CA,92648,33.6771426,-117.9869692,United States,US,Orange County
Albertsons,1459 Main St,Ramona,CA,92065,33.0393835,-116.8772307,United States,US,San Diego County
Acme Market,1400 E Passyunk Ave,Philadelphia,PA,19147,39.9322933,-75.1622905,United States,US,Philadelphia County
Albertsons,260 W Foothill Pkwy,Corona,CA,92882,33.8435153,-117.5742561,United States,US,Riverside County
Acme Market,851 Gap Newport Pike,Avondale,PA,19311,39.8354996,-75.7987351,United States,US,Chester County
Acme Market,701 Cathedral Road Suit 34,Philadelphia,PA,19128,40.0643191,-75.2367851,United States,US,Philadelphia County
Albertsons,3450 Marron Rd,Oceanside,CA,92056,33.1795935,-117.2964631,United States,US,San Diego County
Albertsons,39140 Winchester Rd,Murrieta,CA,92563,33.55113,-117.1385161,United States,US,Riverside County
Albertsons,23893 Clinton Keith Rd,Wildomar,CA,92595,33.5957464,-117.2414316,United States,US,Riverside County
Albertsons,9560 Winter Gardens Blvd,Lakeside,CA,92040,32.8515604,-116.9325313,United States,US,San Diego County
Albertsons,4150 Oceanside Blvd,Oceanside,CA,92056,33.2077157,-117.2872673,United States,US,San Diego County
Albertsons,655 14th St,San Diego,CA,92101,32.7121466,-117.1514293,United States,US,San Diego County
Albertsons,1571 San Elijo Rd S,San Marcos,CA,92078,33.0970012,-117.1998122,United States,US,San Diego County
Albertsons,31960 Temecula Pkwy,Temecula,CA,92592,33.4822043,-117.100553,United States,US,Riverside County
Jewel-Osco,5545 S Brainard Ave,Countryside,IL,60525,41.7897647,-87.8778358,United States,US,Cook County
Albertsons,720 3rd Ave,Chula Vista,CA,91910,32.6265762,-117.0757742,United States,US,San Diego County
Albertsons,543 Sweetwater Rd,Spring Valley,CA,91977,32.7082197,-117.0086037,United States,US,San Diego County
Acme Market,323 Old York Rd,Jenkintown,PA,19046,40.0917732,-75.1251667,United States,US,Montgomery County
Acme Market,1305 W Chester Pike,Havertown,PA,19083,39.9742733,-75.3216331,United States,US,Delaware County
Albertsons,2863 Ambassador Caffery,Lafayette,LA,70506,30.1983476,-92.0737205,United States,US,Lafayette Parish
Acme Market,609 E Bay Ave,Manahawkin,NJ,8050,39.685083,-74.2390196,United States,US,Ocean County
Acme Market,800 2nd St Pike,Richboro,PA,18954,40.2092683,-75.0137201,United States,US,Bucks County
Acme Market,1336 Bristol Pike,Bensalem,PA,19020,40.0735437,-74.9664414,United States,US,Bucks County
Acme Market,2007 Route 35,Wall Township,NJ,7719,40.1525535,-74.0568171,United States,US,Monmouth County
Acme Market,6640 Oxford Ave,Philadelphia,PA,19111,40.0503302,-75.0869393,United States,US,Philadelphia County
Albertsons,30901 Riverside Dr,Lake Elsinore,CA,92530,33.6860921,-117.3669546,United States,US,Riverside County
Albertsons,311 W College Dr,Durango,CO,81301,37.2719913,-107.8852304,United States,US,La Plata County
Albertsons,16600 Bolsa Chica St,Huntington Beach,CA,92649,33.7211396,-118.040656,United States,US,Orange County
Acme Market,100 Suburban Dr,Newark,DE,19711,39.6679771,-75.7755768,United States,US,New Castle County
Acme Market,1401 N Dupont St,Wilmington,DE,19806,39.7572081,-75.5637885,United States,US,New Castle County
Acme Market,527 E Baltimore Pike,Media,PA,19063,39.9159687,-75.3786542,United States,US,Delaware County
Shaw's,20 D'amante Dr,Concord,NH,3301,43.2221444,-71.489765,United States,US,Merrimack County
Acme Market,2098 Naamans Rd,Wilmington,DE,19810,39.8238197,-75.5005541,United States,US,New Castle County
Albertsons,1601 Hwy 50 W,Pueblo,CO,81008,38.3108502,-104.6276301,United States,US,Pueblo County
Acme Market,146 Fox Hunt Dr,Bear,DE,19701,39.6065277,-75.7119802,United States,US,New Castle County
Albertsons,1930 N Placentia Ave,Fullerton,CA,92831,33.8900828,-117.8722629,United States,US,Orange County
Acme Market,611 Railroad Ave,Centreville,MD,21617,39.0397184,-76.0560382,United States,US,Queen Anne's County
Acme Market,5300 Park Blvd,Wildwood,NJ,8260,38.9840341,-74.8300145,United States,US,Cape May County
Albertsons,4909 E Main St,Farmington,NM,87402,36.7660546,-108.1462949,United States,US,San Juan County
Albertsons,3931 Irvine Blvd,Irvine,CA,92602,33.7242,-117.7723186,United States,US,Orange County
Acme Market,4720 Limestone Rd,Wilmington,DE,19808,39.7400068,-75.6938026,United States,US,New Castle County
Acme Market,128 Lantana Dr,Hockessin,DE,19707,39.773786,-75.7086179,United States,US,New Castle County
Acme Market,212 New Rd,Somers Point,NJ,8244,39.3276,-74.5952055,United States,US,Atlantic County
Albertsons,117 Main St S,Harlem,MT,59526,48.5316851,-108.7847937,United States,US,Blaine County
Acme Market,301 S Main St,Vineland,NJ,8360,39.4793244,-74.9994951,United States,US,Cumberland County
Acme Market,315 Ocean St,Cape May,NJ,8204,38.9339808,-74.9211055,United States,US,Cape May County
Acme Market,711 Washington Ave,Chestertown,MD,21620,39.2251401,-76.0692994,United States,US,Kent County
Acme Market,4454 Black Horse Pike,Mays Landing,NJ,8330,39.4512067,-74.6482774,United States,US,Atlantic County
Acme Market,15 Avalon Blvd,Cape May Court House,NJ,8210,39.1274428,-74.7784166,United States,US,Cape May County
Acme Market,1 University Plaza,Newark,DE,19702,39.6668773,-75.6719009,United States,US,New Castle County
Acme Market,1308 Centerville Rd,Wilmington,DE,19808,39.7340656,-75.6235365,United States,US,New Castle County
Acme Market,1901 Concord Pike,Wilmington,DE,19803,39.7877886,-75.545047,United States,US,New Castle County
Acme Market,907 Paoli Pike,West Chester,PA,19380,39.9697672,-75.5872288,United States,US,Chester County
Acme Market,11 Court House South Dennis Rd,Cape May Court House,NJ,8210,39.089435,-74.8220176,United States,US,Cape May County
Acme Market,124 Morton Ave,Folsom,PA,19033,39.8848787,-75.3282815,United States,US,Delaware County
Acme Market,751 S Salisbury Blvd,Salisbury,MD,21801,38.3548239,-75.5992574,United States,US,Wicomico County
Jewel-Osco,3400 N Western Ave,Chicago,IL,60618,41.9434454,-87.6900084,United States,US,Cook County
Albertsons,2551 E Lohman Ave,Las Cruces,NM,88011,32.3173707,-106.7434597,United States,US,Doña Ana County
Albertsons,2200 Yarbrough Dr,El Paso,TX,79925,31.7729727,-106.3377332,United States,US,El Paso County
Albertsons,750 E Guadalupe Rd,Tempe,AZ,85283,33.3651031,-111.9297059,United States,US,Maricopa County
Acme Market,1619 Center Square Rd,Swedesboro,NJ,8085,39.7546486,-75.3543174,United States,US,Gloucester County
Acme Market,576 River Rd,Fair Haven,NJ,7704,40.3606849,-74.0421465,United States,US,Monmouth County
Albertsons,325 S Power Rd,Mesa,AZ,85206,33.4094867,-111.6823752,United States,US,Maricopa County
Albertsons,7300 N La Cholla Blvd,Tucson,AZ,85741,32.3392651,-111.012634,United States,US,Pima County
Albertsons,2854 N Campbell Ave,Tucson,AZ,85719,32.2586591,-110.942629,United States,US,Pima County
Albertsons,6600 E Grant Rd,Tucson,AZ,85715,32.2477302,-110.8521423,United States,US,Pima County
Albertsons,6965 N Hayden Rd,Scottsdale,AZ,85250,33.5374383,-111.9062309,United States,US,Maricopa County
Albertsons,14551 W Grand Ave,Surprise,AZ,85374,33.656189,-112.3761538,United States,US,Maricopa County
Albertsons,1951 W Baseline Rd,Mesa,AZ,85202,33.3774147,-111.8761418,United States,US,Maricopa County
Albertsons,3145 S Alma School Rd,Chandler,AZ,85248,33.2606668,-111.8570449,United States,US,Maricopa County
Albertsons,8240 W Deer Valley Rd,Peoria,AZ,85382,33.6832334,-112.2363526,United States,US,Maricopa County
Acme Market,700 Haddonfield-Berlin Rd,Voorhees,NJ,8043,39.8530874,-74.9822917,United States,US,Camden County
Acme Market,6212 Landis Ave,Sea Isle City,NJ,8243,39.1418923,-74.7036651,United States,US,Cape May County
Albertsons,9243 E Baseline Rd,Mesa,AZ,85209,33.3777578,-111.6334672,United States,US,Maricopa County
Albertsons,5200 Montana Ave,El Paso,TX,79903,31.782424,-106.4264164,United States,US,El Paso County
Albertsons,3800 Russell St,Missoula,MT,59801,46.8355071,-114.0152632,United States,US,Missoula County
Acme Market,136 Lake Ave,Midland Park,NJ,7432,40.9831336,-74.1404217,United States,US,Bergen County
Acme Market,125 Franklin Turnpike,Mahwah,NJ,7430,41.0992549,-74.1447322,United States,US,Bergen County
Albertsons,5500 Boulder Hwy,Las Vegas,NV,89122,36.1015712,-115.054569,United States,US,Clark County
Acme Market,3101 Route 22,Patterson,NY,12563,41.5169024,-73.5919397,United States,US,Putnam County
Acme Market,2160 Lemoine Ave,Fort Lee,NJ,7024,40.8560522,-73.9663902,United States,US,Bergen County
Acme Market,520 Chestnut Ridge Rd,Woodcliff Lake,NJ,7677,41.0430812,-74.0709523,United States,US,Bergen County
Jewel-Osco,1401 W Jefferson St,Joliet,IL,60435,41.5251021,-88.1158674,United States,US,Will County
Acme Market,123 E Main St,Denville,NJ,7834,40.8888642,-74.4804961,United States,US,Morris County
Acme Market,125 18th St,Jersey City,NJ,7310,40.7326632,-74.0381867,United States,US,Hudson County
Acme Market,321 Route 440,Jersey City,NJ,7305,40.7074376,-74.1002521,United States,US,Hudson County
Acme Market,45 De Mercurio Dr,Allendale,NJ,7401,41.0289552,-74.1281256,United States,US,Bergen County
Acme Market,801 Kenilworth Blvd,Kenilworth,NJ,7033,40.6780468,-74.281517,United States,US,Union County
Acme Market,5734 Berkshire Valley Rd,Oak Ridge,NJ,7438,41.0369941,-74.5036052,United States,US,Morris County
Albertsons,8880 Valley View St,Buena Park,CA,90620,33.8339849,-118.0273072,United States,US,Orange County
Jewel-Osco,1227 Naper Blvd,Naperville,IL,60540,41.7517422,-88.116731,United States,US,Dupage County
Jewel-Osco,1307 N 2nd St,Clinton,IA,52732,41.8588431,-90.1841825,United States,US,Clinton County
Jewel-Osco,446 S Washington Ave,Kankakee,IL,60901,41.1162212,-87.8674043,United States,US,Kankakee County
Albertsons,16061 Brookhurst St,Fountain Valley,CA,92708,33.7290517,-117.9566604,United States,US,Orange County
Albertsons,2291 W Malvern Ave,Fullerton,CA,92833,33.8785171,-117.966056,United States,US,Orange County
Albertsons,2469 Via Campo St,Montebello,CA,90640,34.0311748,-118.1226002,United States,US,Los Angeles County
Jewel-Osco,747 Indian Boundary Rd,Chesterton,IN,46304,41.6179214,-87.0404089,United States,US,Porter County
Jewel-Osco,13460 S Rt 59,Plainfield,IL,60585,41.6380689,-88.2057779,United States,US,
Shaw's,246 Border St,East Boston,MA,2128,42.3765938,-71.0403646,United States,US,Suffolk County
Jewel-Osco,3128 W 103rd St,Chicago,IL,60655,41.7068396,-87.7002489,United States,US,Cook County
Shaw's,8 Washington St,Middlebury,VT,5753,44.0143709,-73.1634825,United States,US,Addison County
Albertsons,2935 E Riggs Rd,Chandler,AZ,85249,33.2177055,-111.7907174,United States,US,Maricopa County
Albertsons,670 Main St,Billings,MT,59105,45.8101753,-108.4734228,United States,US,Yellowstone County
Jewel-Osco,1341 N Paulina St,Chicago,IL,60622,41.9064522,-87.6687495,United States,US,Cook County
Jewel-Osco,7201 W 24th St,North Riverside,IL,60546,41.8475571,-87.8044538,United States,US,Cook County
Jewel-Osco,103 S Randall Rd,Algonquin,IL,60102,42.1746749,-88.3328886,United States,US,McHenry County
Albertsons,1300 Airport Freeway,Bedford,TX,76022,32.8369596,-97.1502413,United States,US,Tarrant County
Albertsons,3010 E 57th Ave,Spokane,WA,99223,47.6009159,-117.3670677,United States,US,Spokane County
Jewel-Osco,4729 N Central Ave,Chicago,IL,60630,41.966874,-87.766724,United States,US,Cook County
Jewel-Osco,7342 W Foster Ave,Chicago,IL,60656,41.975389,-87.8110634,United States,US,Cook County
Jewel-Osco,14200 S Bell Rd,Homer Glen,IL,60491,41.6308326,-87.9330207,United States,US,Will County
Jewel-Osco,1250 W Main St,West Dundee,IL,60118,42.1004043,-88.3000852,United States,US,Kane County
Albertsons,7515 Perkins Rd,Baton Rouge,LA,70808,30.3969491,-91.1098982,United States,US,East Baton Rouge Parish
Albertsons,450 E Cypress Ave,Redlands,CA,92373,34.0486276,-117.1715099,United States,US,San Bernardino County
Albertsons,43543 20th St W,Lancaster,CA,93536,34.6737936,-118.1676714,United States,US,Los Angeles County
Shaw's,55 Depot St,Poultney,VT,5764,43.5179726,-73.2374892,United States,US,Rutland County
Shaw's,195 Old Rt 22a,Fair Haven,VT,5743,43.601664,-73.2760754,United States,US,Rutland County
Albertsons,745 N Dixie Dr,Saint George,UT,84770,37.1209062,-113.6246491,United States,US,Washington County
Albertsons,38727 Tierra Subida Ave,Palmdale,CA,93551,34.586126,-118.1490227,United States,US,Los Angeles County
Albertsons,26521 Agoura Rd,Calabasas,CA,91302,34.1449974,-118.6997116,United States,US,Los Angeles County
Albertsons,2547 Rosamond,Rosamond,CA,93560,34.8648787,-118.1770147,United States,US,Kern County
Albertsons,730 Quintana Rd,Morro Bay,CA,93442,35.3675051,-120.8443314,United States,US,San Luis Obispo County
Albertsons,775 S Tucker Rd,Tehachapi,CA,93561,35.1257269,-118.4695163,United States,US,Kern County
Albertsons,2320 S Broadway,Santa Maria,CA,93454,34.9183798,-120.4345028,United States,US,Santa Barbara County
Albertsons,27631 W Bouquet Canyon Rd,Saugus,CA,91350,34.444093,-118.5121236,United States,US,Los Angeles County
Albertsons,1301 N Norma St,Ridgecrest,CA,93555,35.6455409,-117.6810661,United States,US,Kern County
Albertsons,1044 W Kern St,Taft,CA,93268,35.1464344,-119.4663536,United States,US,Kern County
Albertsons,1120 E Clark Ave,Orcutt,CA,93455,34.8636835,-120.4172178,United States,US,Santa Barbara County
Albertsons,6045 Coffee Rd,Bakersfield,CA,93308,35.4140106,-119.0941716,United States,US,Kern County
Shaw's,1400 Lakeshore Dr,Gilford,NH,3249,43.5638809,-71.4470817,United States,US,Belknap County
Jewel-Osco,7122 W 40th St,Stickney,IL,60402,41.8206347,-87.8013846,United States,US,Cook County
Shaw's,125 Pearl St,Braintree,MA,2184,42.2010966,-71.0002517,United States,US,Norfolk County
Albertsons,705 Trosper Rd SW,Tumwater,WA,98512,46.998425,-122.9176146,United States,US,Thurston County
Shaw's,476 Liberty St,Hanson,MA,2341,42.0659847,-70.8690329,United States,US,Plymouth County
Shaw's,4171 N Main St,Fall River,MA,2720,41.7508914,-71.1208993,United States,US,Bristol County
Shaw's,125 Robert Toner Blvd,North Attleboro,MA,2763,41.9708459,-71.3009697,United States,US,Bristol County
Albertsons,3322 132nd St SE,Mill Creek,WA,98012,47.8766604,-122.1872181,United States,US,Snohomish County
Shaw's,230 Main St,Medfield,MA,2052,42.1943836,-71.2876721,United States,US,Norfolk County
Shaw's,121 Memorial Pkwy,Randolph,MA,2368,42.1638197,-71.0455517,United States,US,Norfolk County
Shaw's,301 Pond St,Ashland,MA,1721,42.2409072,-71.4330904,United States,US,Middlesex County
Shaw's,300 New State Hwy,Raynham,MA,2767,41.9067495,-71.053702,United States,US,Bristol County
Jewel-Osco,3124 N Lewis Ave,Waukegan,IL,60087,42.4092104,-87.8571239,United States,US,Lake County
Shaw's,641 Belmont St,Brockton,MA,2301,42.0717954,-71.045691,United States,US,Plymouth County
Shaw's,65 Main St,Medway,MA,2053,42.1521384,-71.4034045,United States,US,Norfolk County
Shaw's,1177 Providence Rd,Whitinsville,MA,1588,42.1240406,-71.6460595,United States,US,Worcester County
Shaw's,186 County Rd,Barrington,RI,2806,41.7366467,-71.306881,United States,US,Bristol County
Shaw's,71 E Main Rd,Middletown,RI,2842,41.5173208,-71.2964225,United States,US,Newport County
Albertsons,520 128th St SW,Everett,WA,98204,47.8808004,-122.2406129,United States,US,Snohomish County
Shaw's,130 River St,Waltham,MA,2453,42.3692525,-71.2215263,United States,US,Middlesex County
Jewel-Osco,4222 W Elm St,McHenry,IL,60050,42.3478958,-88.2801994,United States,US,McHenry County
Albertsons,1751 N Sunrise Way (#1),Palm Springs,CA,92262,33.8461196,-116.5292815,United States,US,Riverside County
Acme Market,550 Myrtle Ave,Boonton,NJ,7005,40.9086562,-74.3969574,United States,US,Morris County
Albertsons,4550 E Chapman Ave,Orange,CA,92869,33.7866144,-117.8041728,United States,US,Orange County
Shaw's,1070 Iyannough Rd,Hyannis,MA,2601,41.675351,-70.3046632,United States,US,Barnstable County
Albertsons,715 12th Ave S,Nampa,ID,83651,43.5743789,-116.5667666,United States,US,Canyon County
Shaw's,670 Bath Rd,Wiscasset,ME,4578,43.9730184,-69.70944,United States,US,Lincoln County
Shaw's,100 N Main St,Carver,MA,2330,41.923357,-70.805729,United States,US,Plymouth County
Albertsons,7070 Archibald Ave,Eastvale,CA,92880,33.9597787,-117.5917274,United States,US,Riverside County
Albertsons,1570 W Valley Pkwy,Escondido,CA,92029,33.1087309,-117.1057928,United States,US,San Diego County
Acme Market,8200 Roosevelt Blvd,Philadelphia,PA,19152,40.0602891,-75.0452345,United States,US,Philadelphia County
Acme Market,614 Clinton St,Hoboken,NJ,7030,40.7454203,-74.033963,United States,US,Hudson County
Acme Market,58 Broadway,Elmwood Park,NJ,7407,40.918005,-74.127024,United States,US,Bergen County
Acme Market,510 Valley Rd,Montclair,NJ,7043,40.8372493,-74.207844,United States,US,Essex County
Acme Market,503 S MacDade Blvd,Holmes,PA,19043,39.8990617,-75.3016766,United States,US,Delaware County
Acme Market,481 River Rd,Edgewater,NJ,7020,40.8138123,-73.9841943,United States,US,Bergen County
Acme Market,1060 Raritan Rd,Clark,NJ,7066,40.6285101,-74.3160377,United States,US,Union County
Acme Market,455 Route 23 N,Sussex,NJ,7461,41.2035002,-74.6018403,United States,US,Sussex County
Acme Market,152 Route 94,Blairstown,NJ,7825,40.9836896,-74.9970369,United States,US,Warren County
Acme Market,19-21 Ave At Port Imperial,West New York,NJ,7093,40.7821113,-74.0070652,United States,US,Hudson County
Acme Market,4100 Park Ave,Weehawken,NJ,7086,40.7741211,-74.0202808,United States,US,Hudson County
Acme Market,18 Broadway,Browns Mills,NJ,8015,39.9752482,-74.5808705,United States,US,Burlington County
Albertsons,1285 S El Paseo Rd,Las Cruces,NM,88001,32.2982477,-106.770185,United States,US,Doña Ana County
Acme Market,41 W Main St,Maple Shade,NJ,8052,39.9554648,-75.0037014,United States,US,Burlington County
Albertsons,3100 Mesa St,El Paso,TX,79902,31.7809989,-106.5048737,United States,US,El Paso County
Acme Market,40 Ellis St,Haddonfield,NJ,8033,39.8965456,-75.0309045,United States,US,Camden County
Albertsons,441 N Val Vista Dr,Mesa,AZ,85213,33.4238622,-111.751964,United States,US,Maricopa County
Albertsons,8950 W Bell Rd,Peoria,AZ,85382,33.6398357,-112.2516279,United States,US,Maricopa County
Acme Market,75 Mayhill St,Saddle Brook,NJ,7663,40.8993197,-74.092245,United States,US,Bergen County
Albertsons,30 S 3rd St E,Malta,MT,59538,48.3571344,-107.8734675,United States,US,Phillips County
Albertsons,11320 Montwood Dr,El Paso,TX,79936,31.7672583,-106.30205,United States,US,El Paso County
Albertsons,1825 17th St,Cody,WY,82414,44.5178578,-109.055448,United States,US,Park County
Albertsons,2500 E Imperial Hwy,Brea,CA,92821,33.9103656,-117.8674073,United States,US,Orange County
Jewel-Osco,9652 W 131st St,Palos Park,IL,60464,41.6535459,-87.8561119,United States,US,Cook County
Shaw's,96 Daniel Webster Hwy,Belmont,NH,3220,43.5145443,-71.4921496,United States,US,Belknap County
Jewel-Osco,2775 Pfingsten Rd,Glenview,IL,60026,42.1050165,-87.8458103,United States,US,Cook County
Jewel-Osco,507 E Woodlawn Ave,La Grange Park,IL,60526,41.8238477,-87.8682403,United States,US,Cook County
Albertsons,7201 Boulder Ave,Highland,CA,92346,34.1239047,-117.193564,United States,US,San Bernardino County
Albertsons,19307 Saticoy St,Reseda,CA,91335,34.2096282,-118.5541726,United States,US,Los Angeles County
Jewel-Osco,1501 E Algonquin Rd,Algonquin,IL,60102,42.158695,-88.2745543,United States,US,McHenry County
Jewel-Osco,1660 Larkin Ave,Elgin,IL,60123,42.0348358,-88.3192236,United States,US,Kane County
Shaw's,751 Maple St,Stowe,VT,5672,44.4715418,-72.6742698,United States,US,Lamoille County
Jewel-Osco,750 Army Trail Rd,Carol Stream,IL,60188,41.9392965,-88.1460652,United States,US,Dupage County
Jewel-Osco,5616 W 159th St,Oak Forest,IL,60452,41.6041822,-87.7577279,United States,US,Cook County
Shaw's,1150 Eastman Rd,Center Conway,NH,3813,44.137978,-71.0554061,United States,US,Carroll County
Shaw's,690 Depot St,North Easton,MA,2356,42.0242698,-71.1164429,United States,US,Bristol County
Acme Market,100 Triangle Center,Yorktown Heights,NY,10598,41.2777972,-73.7792698,United States,US,Westchester County
Acme Market,610 Columbus Ave,Thornwood,NY,10594,41.1132682,-73.7707497,United States,US,Westchester County
Acme Market,660 Mc Lean Ave,Yonkers,NY,10704,40.9094052,-73.8765469,United States,US,Westchester County
Acme Market,3105 East Main Street,Mohegan Lake,NY,10547,41.3108952,-73.8710915,United States,US,Westchester County
Acme Market,1511 Ny Route 22,Brewster,NY,10509,41.4196815,-73.5778524,United States,US,Putnam County
Acme Market,100 Route 22,Goldens Bridge,NY,10526,41.2932958,-73.6759706,United States,US,Westchester County
Acme Market,829 Route 82,Hopewell Junction,NY,12533,41.5807061,-73.8121786,United States,US,Dutchess County
Acme Market,12 Cedar St,Bronxville,NY,10708,40.938992,-73.8339115,United States,US,Westchester County
Shaw's,160 Old Tower Hill Rd,Wakefield,RI,2879,41.4439207,-71.4826973,United States,US,Washington County
Acme Market,1201 High Ridge Rd,Stamford,CT,6905,41.1098305,-73.5463323,United States,US,Fairfield County
Jewel-Osco,944 S York Rd,Elmhurst,IL,60126,41.9362165,-87.9402319,United States,US,Dupage County
Shaw's,739 Chief Justice Cushing,Cohasset,MA,2025,42.2221284,-70.8050044,United States,US,Norfolk County
Acme Market,272 US Route 6,Mahopac,NY,10541,41.3473483,-73.7540386,United States,US,Putnam County
Acme Market,261 S Ridge St,Rye Brook,NY,10573,41.0004374,-73.6790526,United States,US,Westchester County
Shaw's,50 Boston Turnpike Rd,Shrewsbury,MA,1545,42.271728,-71.7513909,United States,US,Worcester County
Shaw's,178 Main St,Sturbridge,MA,1566,42.0979131,-72.071074,United States,US,Worcester County
Shaw's,25 Water Tower Plaza,Leominster,MA,1453,42.5433369,-71.7586338,United States,US,Worcester County
Shaw's,114-128 Essex Center Dr,Peabody,MA,1960,42.5414278,-70.9479782,United States,US,Essex County
Shaw's,851 Central Ave,Dover,NH,3820,43.2182829,-70.8798134,United States,US,Strafford County
Jewel-Osco,655 Main St NW,Bourbonnais,IL,60914,41.1608923,-87.8861179,United States,US,Kankakee County
Shaw's,20 Fort Eddy Rd,Concord,NH,3301,43.2110098,-71.5301694,United States,US,Merrimack County
Shaw's,45 Storey Ave,Newburyport,MA,1950,42.8198892,-70.9061167,United States,US,Essex County
Shaw's,586 Nashua St,Milford,NH,3055,42.8251291,-71.6248752,United States,US,Hillsborough County
Shaw's,11 Traders Way,Salem,MA,1970,42.5017904,-70.9215472,United States,US,Essex County
Acme Market,160 W Putnam Ave,Greenwich,CT,6830,41.0266111,-73.6310848,United States,US,Fairfield County
Acme Market,1886 Pleasantville Rd,Briarcliff Manor,NY,10510,41.1639424,-73.8471442,United States,US,Westchester County
Acme Market,1261 E Putnam Ave,Riverside,CT,6878,41.0428453,-73.5771721,United States,US,Fairfield County
Acme Market,777 White Plains Rd,Scarsdale,NY,10583,40.9746383,-73.8038757,United States,US,Westchester County
Acme Market,103 Knollwood Rd,White Plains,NY,10607,41.0387184,-73.8067109,United States,US,Westchester County
Jewel-Osco,3243 W 115th St,Merrionette Park,IL,60803,41.6835489,-87.7018801,United States,US,Cook County
Jewel-Osco,800 NW Hwy 14,Fox River Grove,IL,60021,42.1952604,-88.209839,United States,US,McHenry County
Albertsons,804 Avenida Pico,San Clemente,CA,92673,33.4427065,-117.6140429,United States,US,Orange County
Albertsons,8938 Trautwein Rd,Riverside,CA,92508,33.8903082,-117.3228998,United States,US,Riverside County
Albertsons,3255 Grand Ave,Chino Hills,CA,91709,34.0016817,-117.7342333,United States,US,San Bernardino County
Jewel-Osco,6140 Northwest Hwy,Crystal Lake,IL,60014,42.2287372,-88.3183124,United States,US,McHenry County
Shaw's,71 Boxwood St,Williston,VT,5495,44.4468585,-73.1082955,United States,US,Chittenden County
Shaw's,213 Main St,Ludlow,VT,5149,43.3969452,-72.7035276,United States,US,Windsor County
Albertsons,615 SW Keck Dr,McMinnville,OR,97128,45.1964171,-123.205106,United States,US,Yamhill County
Shaw's,2 Chester Rd,Springfield,VT,5156,43.3025032,-72.4925665,United States,US,Windsor County
Shaw's,199 Main St,Lancaster,NH,3584,44.4962472,-71.5732892,United States,US,Coos County
Shaw's,15 Forest St,Woodsville,NH,3785,44.1444771,-72.0291976,United States,US,Grafton County
Shaw's,115c Monkton Road,Vergennes,VT,5491,44.1734164,-73.2421878,United States,US,Addison County
Shaw's,770 Roosevelt Trail,Windham,ME,4062,43.8355726,-70.4431865,United States,US,Cumberland County
Shaw's,91 Auburn St,Portland,ME,4103,43.7028994,-70.2881767,United States,US,Cumberland County
Albertsons,2400 W Commonwealth Ave,Alhambra,CA,91803,34.0865726,-118.1498455,United States,US,Los Angeles County
Shaw's,417 Payne Rd,Scarborough,ME,4074,43.6200347,-70.3505669,United States,US,Cumberland County
Albertsons,23072 Alicia Pkwy,Mission Viejo,CA,92692,33.6274397,-117.636172,United States,US,Orange County
Shaw's,600 Center St,Auburn,ME,4210,44.1239099,-70.226703,United States,US,Androscoggin County
Albertsons,8440 E Chapman Ave,Orange,CA,92869,33.7918045,-117.7636333,United States,US,Orange County
Shaw's,150 Western Ave,Augusta,ME,4330,44.3115766,-69.7947986,United States,US,Kennebec County
Albertsons,29941 Alicia Pkwy,Laguna Niguel,CA,92677,33.528092,-117.7175764,United States,US,Orange County
Albertsons,33601 Del Obispo St,Dana Point,CA,92629,33.4750607,-117.686245,United States,US,Orange County
Star Market,699 Mt Auburn St,Cambridge,MA,2138,42.3753833,-71.149122,United States,US,Middlesex County
Star Market,1070 Lexington St,Waltham,MA,2452,42.4124873,-71.2344277,United States,US,Middlesex County
Shaw's,509 Boston Post Rd,Sudbury,MA,1776,42.3589975,-71.4294725,United States,US,Middlesex County
Albertsons,2975 Van Buren Blvd,Riverside,CA,92503,33.9092563,-117.4352303,United States,US,Riverside County
Star Market,130 Granite St,Quincy,MA,2169,42.2447737,-71.00511,United States,US,Norfolk County
Star Market,275 Beacon St,Somerville,MA,2143,42.3836698,-71.1118936,United States,US,Middlesex County
Star Market,33 Kilmarnock St,Boston,MA,2215,42.3435552,-71.1004512,United States,US,Suffolk County
Shaw's,1377 Hyde Park Ave,Hyde Park,MA,2136,42.2518761,-71.1260055,United States,US,Suffolk County
Star Market,535 Trapelo Rd,Belmont,MA,2478,42.3885361,-71.1911738,United States,US,Middlesex County
Shaw's,155 Great Rd,Stow,MA,1775,42.4347601,-71.487046,United States,US,Middlesex County
Shaw's,2260 State Rd,Plymouth,MA,2360,41.8208995,-70.5504775,United States,US,Plymouth County
Albertsons,40101 Monterey Ave,Rancho Mirage,CA,92270,33.7572637,-116.3915168,United States,US,Riverside County
Albertsons,14201 Jeffrey Rd,Irvine,CA,92620,33.6952337,-117.7655032,United States,US,Orange County
Albertsons,2108 W Main St,Battle Ground,WA,98604,45.7817208,-122.5603685,United States,US,Clark County
Star Market,1 Snow Rd,Marshfield,MA,2050,42.0913307,-70.7081349,United States,US,Plymouth County
Albertsons,1800 NE 3rd St,Bend,OR,97701,44.0682533,-121.3014823,United States,US,Deschutes County
Shaw's,625 Meadow St,Littleton,NH,3561,44.302804,-71.8014812,United States,US,Grafton County
Jewel-Osco,3644 S Archer Ave,Chicago,IL,60609,41.8278613,-87.6826921,United States,US,Cook County
Shaw's,4 Scammon St Suite 10,Saco,ME,4072,43.502383,-70.4483831,United States,US,York County
Acme Market,23 Quaker Ridge Rd,New Rochelle,NY,10804,40.9472379,-73.7940344,United States,US,Westchester County
Acme Market,13 North Ave,Pleasant Valley,NY,12569,41.7451062,-73.8260082,United States,US,Dutchess County
Acme Market,288 Elm St,New Canaan,CT,6840,41.1447569,-73.5002784,United States,US,Fairfield County
Acme Market,309 S Fifth St,Philadelphia,PA,19106,39.9443406,-75.1498865,United States,US,Philadelphia County
Acme Market,800 West Ave,Ocean City,NJ,8226,39.2805452,-74.5769925,United States,US,Cape May County
Shaw's,127 Marion Rd,Wareham,MA,2571,41.7596904,-70.7288345,United States,US,Plymouth County
Acme Market,1001 South St,Philadelphia,PA,19147,39.943091,-75.1591759,United States,US,Philadelphia County
Acme Market,177 Washington Valley Rd,Warren,NJ,7059,40.6153743,-74.496889,United States,US,Somerset County
Acme Market,18578 Coastal Hwy Unit 13,Rehoboth Beach,DE,19971,38.7357341,-75.1426807,United States,US,Sussex County
Acme Market,100 College Square,Newark,DE,19711,39.6827429,-75.7355136,United States,US,New Castle County
Acme Market,4365 Robert Kirkwood Hwy,Wilmington,DE,19808,39.7287404,-75.652931,United States,US,
Acme Market,643 Conchester Pike,Boothwyn,PA,19061,39.8517013,-75.4513929,United States,US,Delaware County
Jewel-Osco,234 E Veterans Pkwy,Yorkville,IL,60560,41.6556357,-88.4405398,United States,US,Kendall County
Acme Market,6601 Roosevelt Blvd,Philadelphia,PA,19149,40.0356996,-75.0626661,United States,US,Philadelphia County
Albertsons,41000 California Oaks Rd,Murrieta,CA,92562,33.5677958,-117.2036853,United States,US,Riverside County
Albertsons,1210 Albertson Pkwy,Broussard,LA,70518,30.1399409,-91.9486621,United States,US,Lafayette Parish
Acme Market,5927-59 Ridge Ave,Philadelphia,PA,19128,40.0308587,-75.2119765,United States,US,Philadelphia County
Albertsons,3925 Mission Ave,Oceanside,CA,92058,33.2276023,-117.3240018,United States,US,San Diego County
Acme Market,29 Snyder Ave,Philadelphia,PA,19148,39.9232533,-75.1447786,United States,US,Philadelphia County
Acme Market,200 Blair Mill Rd,Horsham,PA,19044,40.1830558,-75.1193283,United States,US,Montgomery County
Albertsons,2899 Jamacha Rd,El Cajon,CA,92019,32.7391124,-116.9375984,United States,US,San Diego County
Albertsons,8650 Lake Murray Blvd,San Diego,CA,92119,32.8016457,-117.0132941,United States,US,San Diego County
Acme Market,7901 Lansdowne Ave,Upper Darby,PA,19082,39.9573936,-75.2654063,United States,US,
Albertsons,1260 E Ontario Ave,Corona,CA,92881,33.84687,-117.5423385,United States,US,Riverside County
Albertsons,2750 Country Club Rd,Lake Charles,LA,70605,30.1705922,-93.2654351,United States,US,Calcasieu Parish
Albertsons,7975 Blue Diamond Rd.,Las Vegas,NV,89178,36.0181193,-115.2651442,United States,US,Clark County
Acme Market,530 Rt 515,Vernon,NJ,7462,41.1949089,-74.4830603,United States,US,Sussex County
Acme Market,990 Shrewsbury Ave,Tinton Falls,NJ,7724,40.3112693,-74.0676481,United States,US,Monmouth County
Acme Market,3500 Route 9,Old Bridge,NJ,8857,40.3826979,-74.3094379,United States,US,Middlesex County
Acme Market,1366 E Main St,Shrub Oak,NY,10588,41.3279984,-73.8394597,United States,US,Westchester County
Acme Market,1812 Marsh Rd,Wilmington,DE,19810,39.8044169,-75.5053775,United States,US,New Castle County
Acme Market,7700 Crittenden St,Philadelphia,PA,19118,40.0726108,-75.1943408,United States,US,Philadelphia County
Acme Market,236 E Glenwood Ave,Smyrna,DE,19977,39.3058032,-75.6100423,United States,US,Kent County
Acme Market,2400 Delaware Ave,North Wildwood,NJ,8260,38.998086,-74.8131521,United States,US,Cape May County
Acme Market,1025 Youngsford Rd,Gladwyne,PA,19035,40.038017,-75.2792939,United States,US,Montgomery County
Acme Market,1260 Springfield Ave,New Providence,NJ,7974,40.7052812,-74.4045855,United States,US,Union County
Acme Market,3845 Bayshore Rd,North Cape May,NJ,8204,38.9748585,-74.9382961,United States,US,Cape May County
Acme Market,250 E Lancaster Ave,Wynnewood,PA,19096,40.0036765,-75.2842629,United States,US,Montgomery County
Acme Market,101 Big Elk Mall,Elkton,MD,21921,39.6016633,-75.8259771,United States,US,Cecil County
Acme Market,1095 W Baltimore Pike,Media,PA,19063,39.9176962,-75.4295564,United States,US,Delaware County
Albertsons,1702 E 66th Ave,Gallup,NM,87301,35.5291086,-108.7169408,United States,US,McKinley County
Acme Market,4400 S Broad St,Trenton,NJ,8620,40.1819069,-74.6730375,United States,US,Mercer County
Acme Market,300 Ryders Ln,Milltown,NJ,8850,40.4494047,-74.4379073,United States,US,Middlesex County
Acme Market,20 S Delsea Dr,Clayton,NJ,8312,39.6543824,-75.092049,United States,US,Gloucester County
Acme Market,690 Millbrook Ave,Randolph,NJ,7869,40.8270918,-74.5721415,United States,US,Morris County
Albertsons,8454 S Power Rd,Gilbert,AZ,85297,33.2655906,-111.6878715,United States,US,Maricopa County
Acme Market,100 E Black Horse Pike,Audubon,NJ,8106,39.8931429,-75.0887642,United States,US,Camden County
Albertsons,110 E Carson St,Carson,CA,90745,33.8307939,-118.2766897,United States,US,Los Angeles County
Acme Market,176 E Main St,Manasquan,NJ,8736,40.1223303,-74.0477296,United States,US,Monmouth County
Albertsons,252 W 32nd St,Yuma,AZ,85364,32.6713745,-114.6210529,United States,US,Yuma County
Albertsons,8035 N 19th Ave,Phoenix,AZ,85021,33.5543194,-112.0981242,United States,US,Maricopa County
Albertsons,2785 N Scottsdale Rd,Scottsdale,AZ,85257,33.478893,-111.9242098,United States,US,Maricopa County
Acme Market,515 Berlin - Cross Keys Rd,Sicklerville,NJ,8081,39.744595,-74.9981324,United States,US,Camden County
Acme Market,400 W Cuthbert Blvd,Westmont,NJ,8108,39.9073609,-75.0587512,United States,US,Camden County
Acme Market,6800 New Falls Rd,Levittown,PA,19057,40.151836,-74.8571095,United States,US,Bucks County
Acme Market,531 High St,Mount Holly,NJ,8060,40.0072159,-74.7946883,United States,US,Burlington County
Albertsons,18411 N Cave Creek Rd,Phoenix,AZ,85032,33.6534944,-112.0308612,United States,US,Maricopa County
Albertsons,5085 N La Canada Dr,Tucson,AZ,85704,32.2989117,-110.996539,United States,US,Pima County
Albertsons,5630 N Desert Blvd,El Paso,TX,79912,31.8644686,-106.5748486,United States,US,El Paso County
Acme Market,251 N Broadway,Pennsville,NJ,8070,39.6691471,-75.5070185,United States,US,Salem County
Albertsons,4060 W Ray Rd,Chandler,AZ,85226,33.3220885,-111.9128449,United States,US,Maricopa County
Acme Market,501 E Evesham Rd,Runnemede,NJ,8078,39.8492437,-75.0591069,United States,US,Camden County
Jewel-Osco,303 Holmes Ave,Clarendon Hills,IL,60514,41.7873399,-87.9498691,United States,US,Dupage County
Albertsons,600 Fee St,Helena,MT,59601,46.5904552,-112.006741,United States,US,Lewis and Clark County
Albertsons,10250 W Charleston Blvd,Las Vegas,NV,89135,36.1609039,-115.3195022,United States,US,Clark County
Albertsons,10140 W Flamingo Rd,Las Vegas,NV,89147,36.1167427,-115.3133657,United States,US,Clark County
Albertsons,6220 US Hwy 287,Arlington,TX,76017,32.6441124,-97.1861586,United States,US,Tarrant County
Jewel-Osco,9350 W 159th St,Orland Park,IL,60462,41.6036979,-87.8468412,United States,US,Cook County
Jewel-Osco,12803 S Harlem Ave,Palos Heights,IL,60463,41.6591133,-87.7948434,United States,US,Cook County
Jewel-Osco,1150 W Maple Ave,Mundelein,IL,60060,42.277532,-88.0211455,United States,US,Lake County
Jewel-Osco,901 S Cottage Ave,Normal,IL,61761,40.5016739,-89.0124063,United States,US,McLean County
Jewel-Osco,199 Brookforest Ave,Shorewood,IL,60404,41.5227314,-88.2021353,United States,US,Will County
Shaw's,201 Washington St,Hudson,MA,1749,42.3805146,-71.5693358,United States,US,Middlesex County
Jewel-Osco,1312 John Deere Expy,Silvis,IL,61282,41.495229,-90.4075647,United States,US,Rock Island County
Jewel-Osco,716 Ridge Rd,Munster,IN,46321,41.559802,-87.5097511,United States,US,Lake County
Jewel-Osco,1148 Ogden Ave,Downers Grove,IL,60515,41.809585,-88.0138353,United States,US,Dupage County
Jewel-Osco,12001 S Pulaski Rd,Alsip,IL,60803,41.6742056,-87.7179389,United States,US,Cook County
Albertsons,11012 Canyon Rd E,Puyallup,WA,98373,47.1560693,-122.3591839,United States,US,Pierce County
Albertsons,3500 Panama Ln,Bakersfield,CA,93313,35.2965826,-119.0414598,United States,US,Kern County
Jewel-Osco,17117 S Harlem Ave,Tinley Park,IL,60477,41.5793299,-87.7917651,United States,US,Cook County
Jewel-Osco,3220 Chicago Rd,South Chicago Heights,IL,60411,41.4794723,-87.6388423,United States,US,Cook County
Jewel-Osco,5320 S Pulaski Rd,Chicago,IL,60632,41.7958634,-87.7251175,United States,US,Cook County
Albertsons,1500 N H St,Lompoc,CA,93436,34.6622932,-120.4558358,United States,US,Santa Barbara County
Albertsons,8200 E Stockdale Hwy,Bakersfield,CA,93311,35.3556744,-119.0937808,United States,US,Kern County
Albertsons,1901 S 25th E,Ammon,ID,83406,43.4803575,-111.9823781,United States,US,Bonneville County
Albertsons,6240 Foothill Blvd,Tujunga,CA,91042,34.2408725,-118.2678283,United States,US,Los Angeles County
Jewel-Osco,9400 S Ashland Ave,Chicago,IL,60620,41.7231273,-87.6631991,United States,US,Cook County
Albertsons,8850 Foothill Blvd,Rancho Cucamonga,CA,91730,34.1081551,-117.6120368,United States,US,San Bernardino County
Jewel-Osco,475 N Nelson Rd,New Lenox,IL,60451,41.5176217,-87.9872194,United States,US,Will County
Albertsons,12475 Rancho Bernardo Rd,San Diego,CA,92128,33.0176045,-117.0616634,United States,US,San Diego County
Jewel-Osco,87 W 87th Street,Chicago,IL,60620,41.7351998,-87.627888,United States,US,Cook County
Jewel-Osco,1202 State St,Lemont,IL,60439,41.6554073,-88.0016001,United States,US,Cook County
Jewel-Osco,17705 S Halsted St,Homewood,IL,60430,41.5659998,-87.6337535,United States,US,Cook County
Jewel-Osco,20 S Weber Rd,Romeoville,IL,60446,41.6232256,-88.1262407,United States,US,Will County
Jewel-Osco,17930 Wolf Rd,Orland Park,IL,60467,41.563074,-87.8931718,United States,US,Cook County
Albertsons,1301 E Vista Way,Vista,CA,92084,33.2182665,-117.2243439,United States,US,San Diego County
Albertsons,1608 Broadway St,El Cajon,CA,92021,32.8090037,-116.9202026,United States,US,San Diego County
Albertsons,1350 N Silverbell Rd,Tucson,AZ,85745,32.2387847,-111.0041263,United States,US,Pima County
Albertsons,1980 Mcculloch Blvd,Lake Havasu City,AZ,86403,34.4761586,-114.3344217,United States,US,Mohave County
Albertsons,575 College Dr,Henderson,NV,89015,36.0137519,-114.9648574,United States,US,Clark County
Albertsons,190 N Boulder Hwy,Henderson,NV,89015,36.0417717,-114.9812572,United States,US,Clark County
Albertsons,2910 Bicentennial Pkwy,Henderson,NV,89044,35.9424747,-115.1171491,United States,US,Clark County
Albertsons,1120 Campbell St,Baker City,OR,97814,44.7834612,-117.8186569,United States,US,Baker County
Albertsons,2265 S Macarthur Dr,Alexandria,LA,71301,31.2742654,-92.4632735,United States,US,Rapides Parish
Jewel-Osco,2501 Schaumburg Rd,Schaumburg,IL,60194,42.0228535,-88.1433208,United States,US,Cook County
Jewel-Osco,119 S Randall Rd,Batavia,IL,60510,41.8483166,-88.3426034,United States,US,Kane County
Jewel-Osco,20 W Biesterfield,Elk Grove Village,IL,60007,42.0053829,-88.005271,United States,US,Cook County
Jewel-Osco,7525 W Lake St,River Forest,IL,60305,41.8878922,-87.8133675,United States,US,Cook County
Jewel-Osco,6430 W Irving Park Rd,Chicago,IL,60634,41.9540419,-87.7878617,United States,US,Cook County
Jewel-Osco,30 Danada Square W,Wheaton,IL,60189,41.8315781,-88.1051821,United States,US,Dupage County
Jewel-Osco,102 W Division St,Chicago,IL,60610,41.9041491,-87.6318606,United States,US,Cook County
Jewel-Osco,7036 Roosevelt Rd,Oak Park,IL,60304,41.8653127,-87.8004628,United States,US,Cook County
Jewel-Osco,1157 N Eola Rd,Aurora,IL,60502,41.7801801,-88.2380936,United States,US,Dupage County
Albertsons,5204 W Clearwater Ave,Kennewick,WA,99336,46.2139253,-119.1927456,United States,US,Benton County
Jewel-Osco,4660 W Irving Park Rd,Chicago,IL,60641,41.9553877,-87.7447755,United States,US,Cook County
Jewel-Osco,1320 Sycamore Rd,Dekalb,IL,60115,41.942637,-88.7366194,United States,US,Dekalb County
Jewel-Osco,1177 S Main St,Lombard,IL,60148,41.861147,-88.0153644,United States,US,Dupage County
Jewel-Osco,33 E St Charles Rd,Villa Park,IL,60181,41.8886552,-87.9782674,United States,US,Dupage County
Jewel-Osco,800 W North Ave,Melrose Park,IL,60160,41.9070526,-87.8428502,United States,US,Cook County
Jewel-Osco,1040 Summit Ave,Elgin,IL,60120,42.048073,-88.2526587,United States,US,Cook County
Jewel-Osco,140 W Lake St,Addison,IL,60101,41.9349411,-87.9924979,United States,US,Dupage County
Albertsons,23850 Copperhill Dr,Valencia,CA,91354,34.4620845,-118.556635,United States,US,Los Angeles County
Jewel-Osco,1069 N Roselle Rd,Hoffman Estates,IL,60169,42.0477597,-88.0777093,United States,US,Cook County
Albertsons,222 E Hwy 246,Buellton,CA,93427,34.6095008,-120.1884256,United States,US,Santa Barbara County
Jewel-Osco,2073 Prairie St,St Charles,IL,60174,41.9025425,-88.3377463,United States,US,Kane County
Albertsons,1940 Village Center Circle,Las Vegas,NV,89134,36.1937606,-115.3058904,United States,US,Clark County
Albertsons,700 E Avalon St,Kuna,ID,83634,43.4897868,-116.40536,United States,US,Ada County
Jewel-Osco,177 E Roosevelt Rd,West Chicago,IL,60185,41.8659899,-88.2026122,United States,US,Dupage County
Albertsons,10565 W Lake Hazel Rd,Boise,ID,83709,43.5451362,-116.3132296,United States,US,Ada County
Jewel-Osco,599 E Roosevelt Rd,Glen Ellyn,IL,60137,41.8591674,-88.0975069,United States,US,Dupage County
Jewel-Osco,343 W Irving Park Rd,Wood Dale,IL,60191,41.967106,-87.9908331,United States,US,Dupage County
Albertsons,1323 Dewar Dr,Rock Springs,WY,82901,41.5757202,-109.2361642,United States,US,Sweetwater County
Jewel-Osco,375 Randall Rd,South Elgin,IL,60177,41.9867623,-88.338733,United States,US,Kane County
Jewel-Osco,1220 S Ashland Ave,Chicago,IL,60608,41.865977,-87.667544,United States,US,Cook County
Jewel-Osco,1224 S Wabash Ave,Chicago,IL,60605,41.8661978,-87.6261945,United States,US,Cook County
Jewel-Osco,153 Schiller St,Elmhurst,IL,60126,41.901646,-87.9370036,United States,US,Dupage County
Jewel-Osco,800 N Main St,Elburn,IL,60119,41.9011791,-88.4745984,United States,US,Kane County
Jewel-Osco,125 E Stearns Rd,Bartlett,IL,60103,41.9733296,-88.1830877,United States,US,Dupage County
Jewel-Osco,2520 N Narragansett Ave,Chicago,IL,60639,41.926128,-87.7863248,United States,US,Cook County
Albertsons,132 E Lake St,McCall,ID,83638,44.9099246,-116.1021797,United States,US,Valley County
Albertsons,7900 White Ln,Bakersfield,CA,93309,35.3194132,-119.0900815,United States,US,Kern County
Albertsons,20 E Wyoming Ave,Homedale,ID,83628,43.616156,-116.9329109,United States,US,Owyhee County
Jewel-Osco,550 N State St,Chicago,IL,60654,41.8920858,-87.6285396,United States,US,Cook County
Jewel-Osco,465 N Route 47,Sugar Grove,IL,60554,41.7735567,-88.4390254,United States,US,Kane County
Jewel-Osco,370 N Desplaines St,Chicago,IL,60661,41.8886842,-87.6451007,United States,US,Cook County
Jewel-Osco,220 W Peace Rd,Sycamore,IL,60178,42.0138332,-88.6782312,United States,US,Dekalb County
Jewel-Osco,13200 Village Green Dr,Huntley,IL,60142,42.1365197,-88.4290294,United States,US,Kane County
Shaw's,20 Pilgrim Hill Rd,Plymouth,MA,2360,41.9499179,-70.685901,United States,US,Plymouth County
Jewel-Osco,6509 W Grand Ave,Gurnee,IL,60031,42.3799785,-87.9654498,United States,US,Lake County
Jewel-Osco,5516 N Clark St,Chicago,IL,60640,41.9827433,-87.6691322,United States,US,Cook County
Albertsons,2550 32nd Ave W,Seattle,WA,98199,47.6424541,-122.3979092,United States,US,King County
Albertsons,8611 Steilacoom Blvd SW,Tacoma,WA,98498,47.1804004,-122.5519646,United States,US,Pierce County
Albertsons,1128 N Miller St,Wenatchee,WA,98801,47.4379228,-120.3261004,United States,US,Chelan County
Shaw's,610 Middle St,Weymouth,MA,2189,42.2025855,-70.943273,United States,US,Norfolk County
Albertsons,450 N Wilbur Ave,Walla Walla,WA,99362,46.0766606,-118.3028141,United States,US,Walla Walla County
Jewel-Osco,2401 Route 12,Spring Grove,IL,60081,42.4355708,-88.2438365,United States,US,McHenry County
Albertsons,17171 Bothell Way NE,Lake Forest Park,WA,98155,47.7542733,-122.2801586,United States,US,King County
Albertsons,3520 Pacific Ave SE,Olympia,WA,98501,47.0429509,-122.8459219,United States,US,Thurston County
Albertsons,3925 236th Ave NE,Redmond,WA,98053,47.6454819,-122.0266582,United States,US,King County
Albertsons,17520 SR 9 SE,Snohomish,WA,98296,47.8389424,-122.1253258,United States,US,Snohomish County
Jewel-Osco,1400 21st St,Zion,IL,60099,42.4576391,-87.8283471,United States,US,Lake County
Jewel-Osco,122 N Vail Ave,Arlington Heights,IL,60005,42.0842831,-87.9854597,United States,US,Cook County
Jewel-Osco,1500 S Lee St,Des Plaines,IL,60018,42.0260187,-87.895625,United States,US,Cook County
Jewel-Osco,2502 N Waukegan Rd,Glenview,IL,60025,42.0998581,-87.8008376,United States,US,Cook County
Jewel-Osco,1128 Chicago Ave,Evanston,IL,60202,42.0392139,-87.6807647,United States,US,Cook County
Jewel-Osco,8730 W Dempster,Niles,IL,60714,42.0411181,-87.8437316,United States,US,Cook County
Jewel-Osco,900 E Rollins Rd,Round Lake Beach,IL,60073,42.3819471,-88.0606038,United States,US,Lake County
Shaw's,1050 Willet Ave,Riverside,RI,2915,41.7601928,-71.3437471,United States,US,Providence County
Jewel-Osco,2940 N Ashland Ave,Chicago,IL,60657,41.9353042,-87.6702904,United States,US,Cook County
Jewel-Osco,4042 W Foster Ave,Chicago,IL,60630,41.9761462,-87.7300471,United States,US,Cook County
Jewel-Osco,5343 N Broadway,Chicago,IL,60640,41.9791402,-87.6592724,United States,US,Cook County
Jewel-Osco,45 S Plum Grove Rd,Palatine,IL,60067,42.1089856,-88.0428803,United States,US,Cook County
Jewel-Osco,7900 Milwaukee Ave,Niles,IL,60714,42.0246301,-87.8146345,United States,US,Cook County
Jewel-Osco,150 W Main St,Barrington,IL,60010,42.1550165,-88.1375265,United States,US,Lake County
Jewel-Osco,1350 US Route 12,Fox Lake,IL,60020,42.3665689,-88.1725856,United States,US,Lake County
Jewel-Osco,4250 N Lincoln Ave,Chicago,IL,60618,41.9584813,-87.6826178,United States,US,Cook County
Jewel-Osco,4355 N Sheridan Rd,Chicago,IL,60613,41.9612641,-87.6531681,United States,US,Cook County
Jewel-Osco,411 N Green Bay Rd,Wilmette,IL,60091,42.0724759,-87.7062863,United States,US,Cook County
Jewel-Osco,1600 Deerfield Rd,Highland Park,IL,60035,42.1775498,-87.8216615,United States,US,Lake County
Jewel-Osco,1860 S Arlington Heights Rd,Arlington Heights,IL,60005,42.0523392,-87.983853,United States,US,Cook County
Jewel-Osco,885 E Belvidere Rd,Grayslake,IL,60030,42.3356472,-88.0263749,United States,US,Lake County
Jewel-Osco,9449 N Skokie Blvd,Skokie,IL,60077,42.0528525,-87.7448072,United States,US,Cook County
Jewel-Osco,966 Route 59,Antioch,IL,60002,42.4768415,-88.1059922,United States,US,Lake County
Jewel-Osco,3570 N Elston Ave,Chicago,IL,60618,41.9449885,-87.708596,United States,US,Cook County
Jewel-Osco,1517 Sheridan Rd,Wilmette,IL,60091,42.0865645,-87.7010573,United States,US,Cook County
Jewel-Osco,819 S Elmhurst Rd,Des Plaines,IL,60016,42.03675,-87.9390039,United States,US,Cook County
Jewel-Osco,423 E Dundee Rd,Palatine,IL,60074,42.1377974,-88.0328492,United States,US,Cook County
Jewel-Osco,16 S Waukegan Rd,Deerfield,IL,60015,42.1517993,-87.8373635,United States,US,Cook County
Jewel-Osco,333 E Euclid Ave,Mount Prospect,IL,60056,42.087255,-87.9308759,United States,US,Cook County
Jewel-Osco,4734 N Cumberland Ave,Chicago,IL,60656,41.9655231,-87.8379378,United States,US,Cook County
Jewel-Osco,440 E Rand Rd,Arlington Heights,IL,60004,42.1118589,-87.9768134,United States,US,Cook County
Jewel-Osco,79 McHenry Rd,Buffalo Grove,IL,60089,42.1550551,-87.9578317,United States,US,Lake County
Jewel-Osco,481 Busse Hwy,Park Ridge,IL,60068,42.0156978,-87.8394729,United States,US,Cook County
Shaw's,55 Crystal Ave,Derry,NH,3038,42.8921739,-71.3243787,United States,US,Rockingham County
Jewel-Osco,5667 W Touhy Ave,Niles,IL,60714,42.0109195,-87.7687865,United States,US,Cook County
Jewel-Osco,485 Ela Rd,Lake Zurich,IL,60047,42.1893221,-88.1033552,United States,US,Lake County
Jewel-Osco,1485 Palatine Rd,Hoffman Estates,IL,60192,42.1091905,-88.115866,United States,US,Cook County
Jewel-Osco,2485 Howard St,Evanston,IL,60202,42.0208695,-87.7080662,United States,US,Cook County
Jewel-Osco,1501 S Lake St,Mundelein,IL,60060,42.2438628,-87.9930334,United States,US,Lake County
Jewel-Osco,890 N Western Ave,Lake Forest,IL,60045,42.2556793,-87.8416989,United States,US,Lake County
Jewel-Osco,3000 Kirchoff Rd,Rolling Meadows,IL,60008,42.0788851,-88.0171993,United States,US,Cook County
Jewel-Osco,1127 S York Rd,Bensenville,IL,60106,41.9324626,-87.9376981,United States,US,Dupage County
Jewel-Osco,696 Northwest Hwy,Cary,IL,60013,42.2184821,-88.2557765,United States,US,McHenry County
Jewel-Osco,145 S Eastwood Dr,Woodstock,IL,60098,42.3153726,-88.4341791,United States,US,McHenry County
Shaw's,570 Daniel Webster Hwy,Merrimack,NH,3054,42.8819347,-71.4809537,United States,US,Hillsborough County
Shaw's,34 Essex St,Melrose,MA,2176,42.4562287,-71.0660265,United States,US,Middlesex County
Albertsons,910 N Phoenix Rd,Medford,OR,97504,42.3169096,-122.8153349,United States,US,Jackson County
Shaw's,213 Daniel Webster Hwy,Nashua,NH,3060,42.7122675,-71.4448904,United States,US,Hillsborough County
Albertsons,300 S Highland Springs Ave #7,Banning,CA,92220,33.9238641,-116.9454427,United States,US,Riverside County
Albertsons,20261 Hwy 18,Apple Valley,CA,92307,34.5251161,-117.2203014,United States,US,San Bernardino County
Jewel-Osco,3531 N Broadway St,Chicago,IL,60657,41.9468947,-87.6462414,United States,US,Cook County
Jewel-Osco,547 W Liberty St,Wauconda,IL,60084,42.2594666,-88.1521633,United States,US,Lake County
Albertsons,11358 Kenyon Way,Rancho Cucamonga,CA,91701,34.1355951,-117.5571974,United States,US,San Bernardino County
Albertsons,24251 Muirlands Blvd,Lake Forest,CA,92630,33.6304956,-117.7064554,United States,US,Orange County
Shaw's,7 Prince Ln,Bristol,VT,5443,44.1337299,-73.076988,United States,US,Addison County
Albertsons,1675 W 18th Ave,Eugene,OR,97402,44.0415049,-123.1169022,United States,US,Lane County
Albertsons,16199 Boones Ferry Rd,Lake Oswego,OR,97035,45.4095177,-122.7228287,United States,US,Clackamas County
Shaw's,32 Ames Plaza Ln #441,Walpole,NH,3608,43.1055811,-72.4260914,United States,US,Cheshire County
Albertsons,940 N Tustin Ave,Orange,CA,92867,33.8032218,-117.8376451,United States,US,Orange County
Jewel-Osco,1763 W Howard St,Chicago,IL,60626,42.0176278,-87.6745096,United States,US,Cook County
Albertsons,1690 Allen Creek Rd,Grants Pass,OR,97527,42.4192605,-123.3529014,United States,US,Josephine County
Albertsons,14300 SW Barrows Rd,Tigard,OR,97223,45.4312554,-122.8238425,United States,US,Washington County
Shaw's,180 Waterman Dr,South Portland,ME,4106,43.6369727,-70.2550134,United States,US,Cumberland County
Jewel-Osco,424 W Division St,Chicago,IL,60610,41.9051134,-87.6394586,United States,US,Cook County
Shaw's,235 Camden St,Rockland,ME,4841,44.1226555,-69.0956866,United States,US,Knox County
Shaw's,251 Kennedy Memorial Dr,Waterville,ME,4901,44.5446228,-69.6664542,United States,US,Kennebec County
Albertsons,61155 S Hwy 97,Bend,OR,97702,44.0210024,-121.3180808,United States,US,Deschutes County
Albertsons,1235 S Diamond Bar Blvd,Diamond Bar,CA,91765,34.0002527,-117.8129168,United States,US,Los Angeles County
Albertsons,6055 SW 185th Ave,Aloha,OR,97078,45.4755939,-122.8690208,United States,US,Washington County
Albertsons,74590 Hwy 111,Palm Desert,CA,92260,33.7226956,-116.3638701,United States,US,Riverside County
Star Market,33 Austin St,Newtonville,MA,2460,42.3507407,-71.2091532,United States,US,Middlesex County
Albertsons,3075 Hilyard St,Eugene,OR,97405,44.0230723,-123.0809879,United States,US,Lane County
Star Market,1717 Beacon St,Brookline,MA,2445,42.3375302,-71.1391886,United States,US,Norfolk County
Shaw's,134 Nahatan St,Norwood,MA,2062,42.1925301,-71.196731,United States,US,Norfolk County
Albertsons,13270 Newport Ave,Tustin,CA,92780,33.7452291,-117.8127336,United States,US,Orange County
Star Market,75 Spring St,West Roxbury,MA,2132,42.2787501,-71.1633254,United States,US,Suffolk County
Star Market,14 Mcgrath Hwy,Somerville,MA,2143,42.3737917,-71.0848369,United States,US,Middlesex County
Shaw's,255 E Central St,Franklin,MA,2038,42.0812501,-71.3867051,United States,US,Norfolk County
Albertsons,840 E Hobson Way,Blythe,CA,92225,33.6092755,-114.5871842,United States,US,Riverside County
Star Market,1065 Commonwealth Ave,Boston,MA,2215,42.3526114,-71.1234989,United States,US,Suffolk County
Shaw's,127 Eastern Ave,Gloucester,MA,1930,42.6229701,-70.640712,United States,US,Essex County
Shaw's,7 Railroad Ave,Gloucester,MA,1930,42.616471,-70.6654551,United States,US,Essex County
Albertsons,15970 Los Serranos Country Club Dr,Chino Hills,CA,91709,33.9614046,-117.6954576,United States,US,San Bernardino County
Albertsons,113 Ross Ln,Medford,OR,97501,42.3251179,-122.9008803,United States,US,Jackson County
Albertsons,1360 Plaza Blvd,Central Point,OR,97502,42.3764149,-122.9042905,United States,US,Jackson County
Albertsons,3825 Alton Pkwy,Irvine,CA,92606,33.6837487,-117.8138327,United States,US,Orange County
Jewel-Osco,3630 N Southport Ave,Chicago,IL,60613,41.9479684,-87.664356,United States,US,Cook County
Shaw's,134 Water St,Wakefield,MA,1880,42.5032227,-71.0640766,United States,US,Middlesex County
Shaw's,4 Plaistow Rd,Plaistow,NH,3865,42.8159389,-71.1049017,United States,US,Rockingham County
Shaw's,585 Taunton Ave,East Providence,RI,2914,41.8204802,-71.3588711,United States,US,Providence County
Shaw's,1108 State Road,South Yarmouth,MA,2664,41.6518644,-70.20084,United States,US,Barnstable County
Acme Market,121 E City Ave,Bala Cynwyd,PA,19004,40.0041919,-75.223338,United States,US,Montgomery County
Albertsons,15232 George O'Neal Rd,Baton Rouge,LA,70817,30.4060896,-91.01509,United States,US,East Baton Rouge Parish
Acme Market,2301 Bristol Road,Bensalem,PA,19020,40.131741,-74.922978,United States,US,Bucks County
Jewel-Osco,16625 W 159th St,Lockport,IL,60441,41.5960478,-88.0242531,United States,US,Will County
Jewel-Osco,6107 S Archer Ave,Chicago,IL,60638,41.7939489,-87.7703373,United States,US,Cook County
Acme Market,1825 Limekiln Pike,Dresher,PA,19025,40.1305641,-75.1661209,United States,US,Montgomery County
Jewel-Osco,2051 Ridge Rd,Minooka,IL,60447,41.4200422,-88.2727301,United States,US,Grundy County
Acme Market,101 Byers Dr,Glen Mills,PA,19342,39.8842881,-75.5278519,United States,US,Delaware County
Acme Market,105 E Street Rd,Feasterville Trevose,PA,19053,40.1474543,-74.9996549,United States,US,Bucks County
Jewel-Osco,1414 N Division St,Morris,IL,60450,41.3724309,-88.423273,United States,US,Grundy County
Acme Market,3200-09 Red Lion Rd,Philadelphia,PA,19114,40.0803214,-74.9945186,United States,US,Philadelphia County
Albertsons,15128 Airline Hwy,Baton Rouge,LA,70817,30.3571568,-91.0082142,United States,US,East Baton Rouge Parish
Albertsons,4857 Government St,Baton Rouge,LA,70806,30.4450257,-91.1405496,United States,US,East Baton Rouge Parish
Acme Market,700 W Lancaster Ave,Wayne,PA,19087,40.0600713,-75.3995089,United States,US,
Acme Market,3951 Lincoln Hwy,Downingtown,PA,19335,39.9973369,-75.7412338,United States,US,Chester County
Jewel-Osco,107 Avenue Of The Cities,East Moline,IL,61244,41.4909961,-90.4579028,United States,US,Rock Island County
Jewel-Osco,2103 N Veterans Pkwy,Bloomington,IL,61704,40.5025038,-88.9530225,United States,US,McLean County
Jewel-Osco,2021 E Laraway Rd,New Lenox,IL,60451,41.4859051,-87.9247473,United States,US,Will County
Acme Market,480 N Main St,Doylestown,PA,18901,40.3225165,-75.1325557,United States,US,Bucks County
Acme Market,3590 W Chester Pike,Newtown Square,PA,19073,39.9857913,-75.3982881,United States,US,Delaware County
Acme Market,601 W Lancaster Ave,Bryn Mawr,PA,19010,40.0185365,-75.3115101,United States,US,Delaware County
Albertsons,9960 Bluebonnet Blvd,Baton Rouge,LA,70810,30.3555941,-91.1111279,United States,US,East Baton Rouge Parish
Acme Market,5300 Baltimore Pike,Clifton Heights,PA,19018,39.9244981,-75.3079746,United States,US,Delaware County
Albertsons,1601 S Melrose Dr,Vista,CA,92081,33.1668298,-117.248041,United States,US,San Diego County
Acme Market,1991 N Sproul Rd,Broomall,PA,19008,39.959787,-75.354039,United States,US,Delaware County
Acme Market,460 E Main St,Middletown,DE,19709,39.4484914,-75.6976904,United States,US,New Castle County
Acme Market,3428 Simpson Ave,Ocean City,NJ,8226,39.2522143,-74.6148806,United States,US,Cape May County
Acme Market,2087 Shore Rd,Ocean View,NJ,8230,39.2087529,-74.7017642,United States,US,Cape May County
Acme Market,210 W Marlboro Ave,Easton,MD,21601,38.7799747,-76.0817606,United States,US,Talbot County
Acme Market,425 US Hwy 9,Tuckerton,NJ,8087,39.6028903,-74.3546686,United States,US,Ocean County
Albertsons,200 E Sepulveda Blvd,Carson,CA,90745,33.8065748,-118.2727322,United States,US,Los Angeles County
Albertsons,2501 N Main St,Las Cruces,NM,88001,32.3336561,-106.783088,United States,US,Doña Ana County
Albertsons,1956 Hwy 180 E,Silver City,NM,88061,32.7848116,-108.2600779,United States,US,Grant County
Acme Market,953 Route 33,Trenton,NJ,8690,40.2283968,-74.6709652,United States,US,Mercer County
Acme Market,857 Route 45,Woodstown,NJ,8098,39.6450067,-75.3411268,United States,US,Salem County
Acme Market,912 W Bay Ave,Barnegat,NJ,8005,39.7595923,-74.2464527,United States,US,Ocean County
Acme Market,329 Speedwell Ave,Morris Plains,NJ,7950,40.8222403,-74.4797635,United States,US,Morris County
Albertsons,12970 W Indian School Rd,Litchfield Park,AZ,85340,33.4947934,-112.3381544,United States,US,Maricopa County
Albertsons,2378 W 24th St,Yuma,AZ,85364,32.6851034,-114.6481604,United States,US,Yuma County
Albertsons,7022 N Mesa St,El Paso,TX,79912,31.8371869,-106.5516859,United States,US,El Paso County
Albertsons,9111 Dyer St,El Paso,TX,79924,31.8716899,-106.4285328,United States,US,El Paso County
Acme Market,125 Bound Brook Rd,Middlesex,NJ,8846,40.5866713,-74.4771993,United States,US,Middlesex County
Albertsons,5040 W Cactus Rd,Glendale,AZ,85304,33.5978364,-112.1671464,United States,US,Maricopa County
Acme Market,3241 US Hwy 9,Freehold,NJ,7728,40.219372,-74.2635993,United States,US,Monmouth County
Acme Market,260 Dunns Mills Rd,Bordentown,NJ,8505,40.1336237,-74.7258426,United States,US,Burlington County
Acme Market,300 S Lenola Rd,Maple Shade,NJ,8052,39.9478336,-74.9716579,United States,US,Burlington County
Albertsons,9595 E Broadway,Tucson,AZ,85748,32.2215167,-110.7876787,United States,US,Pima County
Acme Market,631 Mantua Pike,Woodbury,NJ,8096,39.8270559,-75.1612872,United States,US,Gloucester County
Albertsons,2727 N Power Rd,Mesa,AZ,85215,33.4650537,-111.6819094,United States,US,Maricopa County
Acme Market,9600 Long Beach Blvd,Long Beach Township,NJ,8008,39.6039189,-74.2116043,United States,US,Ocean County
Acme Market,415 Egg Harbor Rd,Sewell,NJ,8080,39.7483922,-75.0755771,United States,US,Gloucester County
Acme Market,4236 Harbor Beach Blvd,Brigantine,NJ,8203,39.3939155,-74.3941171,United States,US,Atlantic County
Albertsons,10765 Kenworthy,El Paso,TX,79924,31.920615,-106.4377356,United States,US,El Paso County
Albertsons,4055 S Durango Dr,Las Vegas,NV,89147,36.11593,-115.2806099,United States,US,Clark County
Albertsons,3010 W Ann Rd,North Las Vegas,NV,89031,36.2631376,-115.1813199,United States,US,Clark County
Albertsons,9725 S Maryland Pkwy,Las Vegas,NV,89183,36.012175,-115.138334,United States,US,Clark County
Albertsons,3151 N Montana Ave,Helena,MT,59602,46.6187227,-112.01865,United States,US,Lewis and Clark County
Albertsons,8410 Farm Rd,Las Vegas,NV,89131,36.3005111,-115.2792457,United States,US,Clark County
Albertsons,1650 N Buffalo Dr,Las Vegas,NV,89128,36.1898335,-115.258754,United States,US,Clark County
Albertsons,54181 US Hwy 2,Glasgow,MT,59230,48.1974298,-106.6366283,United States,US,Valley County
Jewel-Osco,1200 W Boughton Rd,Bolingbrook,IL,60440,41.7051013,-88.1241052,United States,US,Will County
Albertsons,7271 S Eastern Ave,Las Vegas,NV,89119,36.0579672,-115.1201744,United States,US,Clark County
Albertsons,1300 E Park Ave,Anaconda,MT,59711,46.1268752,-112.9352754,United States,US,Deer Lodge County
Albertsons,307 N Harmon St,Glendive,MT,59330,47.1084866,-104.7277805,United States,US,Dawson County
Albertsons,2835 S Nellis Blvd,Las Vegas,NV,89121,36.1385173,-115.0672328,United States,US,Clark County
Albertsons,611 N 27th St,Billings,MT,59101,45.7878601,-108.5083637,United States,US,Yellowstone County
Jewel-Osco,9528 S Roberts Rd,Hickory Hills,IL,60457,41.7165021,-87.8202381,United States,US,Cook County
Albertsons,1300 E Flamingo Rd,Las Vegas,NV,89119,36.1158107,-115.1360488,United States,US,Clark County
Albertsons,1313 N 1st St,Hamilton,MT,59840,46.2630105,-114.1587456,United States,US,Ravalli County
Albertsons,3137 Grand Ave,Billings,MT,59102,45.785364,-108.5926867,United States,US,Yellowstone County
Jewel-Osco,443 E 34th St,Chicago,IL,60616,41.8327459,-87.6145766,United States,US,Cook County
Jewel-Osco,6215 Main St,Downers Grove,IL,60516,41.7740538,-88.0074122,United States,US,Dupage County
Jewel-Osco,10203 W Grand Ave,Franklin Park,IL,60131,41.9296012,-87.880417,United States,US,Cook County
Jewel-Osco,7910 S Cicero Ave,Burbank,IL,60459,41.7474066,-87.7423457,United States,US,Cook County
Albertsons,5881 E Charleston Blvd,Las Vegas,NV,89142,36.1583957,-115.0453017,United States,US,Clark County
Albertsons,1201 N Saginaw Blvd,Saginaw,TX,76179,32.8798609,-97.3820923,United States,US,Tarrant County
Albertsons,4625 Frankford Rd,Dallas,TX,75287,32.9994232,-96.8272282,United States,US,Collin County
Albertsons,3603 McCann Rd,Longview,TX,75605,32.543222,-94.7550836,United States,US,Gregg County
Albertsons,7400 Oakmont Blvd,Fort Worth,TX,76132,32.6630234,-97.4197156,United States,US,Tarrant County
Albertsons,2828 Motley Dr,Mesquite,TX,75150,32.8037157,-96.645606,United States,US,Dallas County
Albertsons,3901 Crenshaw Blvd,Los Angeles,CA,90008,34.0140587,-118.3357846,United States,US,Los Angeles County
Albertsons,427 E FM 1382,Cedar Hill,TX,75104,32.5921162,-96.9368933,United States,US,Dallas County
Jewel-Osco,2540 US Hwy 30,Oswego,IL,60543,41.7175028,-88.3177809,United States,US,Kendall County
Albertsons,1221 Addison Ave E,Twin Falls,ID,83301,42.5631755,-114.458464,United States,US,Twin Falls County
Albertsons,301 SW Plaza Shopping Center,Arlington,TX,76016,32.6768894,-97.1999184,United States,US,Tarrant County
Albertsons,6755 Westminster Blvd,Westminster,CA,92683,33.7607748,-118.009151,United States,US,Orange County
Albertsons,6308 Lake Worth Blvd,Lake Worth,TX,76135,32.8119901,-97.4224191,United States,US,Tarrant County
Albertsons,4400 Western Center Blvd,Fort Worth,TX,76137,32.8593251,-97.2915228,United States,US,Tarrant County
Albertsons,2321 W University Dr,Denton,TX,76201,33.2282439,-97.1626963,United States,US,Denton County
Albertsons,5950 S Cooper St,Arlington,TX,76017,32.6492141,-97.1371155,United States,US,Tarrant County
Albertsons,225 E Spring St,Weatherford,TX,76086,32.7602845,-97.7941431,United States,US,Parker County
Albertsons,1500 S Beltline Rd,Mesquite,TX,75149,32.7453598,-96.595274,United States,US,Dallas County
Albertsons,4351 FM 2181,Corinth,TX,76210,33.1315667,-97.0432982,United States,US,Denton County
Albertsons,9300 Clifford St,Fort Worth,TX,76108,32.7668759,-97.4792178,United States,US,Tarrant County
Jewel-Osco,2128 S Mannheim Rd,Westchester,IL,60154,41.8497757,-87.8821304,United States,US,Cook County
Albertsons,215 N Carrier Pkwy,Grand Prairie,TX,75050,32.7440848,-97.0180918,United States,US,Dallas County
Albertsons,3001 S Central Expy,McKinney,TX,75070,33.1707099,-96.6369223,United States,US,Collin County
Jewel-Osco,1952 W Galena Blvd,Aurora,IL,60506,41.7632775,-88.3646812,United States,US,Kane County
Albertsons,2165 E Buckingham Dr,Richardson,TX,75081,32.9323894,-96.6837984,United States,US,Dallas County
Albertsons,5710 Broadway Blvd,Garland,TX,75043,32.8461134,-96.5938556,United States,US,Dallas County
Albertsons,6249 Rufe Snow Dr,Watauga,TX,76148,32.8587843,-97.2401715,United States,US,Tarrant County
Jewel-Osco,217 Irving Park Rd,Streamwood,IL,60107,42.0113407,-88.1780705,United States,US,Cook County
Albertsons,850 E Loop 820,Fort Worth,TX,76112,32.7672814,-97.2152349,United States,US,Tarrant County
Albertsons,3525 Sycamore School Rd,Fort Worth,TX,76133,32.6335607,-97.3714081,United States,US,Tarrant County
Albertsons,4126 S Carrier Pkwy,Grand Prairie,TX,75052,32.6723013,-97.0080149,United States,US,Dallas County
Albertsons,833 NE Alsbury Blvd,Burleson,TX,76028,32.5650416,-97.3221632,United States,US,Tarrant County
Albertsons,6700 W Freeway,Fort Worth,TX,76116,32.737008,-97.4328963,United States,US,Tarrant County
Albertsons,320 Casa Linda Plaza,Dallas,TX,75218,32.8340827,-96.6998217,United States,US,Dallas County
Albertsons,480 Northwest Pkwy,Azle,TX,76020,32.9021027,-97.5445265,United States,US,Tarrant County
Albertsons,210 W Katherine P Raines,Cleburne,TX,76033,32.3847105,-97.3944597,United States,US,Johnson County
Jewel-Osco,345 S Rand Rd,Lake Zurich,IL,60047,42.1921433,-88.1104708,United States,US,Lake County
Jewel-Osco,1151 S Roselle Rd,Schaumburg,IL,60193,42.0063103,-88.0780147,United States,US,Cook County
Albertsons,11330 NW 51st Ave,Gig Harbor,WA,98332,47.3609443,-122.604635,United States,US,Pierce County
Shaw's,715 Crescent St,Brockton,MA,2302,42.0797861,-70.9909196,United States,US,Plymouth County
Shaw's,15 Smithfield Rd,North Providence,RI,2904,41.8562355,-71.4473552,United States,US,Providence County
Shaw's,368 Southbridge St,Auburn,MA,1501,42.2059922,-71.8379545,United States,US,Worcester County
Shaw's,1600 Woodbury Ave Suite 28,Portsmouth,NH,3801,43.0889558,-70.7922988,United States,US,Rockingham County
Albertsons,4010 A St,Auburn,WA,98002,47.2728184,-122.2269136,United States,US,King County
Shaw's,1328 Hooksett Rd,Hooksett,NH,3106,43.0549649,-71.4424814,United States,US,Merrimack County
Shaw's,71 Dodge St,Beverly,MA,1915,42.5758757,-70.8889243,United States,US,Essex County
Jewel-Osco,1340 S Canal St,Chicago,IL,60607,41.8639944,-87.6397681,United States,US,Cook County
Shaw's,"33 Lafayette Rd, Unit 4",North Hampton,NH,3862,42.9676507,-70.8329921,United States,US,Rockingham County
Shaw's,276 W Main St,Hillsborough,NH,3244,43.1100399,-71.9154955,United States,US,Hillsborough County
Jewel-Osco,922 N Green Bay Rd,Waukegan,IL,60085,42.3741624,-87.8839208,United States,US,Lake County
Shaw's,48 John Stark Hwy,Newport,NH,3773,43.3578723,-72.1758105,United States,US,Sullivan County
Shaw's,1364 Congress St,Portland,ME,4102,43.6578153,-70.297176,United States,US,Cumberland County
Shaw's,10 Benning Dr,West Lebanon,NH,3784,43.6319239,-72.3155759,United States,US,Grafton County
Shaw's,353 Main St,Bangor,ME,4401,44.7942467,-68.7762716,United States,US,Penobscot County
Shaw's,27 E Ave,Lewiston,ME,4240,44.086194,-70.1999184,United States,US,Androscoggin County
Shaw's,1364 Main St,Sanford,ME,4073,43.4150091,-70.7460524,United States,US,York County
Albertsons,989 Avendia Pico,San Clemente,CA,92673,33.456798,-117.6033259,United States,US,Orange County
Star Market,2040 Commonwealth Ave,Auburndale,MA,2466,42.3469722,-71.2448227,United States,US,Middlesex County
Star Market,370 Western Ave,Brighton,MA,2135,42.3610115,-71.1375175,United States,US,Suffolk County
Star Market,45 Morrissey Blvd,Dorchester,MA,2125,42.3184171,-71.0506125,United States,US,Suffolk County
Shaw's,146 High St,Ipswich,MA,1938,42.6898192,-70.8531519,United States,US,Essex County
Shaw's,625 W Main St,Hyannis,MA,2601,41.6519202,-70.3184925,United States,US,Barnstable County
Shaw's,18 Sisson Rd,Harwich Port,MA,2646,41.6728993,-70.0932974,United States,US,Barnstable County
Albertsons Express,2300 S. Apple St.,Boise,ID,83706,43.5823736,-116.1728372,United States,US,Ada County
Shaw's,251 US Hwy 1,Falmouth,ME,4105,43.7235375,-70.2299148,United States,US,Cumberland County
Shaw's,135 Dublin Rd,Peterborough,NH,3458,42.8761386,-71.9624552,United States,US,Hillsborough County
Albertsons,30530 Rancho California Rd,Temecula,CA,92591,33.5101876,-117.1273025,United States,US,Riverside County
Albertsons,1509 E Valley Pkwy,Escondido,CA,92027,33.131488,-117.0595716,United States,US,San Diego County
Acme Market,1901 Johnston St,Philadelphia,PA,19145,39.9169587,-75.1802563,United States,US,Philadelphia County
Acme Market,1640 Bethlehem Pike,Flourtown,PA,19031,40.1070789,-75.2112585,United States,US,Montgomery County
Acme Market,2761 W Ridge Pike,Norristown,PA,19403,40.1471458,-75.3934206,United States,US,Montgomery County
Albertsons,1133 S Mission Rd,Fallbrook,CA,92028,33.3718783,-117.2560377,United States,US,San Diego County
Acme Market,48 West Rd,Newtown,PA,18940,40.2345063,-74.9451718,United States,US,Bucks County
Acme Market,23 Levitt Pkwy,Willingboro,NJ,8046,40.0515767,-74.8912823,United States,US,Burlington County
Acme Market,616 Newman Springs Rd,Lincroft,NJ,7738,40.3321004,-74.1192097,United States,US,Monmouth County
ACME Express,920 Red Lion Rd,Philadelphia,PA,19115,40.1007114,-75.0262493,United States,US,Philadelphia County
Albertsons Express,2265 S MacCarthur Dr,Alexandria,LA,71301,31.2742654,-92.4632735,United States,US,Rapides Parish
