Store Name,Address,City,State,Zip Code,Latitude,Longitude,Country,Country Code,County
Safeway,11120 S Lakes Dr,Reston,VA,20191,38.939784,-77.3301093,United States,US,Fairfax County
Safeway,7375 E Arapahoe Rd,Englewood,CO,80112,39.5963508,-104.9032977,United States,US,Arapahoe County
Safeway,3851 S Hwy 74,Evergreen,CO,80439,39.6459972,-105.3395122,United States,US,Jefferson County
Safeway,201 E Jefferson Ave,Englewood,CO,80110,39.6518636,-104.9846658,United States,US,Arapahoe County
Safeway,5025 S Kipling St,Littleton,CO,80127,39.6250753,-105.1113282,United States,US,Jefferson County
Safeway,13111 W Alameda Pkwy,Lakewood,CO,80228,39.6982449,-105.145735,United States,US,Jefferson County
Safeway,1227 15th Ave,Longview,WA,98632,46.1366493,-122.938407,United States,US,Cowlitz County
Safeway,10 King St,Waldorf,MD,20602,38.6024638,-76.9019551,United States,US,Charles County
Safeway,7595 Greenbelt Rd,Greenbelt,MD,20770,38.9928738,-76.8766902,United States,US,Prince George's County
Safeway,105 Neal St,Grass Valley,CA,95945,39.2160474,-121.0628019,United States,US,Nevada County
Safeway,151 Walkers Village Way,Walkersville,MD,21793,39.4837465,-77.3400854,United States,US,Frederick County
Safeway,12200 E Mississippi Ave,Aurora,CO,80012,39.6959307,-104.8453911,United States,US,Arapahoe County
Safeway,1610 W Lincoln Ave,Yakima,WA,98902,46.6025231,-120.5322536,United States,US,Yakima County
Andronico's,900 Lighthouse Ave,Monterey,CA,93940,36.6177995,-121.9034848,United States,US,Monterey County
Safeway,520 W Osborn Rd,Phoenix,AZ,85013,33.4883652,-112.0818443,United States,US,Maricopa County
Safeway,424 Howe Ave,Sacramento,CA,95825,38.5733695,-121.4132061,United States,US,Sacramento County
Safeway,1360 Pali Hwy,Honolulu,HI,96813,21.3132888,-157.8578169,United States,US,Honolulu County
Safeway,2855 E Manoa Rd,Honolulu,HI,96822,21.3088508,-157.8103124,United States,US,Honolulu County
Safeway,1060 Keolu Dr,Kailua,HI,96734,21.3772472,-157.7292782,United States,US,Honolulu County
Safeway,46065 Kamehameha Hwy,Kaneohe,HI,96744,21.4219935,-157.8028609,United States,US,Honolulu County
Safeway,848 Ala Lilikoi St,Honolulu,HI,96818,21.3453708,-157.9138455,United States,US,Honolulu County
Safeway,98-1277 Kaahumanu St,Aiea,HI,96701,21.3897262,-157.9519446,United States,US,Honolulu County
Safeway,377 Keahole St,Honolulu,HI,96825,21.2849856,-157.7074114,United States,US,Honolulu County
Safeway,1650 Mcculloch Blvd N,Lake Havasu City,AZ,86403,34.4740628,-114.3420357,United States,US,Mohave County
Safeway,3900 S Othello St,Seattle,WA,98118,47.5374478,-122.2830598,United States,US,King County
Safeway,170 E Kamehameha Ave,Kahului,HI,96732,20.8885421,-156.4635528,United States,US,Maui County
Safeway,10926 W Bell Rd,Sun City,AZ,85351,33.6384755,-112.2922372,United States,US,Maricopa County
Safeway,1601 N Park Dr,Winslow,AZ,86047,35.0367798,-110.6997681,United States,US,Navajo County
Safeway,3450 W Bell Rd,Phoenix,AZ,85053,33.6407624,-112.133241,United States,US,Maricopa County
Safeway,3800 W 44th Ave,Denver,CO,80211,39.7759618,-105.0368265,United States,US,Denver County
Safeway,1044 Willow Creek Rd,Prescott,AZ,86301,34.5613875,-112.4845583,United States,US,Yavapai County
Safeway,1225 W Guadalupe,Mesa,AZ,85202,33.3634593,-111.8593374,United States,US,Maricopa County
Safeway,1751 Hwy 95,Bullhead City,AZ,86442,35.1218023,-114.587221,United States,US,Mohave County
Safeway,650 Elm St,Page,AZ,86040,36.9157362,-111.4576784,United States,US,Coconino County
Safeway,4752 E Sunrise Dr,Tucson,AZ,85718,32.3071215,-110.891335,United States,US,Pima County
Safeway,1220 Morgan St,Davenport,WA,99122,47.6546584,-118.1581408,United States,US,Lincoln County
Safeway,3185 W Apache Trail,Apache Junction,AZ,85120,33.4137639,-111.5797298,United States,US,Pinal County
Safeway,1551 W St Marys Rd,Tucson,AZ,85745,32.2277268,-110.9980721,United States,US,Pima County
Safeway,1016 W Sacramento Ave,Chico,CA,95926,39.7320288,-121.8594075,United States,US,Butte County
Safeway,310 W Front St,Butte,MT,59701,45.9976646,-112.5372871,United States,US,Silver Bow County
Safeway,101 Naco Rd,Bisbee,AZ,85603,31.4012519,-109.9172156,United States,US,Cochise County
Safeway,20 E Main St,Quincy,CA,95971,39.9367911,-120.9377022,United States,US,Plumas County
Safeway,2940 W Valencia,Tucson,AZ,85746,32.1350965,-111.0303765,United States,US,Pima County
Safeway,4910 N Hwy 89,Flagstaff,AZ,86004,35.2258133,-111.5786203,United States,US,
Safeway,650 N Bisbee Ave,Willcox,AZ,85643,32.2631913,-109.8424191,United States,US,Cochise County
Safeway,2601 Balls Ferry Rd,Anderson,CA,96007,40.4529539,-122.2877655,United States,US,Shasta County
Safeway,450 White Spar Rd,Prescott,AZ,86303,34.5310941,-112.4747059,United States,US,Yavapai County
Safeway,1499 Hwy 101,Reedsport,OR,97467,43.7341118,-124.1112009,United States,US,Douglas County
Safeway,8255 SW Wilsonville Rd,Wilsonville,OR,97070,45.3044424,-122.7624195,United States,US,Clackamas County
Safeway,115 E 7th St,Grants Pass,OR,97526,42.4386874,-123.324775,United States,US,Josephine County
Tom Thumb,6800 W Virginia Pkwy,McKinney,TX,75071,33.200557,-96.7064243,United States,US,Collin County
Safeway,253 Mt Hermon Rd,Scotts Valley,CA,95066,37.046215,-122.030801,United States,US,Santa Cruz County
Safeway,1380 Linda Mar Shopping Center,Pacifica,CA,94044,37.5951975,-122.5028587,United States,US,San Mateo County
Safeway,1071 El Camino Real,Redwood City,CA,94063,37.4846001,-122.2302014,United States,US,San Mateo County
Safeway,215 E Rose St,Walla Walla,WA,99362,46.070317,-118.3377786,United States,US,Walla Walla County
Safeway,70 Cabrillo Hwy,Half Moon Bay,CA,94019,37.463868,-122.4342605,United States,US,San Mateo County
Safeway,39100 Argonaut Way,Fremont,CA,94538,37.5455955,-121.9894879,United States,US,Alameda County
Safeway,179 Branham Ln,San Jose,CA,95136,37.2672559,-121.8332199,United States,US,Santa Clara County
Safeway,1701 Jackson St,Golden,CO,80401,39.7522073,-105.2155499,United States,US,Jefferson County
Safeway,1112 S M St,Tacoma,WA,98405,47.2512312,-122.4553641,United States,US,Pierce County
Safeway,1803 George Washington Way,Richland,WA,99354,46.2995541,-119.2759229,United States,US,Benton County
Safeway,2825 W Kennewick Ave,Kennewick,WA,99336,46.2087585,-119.1606553,United States,US,Benton County
Safeway,10 W Colville Ave,Chewelah,WA,99109,48.2798132,-117.7160979,United States,US,Stevens County
Safeway,1616 W Northwest Blvd,Spokane,WA,99205,47.6803104,-117.4362063,United States,US,Spokane County
Safeway,9160 W Colfax Ave,Lakewood,CO,80215,39.7394036,-105.0988865,United States,US,Jefferson County
Safeway,702 N 5th Ave,Sandpoint,ID,83864,48.2797174,-116.552444,United States,US,Bonner County
Safeway,700 Hwy 101,Florence,OR,97439,43.9727244,-124.1036281,United States,US,Lane County
Safeway,2725 NE Sunset Blvd,Renton,WA,98056,47.4990542,-122.1801194,United States,US,King County
Safeway,2100 Queen Anne Ave N,Seattle,WA,98109,47.6376421,-122.3561338,United States,US,King County
Safeway,601 W North St,Enterprise,OR,97828,45.4277717,-117.285873,United States,US,Wallowa County
Safeway,2220 N Coast Hwy,Newport,OR,97365,44.6523804,-124.0519909,United States,US,Lincoln County
Safeway,1640 Williams Hwy,Grants Pass,OR,97527,42.4211063,-123.3362556,United States,US,Josephine County
Safeway,3527 SE 122nd Ave,Portland,OR,97236,45.4961892,-122.5392163,United States,US,Multnomah County
Safeway,1320 S Blaine St,Moscow,ID,83843,46.7224101,-116.9829439,United States,US,Latah County
Safeway,391 N Main St,Colville,WA,99114,48.5475569,-117.906487,United States,US,Stevens County
Safeway,1755 Ivy St,Junction City,OR,97448,44.2291112,-123.2060652,United States,US,Lane County
Safeway,2425 Miner St,Idaho Springs,CO,80452,39.7410986,-105.5063171,United States,US,Clear Creek County
Safeway,3707 N Main St,Vancouver,WA,98663,45.6485564,-122.6666479,United States,US,Clark County
Safeway,1450 SW Erie St,Oak Harbor,WA,98277,48.2864147,-122.6613996,United States,US,Island County
Safeway,2836 Pacific Ave,Forest Grove,OR,97116,45.5199306,-123.1211407,United States,US,Washington County
Safeway,1455 Edgewater St NW,Salem,OR,97304,44.9393571,-123.0633507,United States,US,Polk County
Safeway,550 E Bell Rd,Phoenix,AZ,85022,33.6418471,-112.0671054,United States,US,Maricopa County
Safeway,4101 NW Logan Rd,Lincoln City,OR,97367,44.9972565,-124.0062457,United States,US,Lincoln County
Safeway,1500 Coburg Rd,Eugene,OR,97401,44.0782122,-123.0703195,United States,US,Lane County
Safeway,611 S Meridian,Puyallup,WA,98371,47.1870135,-122.2928474,United States,US,Pierce County
Safeway,7340 35th Ave NE,Seattle,WA,98115,47.6825128,-122.2893391,United States,US,King County
Safeway,795 Lower Columbia River Hwy,Saint Helens,OR,97051,45.7746798,-122.8779959,United States,US,Columbia County
Safeway,3380 Lancaster Dr NE,Salem,OR,97305,44.9686877,-122.9818621,United States,US,Marion County
Safeway,1455 NE Division St,Gresham,OR,97030,45.5059193,-122.416854,United States,US,Multnomah County
Safeway,990 Hwy 395 S,Hermiston,OR,97838,45.8326389,-119.2860155,United States,US,Umatilla County
Safeway,20830 108th Ave SE,Kent,WA,98031,47.4151099,-122.1954454,United States,US,King County
Safeway,205 N 5th Ave,Yakima,WA,98902,46.6032043,-120.5167084,United States,US,Yakima County
Safeway,17246 Redmond Way,Redmond,WA,98052,47.6719303,-122.1099837,United States,US,King County
Safeway,1900 E Richards St,Douglas,WY,82633,42.7442834,-105.3620854,United States,US,Converse County
Safeway,1715 Broadway Ave,Everett,WA,98201,47.9941025,-122.2002479,United States,US,Snohomish County
Safeway,28810 Military Rd S,Federal Way,WA,98003,47.3425595,-122.2999648,United States,US,King County
Safeway,19500 Hwy 99 Suite 110,Lynnwood,WA,98036,47.8224691,-122.3167735,United States,US,Snohomish County
Safeway,3842 Bridgeport Way,Tacoma,WA,98466,47.2216712,-122.5393458,United States,US,Pierce County
Safeway,3020 NE 45th St,Seattle,WA,98105,47.662116,-122.2950715,United States,US,King County
Safeway,1645 140th Ave NE,Bellevue,WA,98005,47.6260626,-122.1547009,United States,US,King County
Safeway,152 Roosevelt Ave E,Enumclaw,WA,98022,47.1981734,-121.9799509,United States,US,King County
Safeway,15000 NE 24th St,Redmond,WA,98052,47.6326836,-122.1404747,United States,US,King County
Safeway,17202 15th Ave NE,Shoreline,WA,98155,47.7543739,-122.3128559,United States,US,King County
Safeway,5702 Summitview Ave,Yakima,WA,98908,46.5989041,-120.5850346,United States,US,Yakima County
Safeway,11031 19th Ave SE,Everett,WA,98208,47.8973511,-122.2051108,United States,US,Snohomish County
Safeway,401 A Ave,Lake Oswego,OR,97034,45.4208547,-122.6685879,United States,US,Clackamas County
Safeway,5920 NE Martin Luther King Blvd,Portland,OR,97211,45.5659676,-122.6602189,United States,US,Multnomah County
Safeway,642 NE 3rd,Bend,OR,97701,44.0564918,-121.3013044,United States,US,Deschutes County
Safeway,17230 140th Ave SE,Renton,WA,98058,47.4475109,-122.1524616,United States,US,King County
Carrs,3101 Penland Pkwy,Anchorage,AK,99508,61.2169121,-149.8200805,United States,US,Anchorage
Safeway,20151 SE Hwy 212,Boring,OR,97089,45.4180451,-122.455879,United States,US,Clackamas County
Safeway,1003 Medford Ctr,Medford,OR,97504,42.3333949,-122.8638217,United States,US,Jackson County
Safeway,14444 124th Ave NE,Kirkland,WA,98034,47.7323717,-122.1741692,United States,US,King County
Safeway,101 Auburn Way S,Auburn,WA,98002,47.3061932,-122.227051,United States,US,King County
Safeway,19150 NE Woodinville Duvall Rd,Woodinville,WA,98077,47.7560184,-122.0812059,United States,US,King County
Safeway,3532 172nd St NE,Arlington,WA,98223,48.1518742,-122.1793992,United States,US,Snohomish County
Safeway,20711 Bothell Hwy,Bothell,WA,98012,47.809921,-122.2054459,United States,US,Snohomish County
Safeway,19651 Hwy 2,Monroe,WA,98272,47.8600292,-121.9676364,United States,US,Snohomish County
Safeway,442 W Sims Way,Port Townsend,WA,98368,48.1081301,-122.782699,United States,US,Jefferson County
Safeway,4700 Yelm Hwy SE,Lacey,WA,98503,46.9978906,-122.8222217,United States,US,Thurston County
Safeway,21301 Hwy 410,Bonney Lake,WA,98391,47.1661242,-122.1448631,United States,US,Pierce County
Safeway,10105 224th St E,Graham,WA,98338,47.0538225,-122.2964384,United States,US,Pierce County
Safeway,44428 Sterling Hwy,Soldotna,AK,99669,60.484125,-151.0711169,United States,US,Kenai Peninsula Borough
Safeway,500 E 3rd St,Alliance,NE,69301,42.0977939,-102.864731,United States,US,Box Butte County
Safeway,630 228th Ave NE,Sammamish,WA,98074,47.6153939,-122.0335841,United States,US,King County
Safeway,601 Broadway,Scottsbluff,NE,69361,41.8543023,-103.6613264,United States,US,Scotts Bluff County
Safeway,611 N Spruce St,Ogallala,NE,69153,41.1300114,-101.7195511,United States,US,Keith County
Safeway,6911 Coal Creek Pkwy SE,Newcastle,WA,98059,47.5395162,-122.1676016,United States,US,King County
Safeway,613 S 6th St,Sunnyside,WA,98944,46.3220387,-120.0139551,United States,US,Yakima County
Safeway,2120 Mt Rushmore Rd,Rapid City,SD,57701,44.0649487,-103.2308209,United States,US,Pennington County
Safeway,1606 North Ave,Spearfish,SD,57783,44.5003542,-103.8585124,United States,US,Lawrence County
Safeway,711 W First Ave,Toppenish,WA,98948,46.3758663,-120.3216897,United States,US,Yakima County
Safeway,600 Franklin St,Shelton,WA,98584,47.2146302,-123.1064108,United States,US,Mason County
Safeway,911 11th St,Anacortes,WA,98221,48.5123932,-122.6115811,United States,US,Skagit County
Safeway,112 S Spruce St,Gunnison,CO,81230,38.5436723,-106.9298656,United States,US,Gunnison County
Safeway,2131 N Frontage Rd W,Vail,CO,81657,39.6311474,-106.4179988,United States,US,Eagle County
Safeway,37500 E US Hwy 40,Steamboat Springs,CO,80487,40.46586,-106.8241748,United States,US,Routt County
Safeway,4100 Redwood Rd,Oakland,CA,94619,37.7983646,-122.1824984,United States,US,Alameda County
Safeway,100 De Anza Blvd,San Mateo,CA,94402,37.5207094,-122.3378837,United States,US,San Mateo County
Safeway,16 Rancho Del Mar,Aptos,CA,95003,36.9786224,-121.9085615,United States,US,Santa Cruz County
Safeway,700 B St,San Rafael,CA,94901,37.9703162,-122.5293464,United States,US,Marin County
Safeway,2096 Mountain Blvd,Oakland,CA,94611,37.8254544,-122.2089876,United States,US,Alameda County
Safeway,5290 Diamond Hts Blvd,San Francisco,CA,94131,37.7435556,-122.4391154,United States,US,San Francisco County
Safeway,2100 Ralston Ave,Belmont,CA,94002,37.5122419,-122.2956033,United States,US,San Mateo County
Safeway,1500 Solano Ave,Albany,CA,94706,37.8902372,-122.2869208,United States,US,Alameda County
Safeway,730 W Main St,Farmington,NM,87401,36.7295303,-108.2169007,United States,US,San Juan County
Safeway,1444 Shattuck Place,Berkeley,CA,94709,37.8808073,-122.2700854,United States,US,Alameda County
Safeway,4865 Macarthur Blvd NW,Washington,DC,20007,38.917451,-77.0958815,United States,US,
Safeway,860 N Delaware St,San Mateo,CA,94401,37.5803929,-122.3328059,United States,US,San Mateo County
Safeway,6477 Almaden Expwy,San Jose,CA,95120,37.21952,-121.8616148,United States,US,Santa Clara County
Safeway,1972 Tice Valley Blvd,Walnut Creek,CA,94595,37.8782209,-122.0718503,United States,US,Contra Costa County
Safeway,2760 Homestead Rd,Santa Clara,CA,95051,37.3385588,-121.9750457,United States,US,Santa Clara County
Safeway,570 N Shoreline Blvd,Mountain View,CA,94043,37.4029895,-122.0794005,United States,US,Santa Clara County
Safeway,104 Mid Valley Center,Carmel,CA,93923,36.522448,-121.8101835,United States,US,Monterey County
Safeway,100 Calistoga Rd,Santa Rosa,CA,95409,38.4656768,-122.6516753,United States,US,Sonoma County
Safeway,457 W Main St,Trinidad,CO,81082,37.167037,-104.5100024,United States,US,Las Animas County
Safeway,3350 Mission St,San Francisco,CA,94110,37.7432206,-122.422429,United States,US,San Francisco County
Safeway,1500 Pollard Rd,Los Gatos,CA,95032,37.2637334,-121.9843674,United States,US,Santa Clara County
Safeway,850 Woodside Rd,Redwood City,CA,94061,37.4656967,-122.2254144,United States,US,San Mateo County
Safeway,4747 E Elliot Rd,Phoenix,AZ,85044,33.347971,-111.9821513,United States,US,Maricopa County
Safeway,625 Monterey Blvd,San Francisco,CA,94127,37.7312905,-122.4501739,United States,US,San Francisco County
Safeway,1212 Forest Ave,Pacific Grove,CA,93950,36.6049053,-121.9212818,United States,US,Monterey County
Safeway,2605 The Alameda Ave,Santa Clara,CA,95050,37.3452351,-121.9365793,United States,US,Santa Clara County
Safeway,2500 N Harrison St,Arlington,VA,22207,38.8968233,-77.1393485,United States,US,Arlington County
Safeway,6150 Bollinger Rd,San Jose,CA,95129,37.3096604,-122.0118184,United States,US,Santa Clara County
Safeway,20629 Redwood Rd,Castro Valley,CA,94546,37.6962834,-122.0749241,United States,US,Alameda County
Safeway,50 Solano Sq,Benicia,CA,94510,38.0548033,-122.1557116,United States,US,Solano County
Safeway,30 Chestnut Ave,South San Francisco,CA,94080,37.6555728,-122.4317719,United States,US,San Mateo County
Safeway,37601 Hwy 26,Sandy,OR,97055,45.4012681,-122.2768386,United States,US,Clackamas County
Safeway,3540 Mt Diablo Blvd,Lafayette,CA,94549,37.892907,-122.1194235,United States,US,Contra Costa County
Safeway,850 La Playa St,San Francisco,CA,94121,37.7725837,-122.5094277,United States,US,San Francisco County
Safeway,6255 Graham Hill Rd,Felton,CA,95018,37.0529401,-122.068786,United States,US,Santa Cruz County
Safeway,1 Camino Alto,Mill Valley,CA,94941,37.8941622,-122.5314402,United States,US,Marin County
Safeway,555 Bancroft Ave,San Leandro,CA,94577,37.7344509,-122.1523406,United States,US,Alameda County
Safeway,17023 SE 272nd,Covington,WA,98042,47.3565839,-122.1148451,United States,US,King County
Safeway,600 F St,Arcata,CA,95521,40.8657223,-124.0852373,United States,US,Humboldt County
Safeway,231 W Jackson St,Hayward,CA,94544,37.6527118,-122.0914671,United States,US,Alameda County
Safeway,117 Morrissey Blvd,Santa Cruz,CA,95062,36.9821362,-122.0074658,United States,US,Santa Cruz County
Safeway,7055 Austin Bluffs Pkwy,Colorado Springs,CO,80923,38.9326067,-104.7387881,United States,US,El Paso County
Safeway,1451 W Eisenhower Blvd,Loveland,CO,80537,40.4085012,-105.0980498,United States,US,Larimer County
Safeway,2210 N Wahsatch Ave,Colorado Springs,CO,80907,38.8646262,-104.8172815,United States,US,El Paso County
Safeway,5060 N Academy Blvd,Colorado Springs,CO,80918,38.903489,-104.7773452,United States,US,El Paso County
Safeway,1008 Summit Blvd,Frisco,CO,80443,39.5899279,-106.0968106,United States,US,Summit County
Safeway,8434 S Kipling Pkwy,Littleton,CO,80127,39.5634963,-105.1075019,United States,US,Jefferson County
Safeway,8750 N Union Blvd,Colorado Springs,CO,80920,38.9587216,-104.7668613,United States,US,El Paso County
Safeway,1200 S Buckley Rd,Aurora,CO,80017,39.6949153,-104.7887415,United States,US,Arapahoe County
Safeway,3660 S Mason St,Fort Collins,CO,80525,40.536743,-105.0784527,United States,US,Larimer County
Safeway,500 S Royal St,Alexandria,VA,22314,38.7996218,-77.0443479,United States,US,
Safeway,10101 New Hampshire Ave,Silver Spring,MD,20903,39.0206666,-76.9760974,United States,US,Montgomery County
Safeway,731 S Lemay Ave,Fort Collins,CO,80524,40.5771617,-105.0595772,United States,US,Larimer County
Safeway,7900 Ft Hunt Rd,Alexandria,VA,22308,38.7435669,-77.0576157,United States,US,Fairfax County
Safeway,4405 Centennial Blvd,Colorado Springs,CO,80907,38.8949061,-104.8499311,United States,US,El Paso County
Safeway,500 E 120th Ave,Northglenn,CO,80233,39.9122222,-104.9806882,United States,US,Adams County
Safeway,323 S Broadway,Denver,CO,80209,39.7106302,-104.9888127,United States,US,Denver County
Safeway,3840 E 104th Ave,Thornton,CO,80233,39.8833432,-104.9428096,United States,US,Adams County
Safeway,2512 Broadway,Grand Junction,CO,81507,39.0669233,-108.5885693,United States,US,Mesa County
Safeway,6100 S Gun Club Rd,Aurora,CO,80016,39.6047252,-104.714726,United States,US,Arapahoe County
Safeway,3550 Fruitvale Ave,Oakland,CA,94602,37.8011796,-122.2153076,United States,US,Alameda County
Safeway,730 Taraval St,San Francisco,CA,94116,37.7434468,-122.4740564,United States,US,San Francisco County
Safeway,1554 First St,Livermore,CA,94550,37.6804358,-121.777421,United States,US,Alameda County
Safeway,477 W Napa St,Sonoma,CA,95476,38.291594,-122.4677124,United States,US,Sonoma County
Safeway,2321 W Eisenhower Blvd,Loveland,CO,80537,40.4087643,-105.1096332,United States,US,Larimer County
Safeway,600 S Broadway,Walnut Creek,CA,94596,37.8980013,-122.056578,United States,US,Contra Costa County
Safeway,6340 Commerce Blvd,Rohnert Park,CA,94928,38.3475652,-122.7084312,United States,US,Sonoma County
Safeway,12876 Saratoga Sunnyvale Rd,Saratoga,CA,95070,37.2813058,-122.0311493,United States,US,Santa Clara County
Safeway,451 E Wonderview Ave,Estes Park,CO,80517,40.3802852,-105.5167565,United States,US,Larimer County
Safeway,1701 Corcoran St NW,Washington,DC,20009,38.9120062,-77.038925,United States,US,
Safeway,600 Patterson Blvd,Pleasant Hill,CA,94523,37.934176,-122.0721152,United States,US,Contra Costa County
Safeway,2558 Berryessa Rd,San Jose,CA,95132,37.3881988,-121.8577732,United States,US,Santa Clara County
Safeway,950 Las Gallinas Ave,San Rafael,CA,94903,38.0084799,-122.5483222,United States,US,Marin County
Safeway,406 N Main St,Sebastopol,CA,95472,38.4044524,-122.8270548,United States,US,Sonoma County
Safeway,710 Bancroft Rd,Walnut Creek,CA,94598,37.928501,-122.0393538,United States,US,Contra Costa County
Safeway,3334 Alhambra Ave,Martinez,CA,94553,38.0007792,-122.1329997,United States,US,Contra Costa County
Safeway,12 W Washington St,Middleburg,VA,20117,38.9692,-77.7367136,United States,US,Loudoun County
Safeway,10104 River Rd,Potomac,MD,20854,39.0165848,-77.2084495,United States,US,Montgomery County
Safeway,16405 Hwy 116,Guerneville,CA,95446,38.5008684,-123.0008869,United States,US,Sonoma County
Safeway,867 Island Dr,Alameda,CA,94502,37.7379044,-122.2394204,United States,US,Alameda County
Safeway,475 M St,Crescent City,CA,95531,41.7562285,-124.1929996,United States,US,Del Norte County
Safeway,2600 Willow Pass Rd,Concord,CA,94519,37.9781215,-122.0281614,United States,US,Contra Costa County
Safeway,1799 Marlow Rd,Santa Rosa,CA,95401,38.4520542,-122.752896,United States,US,Sonoma County
Safeway,200 Alamo Plaza,Alamo,CA,94507,37.8508355,-122.035163,United States,US,Contra Costa County
Safeway,4950 Mission St,San Francisco,CA,94112,37.7198772,-122.43885,United States,US,San Francisco County
Safeway,845 S Main St,Willits,CA,95490,39.4033591,-123.3498339,United States,US,Mendocino County
Safeway,2 Camino Sobrante,Orinda,CA,94563,37.8837343,-122.1908347,United States,US,Contra Costa County
Safeway,709 Lincoln Rd W,Vallejo,CA,94590,38.0992598,-122.2305664,United States,US,Solano County
Safeway,1355 Moraga Way,Moraga,CA,94556,37.8363493,-122.1284472,United States,US,Contra Costa County
Safeway,1655 El Camino Real,San Mateo,CA,94402,37.5532743,-122.3134976,United States,US,San Mateo County
Safeway,22280 Foothill Blvd,Hayward,CA,94541,37.6797966,-122.0834782,United States,US,Alameda County
Safeway,6688 Alhambra Ave,Martinez,CA,94553,37.9579116,-122.0939524,United States,US,Contra Costa County
Safeway,701 S Fortuna Blvd,Fortuna,CA,95540,40.5841482,-124.1449195,United States,US,Humboldt County
Safeway,605 Parker Ave,Rodeo,CA,94572,38.0296558,-122.2656546,United States,US,Contra Costa County
Safeway,660 S Main St,Fort Bragg,CA,95437,39.433457,-123.8054488,United States,US,Mendocino County
Safeway,900 Diablo Ave,Novato,CA,94947,38.1037808,-122.5716519,United States,US,Marin County
Safeway,2505 San Ramon Valley Blvd,San Ramon,CA,94583,37.7732091,-121.9768323,United States,US,Contra Costa County
Safeway,1071 11th St,Lakeport,CA,95453,39.0484908,-122.9257232,United States,US,Lake County
Safeway,14922 Olympic Dr,Clearlake,CA,95422,38.9627584,-122.6318078,United States,US,Lake County
Safeway,2350 Noriega St,San Francisco,CA,94122,37.7542109,-122.4886485,United States,US,San Francisco County
Safeway,774 Admiral Callaghan Ln,Vallejo,CA,94591,38.1252234,-122.2267441,United States,US,Solano County
Safeway,3902 Washington Blvd,Fremont,CA,94538,37.5315046,-121.9571762,United States,US,Alameda County
Safeway,1499 Washington Ave,San Leandro,CA,94577,37.723084,-122.1559691,United States,US,Alameda County
Safeway,1335 Webster St,San Francisco,CA,94115,37.7827705,-122.4316835,United States,US,San Francisco County
Safeway,1663 Branham Ln,San Jose,CA,95118,37.2531262,-121.9083628,United States,US,Santa Clara County
Safeway,1115 Vine St,Healdsburg,CA,95448,38.6083938,-122.8729789,United States,US,Sonoma County
Safeway,921 E Hillsdale Blvd,Foster City,CA,94404,37.5567755,-122.2758939,United States,US,San Mateo County
Randalls,14610 Memorial Dr,Houston,TX,77079,29.7717896,-95.6071946,United States,US,Harris County
Randalls,5219 FM 1960 W,Houston,TX,77069,29.9832958,-95.5050859,United States,US,Harris County
Safeway,1624 Belle View,Alexandria,VA,22307,38.7764786,-77.0605838,United States,US,Fairfax County
Randalls,3346 Hwy 6 S,Sugar Land,TX,77478,29.6185208,-95.6090009,United States,US,Fort Bend County
Randalls,2931 Central City Blvd,Galveston,TX,77551,29.2699294,-94.8285669,United States,US,Galveston County
Safeway,1653 S Colorado Blvd,Denver,CO,80222,39.6870386,-104.942523,United States,US,Denver County
Randalls,4800 W Bellfort,Houston,TX,77035,29.6727148,-95.458766,United States,US,Harris County
Safeway,1300 Dexter St,Fort Lupton,CO,80621,40.0789504,-104.8026005,United States,US,Weld County
Safeway,17779 Boones Ferry Rd,Lake Oswego,OR,97035,45.3970874,-122.7433211,United States,US,Clackamas County
Safeway,1525 Wilson Blvd,Arlington,VA,22209,38.8952123,-77.0754236,United States,US,Arlington County
Safeway,7720 E Hwy 69,Prescott Valley,AZ,86314,34.5873311,-112.3297603,United States,US,Yavapai County
Randalls,4540 Kingwood Dr,Kingwood,TX,77345,30.0489047,-95.1820693,United States,US,Harris County
Randalls,3131 W Holcombe Blvd,Houston,TX,77025,29.7047527,-95.4254575,United States,US,Harris County
Safeway,4754 42nd Ave SW,Seattle,WA,98116,47.5596574,-122.3852049,United States,US,King County
Randalls,12850 Memorial Dr,Houston,TX,77024,29.7740277,-95.560375,United States,US,Harris County
Safeway,1001 SW Highland Dr,Gresham,OR,97080,45.4890354,-122.476685,United States,US,Multnomah County
Safeway,6194 SW Murray Blvd,Beaverton,OR,97008,45.4751116,-122.8251743,United States,US,Washington County
Safeway,1119 13th St,Snohomish,WA,98290,47.926103,-122.0955386,United States,US,Snohomish County
Safeway,2930 Ocean Beach Hwy,Longview,WA,98632,46.148239,-122.9609434,United States,US,Cowlitz County
Safeway,30 Pidgeon Hill Dr,Sterling,VA,20165,39.0390889,-77.4112949,United States,US,Loudoun County
Safeway,200 Hamakua Dr,Kailua,HI,96734,21.3904981,-157.73971,United States,US,Honolulu County
Safeway,12251 Darnestown Rd,Gaithersburg,MD,20878,39.118996,-77.2548568,United States,US,Montgomery County
Safeway,1891 Pioneer Pkwy E,Springfield,OR,97477,44.063516,-123.0240216,United States,US,Lane County
Safeway,6701 E Mill Plain Blvd,Vancouver,WA,98661,45.6261154,-122.6029303,United States,US,Clark County
Safeway,1750 Miramonte Ave,Mountain View,CA,94040,37.372433,-122.0884434,United States,US,Santa Clara County
Safeway,2090 Harbison Dr,Vacaville,CA,95687,38.3621436,-121.9617085,United States,US,Solano County
Safeway,1546 N Main St,Salinas,CA,93906,36.7125087,-121.6520164,United States,US,Monterey County
Safeway,1050 Ken Pratt Blvd,Longmont,CO,80501,40.1531709,-105.1100379,United States,US,Boulder County
Safeway,3747 Grand Ave,Oakland,CA,94610,37.8172558,-122.245625,United States,US,Alameda County
Safeway,2249 Cascade Ave,Hood River,OR,97031,45.7086881,-121.5350057,United States,US,Hood River County
Safeway,1366 East Ave,Chico,CA,95926,39.7624573,-121.8225429,United States,US,Butte County
Safeway,11275 E Via Linda,Scottsdale,AZ,85259,33.5866801,-111.8376295,United States,US,Maricopa County
Safeway,2401 Waterman Dr,Fairfield,CA,94534,38.2720448,-122.0528487,United States,US,Solano County
Safeway,10276 Southern Maryland Blvd,Dunkirk,MD,20754,38.7186052,-76.6627486,United States,US,Calvert County
Safeway,1329 S Townsend Ave,Montrose,CO,81401,38.469158,-107.8661619,United States,US,Montrose County
Safeway,2001 Grand Ave,Glenwood Springs,CO,81601,39.5320169,-107.3266783,United States,US,Garfield County
Safeway,804 W 1st St,Cle Elum,WA,98922,47.1956862,-120.9536291,United States,US,Kittitas County
Safeway,1100 El Camino,Belmont,CA,94002,37.5185981,-122.2757566,United States,US,San Mateo County
Safeway,12519 NE 85th St,Kirkland,WA,98033,47.678792,-122.1734359,United States,US,King County
Safeway,8340 15th Ave NW,Seattle,WA,98117,47.6900644,-122.3761313,United States,US,King County
Safeway,201 N Main St,Deer Lodge,MT,59722,46.4031735,-112.734297,United States,US,Powell County
Safeway,121 W Walnut St,Newport,WA,99156,48.1833246,-117.0404574,United States,US,Pend Oreille County
Safeway,1600 Plaza Way,Walla Walla,WA,99362,46.0484231,-118.3473679,United States,US,Walla Walla County
Safeway,1243 Marvin Rd NE,Olympia,WA,98516,47.0593893,-122.7660595,United States,US,Thurston County
Safeway,322 40th St NE,Washington,DC,20019,38.893171,-76.9476521,United States,US,
Safeway,27035 Pacific Hwy S,Des Moines,WA,98198,47.3593921,-122.3105355,United States,US,King County
Safeway,4309 Clayton Rd,Concord,CA,94521,37.9661551,-121.9907644,United States,US,Contra Costa County
Safeway,607 Omache Dr,Omak,WA,98841,48.4180588,-119.5104559,United States,US,Okanogan County
Safeway,5431 Clayton Rd,Clayton,CA,94517,37.9538261,-121.9537169,United States,US,Contra Costa County
Safeway,639 S Bernardo Ave,Sunnyvale,CA,94087,37.3729675,-122.0580874,United States,US,Santa Clara County
Safeway,1790 Decoto Rd,Union City,CA,94587,37.5876275,-122.0193684,United States,US,Alameda County
Safeway,4005 E Chandler Blvd,Phoenix,AZ,85048,33.3031927,-111.996199,United States,US,Maricopa County
Safeway,2525 SE Tualatin Valley Hwy,Hillsboro,OR,97123,45.5058969,-122.9543947,United States,US,Washington County
Safeway,17539 Vierra Canyon Rd,Prunedale,CA,93907,36.7936085,-121.6658837,United States,US,Monterey County
Safeway,1451 W Covell Blvd,Davis,CA,95616,38.5620909,-121.7664716,United States,US,Yolo County
Safeway,350 Bay St,San Francisco,CA,94133,37.8059124,-122.4127881,United States,US,San Francisco County
Safeway,2300 W Hwy 89A,Sedona,AZ,86336,34.8648328,-111.8005429,United States,US,Yavapai County
Safeway,4-831 Kuhio Hwy,Kapaa,HI,96746,22.0623423,-159.321743,United States,US,Kauai County
Safeway,5150 Mae Anne Ave,Reno,NV,89523,39.5314266,-119.8662793,United States,US,Washoe County
Safeway,3496 Camino Tassajara,Danville,CA,94506,37.7980093,-121.9175922,United States,US,Contra Costa County
Safeway,660 Bailey Rd,Bay Point,CA,94565,38.0160585,-121.9434892,United States,US,Contra Costa County
Safeway,2970 Main St,Susanville,CA,96130,40.4060832,-120.6345507,United States,US,Lassen County
Safeway,1221 Honoapiilani Hwy,Lahaina,HI,96761,20.8860824,-156.6836743,United States,US,Maui County
Safeway,5877 Jarvis Ave,Newark,CA,94560,37.5518892,-122.0499185,United States,US,Alameda County
Safeway,1500 E Cedar Ave,Flagstaff,AZ,86004,35.2192002,-111.6215125,United States,US,Coconino County
Safeway,2177 NW 185th Ave,Hillsboro,OR,97124,45.5360798,-122.8697631,United States,US,Washington County
Safeway,12032 SE Sunnyside Rd,Clackamas,OR,97015,45.428242,-122.540378,United States,US,Clackamas County
Safeway,530 Canal St,King City,CA,93930,36.2046002,-121.1331805,United States,US,Monterey County
Safeway,1125 Second St,Brentwood,CA,94513,37.9358834,-121.6991489,United States,US,Contra Costa County
Safeway,2204A W Nob Hill Blvd,Yakima,WA,98902,46.5841563,-120.539198,United States,US,Yakima County
Safeway,2509 E 29th Ave,Spokane,WA,99223,47.6294826,-117.3746131,United States,US,Spokane County
Safeway,15549 Union Ave,Los Gatos,CA,95032,37.2424233,-121.932645,United States,US,Santa Clara County
Safeway,6201 6th Ave,Tacoma,WA,98406,47.2564283,-122.5202424,United States,US,Pierce County
Safeway,2660 N Federal Blvd,Denver,CO,80211,39.7552285,-105.0242895,United States,US,Denver County
Safeway,253 High School Rd NE,Bainbridge Island,WA,98110,47.6350962,-122.5197046,United States,US,Kitsap County
Safeway,23565 N Scottsdale Rd,Scottsdale,AZ,85255,33.7000383,-111.9229987,United States,US,Maricopa County
Safeway,7110 N Oracle Rd,Tucson,AZ,85704,32.3358331,-110.9747416,United States,US,Pima County
Safeway,4495 First St,Livermore,CA,94551,37.6952745,-121.7428776,United States,US,Alameda County
Safeway,1235 Stratford Ave,Dixon,CA,95620,38.4574127,-121.8392922,United States,US,Solano County
Safeway,3365 Deer Valley Rd,Antioch,CA,94531,37.9877352,-121.784186,United States,US,Contra Costa County
Safeway,401 S Roosevelt Dr,Seaside,OR,97138,45.9908434,-123.9200604,United States,US,Clatsop County
Safeway,590 Farrington N 400,Kapolei,HI,96707,21.3392144,-158.0797908,United States,US,Honolulu County
Safeway,2785 Yulupa Ave,Santa Rosa,CA,95405,38.4257973,-122.6685363,United States,US,Sonoma County
Safeway,11290 Donner Pass Rd,Truckee,CA,96161,39.3272037,-120.2064298,United States,US,Nevada County
Safeway,6440 E Yale Ave,Denver,CO,80222,39.6667834,-104.9143416,United States,US,Denver County
Safeway,599 W 4th St,Benson,AZ,85602,31.9690183,-110.3065544,United States,US,Cochise County
Safeway,6500 Piney Branch Rd NW,Washington,DC,20012,38.9695827,-77.0265491,United States,US,
Safeway,10000 Baltimore National Pike,Ellicott City,MD,21042,39.2799639,-76.8554297,United States,US,Howard County
Safeway,8646 Richmond Hwy,Alexandria,VA,22309,38.7243286,-77.1214041,United States,US,Fairfax County
Safeway,6130 Rose Hill Dr,Alexandria,VA,22310,38.7840449,-77.122449,United States,US,Fairfax County
Safeway,3275 W Colorado Ave,Colorado Springs,CO,80904,38.8547318,-104.8770227,United States,US,El Paso County
Safeway,800 NE 3rd Ave,Camas,WA,98607,45.5869584,-122.3997057,United States,US,Clark County
Safeway,8377 Elk Grove Florin Rd,Sacramento,CA,95829,38.4534632,-121.3700657,United States,US,Sacramento County
Safeway,13733 Fountain Hills Blvd,Fountain Hills,AZ,85268,33.6100254,-111.7279235,United States,US,Maricopa County
Safeway,2341 S Winchester Blvd,Campbell,CA,95008,37.2799528,-121.9510897,United States,US,Santa Clara County
Safeway,210 Washington Ave S,Kent,WA,98032,47.3805498,-122.2460874,United States,US,King County
Safeway,23632 Hwy 99,Edmonds,WA,98026,47.7845464,-122.3446758,United States,US,Snohomish County
Safeway,4240 Merchant Plaza,Woodbridge,VA,22192,38.6748875,-77.3351346,United States,US,Prince William County
Safeway,10100 N Newport Hwy,Spokane,WA,99218,47.750404,-117.3974166,United States,US,Spokane County
Safeway,1330 Chain Bridge Rd,Mclean,VA,22101,38.9394871,-77.1757461,United States,US,Fairfax County
Safeway,7397 Lee Hwy,Falls Church,VA,22042,38.8756934,-77.1980735,United States,US,Fairfax County
Safeway,2205 Old Bridge Rd,Woodbridge,VA,22192,38.677385,-77.2813247,United States,US,Prince William County
Safeway,540 Benfield Rd,Severna Park,MD,21146,39.0833091,-76.5833184,United States,US,Anne Arundel County
Safeway,5101 Wilson Blvd,Arlington,VA,22205,38.8779636,-77.1236177,United States,US,Arlington County
Safeway,9525 Braddock Rd,Fairfax,VA,22032,38.8165222,-77.2752658,United States,US,Fairfax County
Safeway,909 Thayer Ave,Silver Spring,MD,20910,38.993373,-77.0246011,United States,US,Montgomery County
Safeway,3499 Sweet Air Rd,Phoenix,MD,21131,39.5152841,-76.5576736,United States,US,Baltimore County
Safeway,9881 Georgetown Pike,Great Falls,VA,22066,38.9960788,-77.2877267,United States,US,Fairfax County
Safeway,299 S Van Dorn St,Alexandria,VA,22304,38.8100873,-77.1338056,United States,US,
Safeway,12200 W Ox Rd,Fairfax,VA,22033,38.8662827,-77.3684643,United States,US,Fairfax County
Safeway,9080 Brooks Rd,Windsor,CA,95492,38.5516553,-122.8065101,United States,US,Sonoma County
Safeway,1624 72nd St E,Tacoma,WA,98404,47.1906668,-122.4068655,United States,US,Pierce County
Safeway,1302 S 38th St,Tacoma,WA,98418,47.2221556,-122.4515565,United States,US,Pierce County
Safeway,415 N Main St,Aztec,NM,87410,36.8249423,-107.9947626,United States,US,San Juan County
Safeway,785 E El Camino Real,Sunnyvale,CA,94087,37.3572466,-122.0175752,United States,US,Santa Clara County
Safeway,624 Hwy 105,Monument,CO,80132,39.0932655,-104.837226,United States,US,El Paso County
Safeway,8785 Branch Ave,Clinton,MD,20735,38.7686722,-76.8896689,United States,US,Prince George's County
Safeway,15100 SE 38th St,Bellevue,WA,98006,47.5765395,-122.1371839,United States,US,King County
Safeway,2845 Alabama Ave SE,Washington,DC,20020,38.8595867,-76.9658363,United States,US,
Safeway,11051 S Parker Rd,Parker,CO,80134,39.5160562,-104.7665878,United States,US,Douglas County
Safeway,6901 NE Sandy Blvd,Portland,OR,97213,45.5476025,-122.5927272,United States,US,Multnomah County
Safeway,680F W Washington St,Sequim,WA,98382,48.0809825,-123.1172616,United States,US,Clallam County
Safeway,501 N Miller St,Wenatchee,WA,98801,47.4308904,-120.3239541,United States,US,Chelan County
Safeway,840 E Dunne Ave,Morgan Hill,CA,95037,37.1288501,-121.6362425,United States,US,Santa Clara County
Safeway,1500 E Main St,Cottage Grove,OR,97424,43.7981773,-123.051928,United States,US,Lane County
Safeway,4370 Montgomery Rd,Ellicott City,MD,21043,39.2510929,-76.8185755,United States,US,Howard County
Safeway,1781 Forest Dr,Annapolis,MD,21401,38.9699168,-76.5229005,United States,US,Anne Arundel County
Safeway,5821 Crossroads Ctr Way,Falls Church,VA,22041,38.8535748,-77.1289214,United States,US,Fairfax County
Safeway,2150 S Downing St,Denver,CO,80210,39.6773707,-104.9720164,United States,US,Denver County
Safeway,3215 Harrison Ave NW,Olympia,WA,98502,47.0455429,-122.9419815,United States,US,Thurston County
Safeway,5146 Stevens Creek Blvd,San Jose,CA,95129,37.3221369,-121.9951121,United States,US,Santa Clara County
Safeway,1121 N Circle Dr,Colorado Springs,CO,80909,38.8484509,-104.7723311,United States,US,El Paso County
Safeway,900 N Callow Ave,Bremerton,WA,98312,47.5697604,-122.6527673,United States,US,Kitsap County
Safeway,5660 Baltimore National Pike,Baltimore,MD,21228,39.2894079,-76.7302357,United States,US,Baltimore County
Safeway,121 W Neider Ave,Coeur d'Alene,ID,83815,47.7082449,-116.7874636,United States,US,Kootenai County
Safeway,26916 Maple Valley Rd,Maple Valley,WA,98038,47.3601323,-122.0193065,United States,US,King County
Safeway,315 E College Way,Mount Vernon,WA,98273,48.4370202,-122.3371809,United States,US,Skagit County
Safeway,14020 E Sprague Ave,Spokane,WA,99216,47.6556871,-117.2161387,United States,US,Spokane County
Safeway,4823 S Hwy 95,Fort Mohave,AZ,86426,35.0166854,-114.5995257,United States,US,Mohave County
Safeway,1300 W San Carlos St,San Jose,CA,95126,37.3228737,-121.9119314,United States,US,Santa Clara County
Safeway,1423 NW Market St,Seattle,WA,98107,47.6685539,-122.3748331,United States,US,King County
Safeway,15570 SW Pacific Hwy,Tigard,OR,97224,45.4072213,-122.7927096,United States,US,Washington County
Safeway,3900 Wadsworth Blvd,Wheat Ridge,CO,80033,39.7710918,-105.0795795,United States,US,Jefferson County
Safeway,9255 S Broadway,Highlands Ranch,CO,80129,39.5477859,-104.9941988,United States,US,Douglas County
Safeway,2610 Boston St,Baltimore,MD,21224,39.2806356,-76.5787136,United States,US,
Safeway,2401 N Charles St,Baltimore,MD,21218,39.3166145,-76.616631,United States,US,
Safeway,1530 Hamilton Ave,San Jose,CA,95125,37.2932997,-121.9109915,United States,US,Santa Clara County
Safeway,4128 Rucker Ave,Everett,WA,98203,47.9625643,-122.2117246,United States,US,Snohomish County
Safeway,1258 State St,Marysville,WA,98270,47.993532,-122.1864449,United States,US,Snohomish County
Safeway,611 N Montana Ave,Helena,MT,59601,46.5906167,-112.0185569,United States,US,Lewis and Clark County
Safeway,926 E Broadway Rd,Tempe,AZ,85282,33.408954,-111.9252345,United States,US,Maricopa County
Safeway,520 Mt Hood St,The Dalles,OR,97058,45.6045779,-121.1942992,United States,US,Wasco County
Safeway,2300 16th St,San Francisco,CA,94103,37.7659054,-122.407965,United States,US,San Francisco County
Safeway,7920 E Chaparral Rd,Scottsdale,AZ,85250,33.5106988,-111.9103297,United States,US,Maricopa County
Safeway,110 E 3rd St,Port Angeles,WA,98362,48.115957,-123.435355,United States,US,Clallam County
Safeway,4011 S 164th,Seattle,WA,98188,47.455652,-122.2824069,United States,US,King County
Safeway,2507 W Wellesley Ave,Spokane,WA,99205,47.6990348,-117.4482845,United States,US,Spokane County
Safeway,1129 Harrison Ave,Centralia,WA,98531,46.7276216,-122.9810567,United States,US,Lewis County
Safeway,1405 E Main Ave,Puyallup,WA,98372,47.193187,-122.2748637,United States,US,Pierce County
Safeway,2890 N Powers,Colorado Springs,CO,80922,38.873845,-104.7224248,United States,US,El Paso County
Safeway,277 Pi'Ikea Ave,Kihei,HI,96753,20.7531814,-156.4475256,United States,US,Maui County
Safeway,75-1027 Henry St,Kailua Kona,HI,96740,19.6467754,-155.989636,United States,US,Hawaii County
Safeway,1701 Santa Rita Rd,Pleasanton,CA,94566,37.6749177,-121.8745838,United States,US,Alameda County
Safeway,520 Cleveland Ave SE,Tumwater,WA,98501,47.0189848,-122.8977551,United States,US,Thurston County
Safeway,2650 NE Hwy 20,Bend,OR,97701,44.0577,-121.2647148,United States,US,Deschutes County
Safeway,905 First St,Gilroy,CA,95020,37.014604,-121.5889059,United States,US,Santa Clara County
Safeway,2020 Market St,San Francisco,CA,94114,37.7688946,-122.4279658,United States,US,San Francisco County
Safeway,3820 Rainier Ave S,Seattle,WA,98118,47.5692478,-122.2894501,United States,US,King County
Safeway,20205 N 67th Ave,Glendale,AZ,85308,33.6693148,-112.2003107,United States,US,Maricopa County
Safeway,14175 W Indian School Rd,Goodyear,AZ,85395,33.4838188,-112.3642164,United States,US,Maricopa County
Safeway,4401 Harford Rd,Baltimore,MD,21214,39.3393467,-76.5713001,United States,US,
Safeway,810 E Glendale Ave,Phoenix,AZ,85020,33.5394748,-112.0622616,United States,US,Maricopa County
Safeway,4990 River Rd,Keizer,OR,97303,44.9963599,-123.0240085,United States,US,Marion County
Safeway,890 W Williams,Fallon,NV,89406,39.4771881,-118.7873881,United States,US,Churchill County
Safeway,13719 SE Mill Plain Blvd,Vancouver,WA,98684,45.6170302,-122.5310662,United States,US,Clark County
Safeway,12122 N Rancho Vistoso Blvd,Oro Valley,AZ,85755,32.4265773,-110.9599118,United States,US,Pima County
Safeway,20500 Olympic Pl,Arlington,WA,98223,48.1820751,-122.1276862,United States,US,Snohomish County
Safeway,4515 SE Woodstock Blvd,Portland,OR,97206,45.4799407,-122.6159581,United States,US,Multnomah County
Safeway,1401 NE McWilliams Rd,Bremerton,WA,98311,47.6206631,-122.630845,United States,US,Kitsap County
Safeway,13485 NW Cornell Rd,Portland,OR,97229,45.5279917,-122.8144749,United States,US,Washington County
Safeway,3071 Stevens Creek Blvd,Santa Clara,CA,95050,37.3241172,-121.9497885,United States,US,Santa Clara County
Safeway,1535 N 1st St,Stayton,OR,97383,44.8057031,-122.7960438,United States,US,Marion County
Safeway,460 SW Mt Si Blvd,North Bend,WA,98045,47.4872634,-121.7913929,United States,US,King County
Safeway,3320 Arden Way,Sacramento,CA,95825,38.594476,-121.3868593,United States,US,Sacramento County
Safeway,7301 Greenback Lane,Citrus Heights,CA,95621,38.679881,-121.2939535,United States,US,Sacramento County
Safeway,220 S Elizabeth St,Elizabeth,CO,80107,39.3600208,-104.610053,United States,US,Elbert County
Safeway,2901 F Rd,Grand Junction,CO,81504,39.0904177,-108.5137595,United States,US,Mesa County
Safeway,90 S Val Vista Dr,Gilbert,AZ,85296,33.3488052,-111.7571808,United States,US,Maricopa County
Safeway,1515 E Elliot Rd,Tempe,AZ,85284,33.3483804,-111.9136833,United States,US,Maricopa County
Safeway,401 E Hwy 260,Payson,AZ,85541,34.2400432,-111.3183166,United States,US,Gila County
Safeway,212 Elks Point Dr,Zephyr Cove,NV,89448,38.9854857,-119.943495,United States,US,Douglas County
Safeway,309 S Gate Shopping Ctr,Culpeper,VA,22701,38.462245,-78.002635,United States,US,
Safeway,4211 Mountain Rd,Pasadena,MD,21122,39.1206206,-76.5147201,United States,US,Anne Arundel County
Tom Thumb,3757 Forest Ln,Dallas,TX,75244,32.9107958,-96.8529798,United States,US,Dallas County
Safeway,1978 Contra Costa Blvd,Pleasant Hill,CA,94523,37.9491047,-122.057908,United States,US,Contra Costa County
Safeway,2501 SW Cherry Park Rd,Troutdale,OR,97060,45.5300854,-122.4112777,United States,US,Multnomah County
Safeway,29834 N Cave Creek Rd,Cave Creek,AZ,85331,33.7579198,-111.9918392,United States,US,Maricopa County
Safeway,1150 Basin St SW,Ephrata,WA,98823,47.3099109,-119.5583072,United States,US,Grant County
Safeway,221 W Heron St,Aberdeen,WA,98520,46.9719455,-123.8191209,United States,US,Grays Harbor County
Safeway,1450 Howard Ave,Burlingame,CA,94010,37.5764245,-122.3482146,United States,US,San Mateo County
Safeway,9229 E Lincoln Ave,Lone Tree,CO,80124,39.5378749,-104.883172,United States,US,Douglas County
Safeway,14696 N Frank Lloyd Wright Blvd,Scottsdale,AZ,85260,33.6195395,-111.8750239,United States,US,Maricopa County
Safeway,7300 Roosevelt Way NE,Seattle,WA,98115,47.6818565,-122.3170188,United States,US,King County
Safeway,1410 E John St,Seattle,WA,98112,47.6204958,-122.3132555,United States,US,King County
Safeway,1426 E Harmony Rd,Fort Collins,CO,80525,40.5246652,-105.0510123,United States,US,Larimer County
Safeway,5485 Harpers Farm Rd,Columbia,MD,21044,39.2229407,-76.8897843,United States,US,Howard County
Safeway,730 Mountain View Rd,Rapid City,SD,57702,44.0799985,-103.2513653,United States,US,Pennington County
Safeway,1207 S 320th St,Federal Way,WA,98003,47.3138225,-122.3178639,United States,US,King County
Safeway,230 E Johnson Ave,Coos Bay,OR,97420,43.3588527,-124.2104568,United States,US,Coos County
Safeway,1735 Virginia Ave,North Bend,OR,97459,43.4057059,-124.2358476,United States,US,Coos County
Safeway,1983 S Main St,Lebanon,OR,97355,44.527334,-122.9058767,United States,US,Linn County
Safeway,815 E Main St,Middletown,MD,21769,39.4387812,-77.5255754,United States,US,Frederick County
Safeway,4040 Manzanita Ave,Carmichael,CA,95608,38.6379275,-121.3270327,United States,US,Sacramento County
Safeway,2121 Cowell Blvd,Davis,CA,95618,38.5413451,-121.7237918,United States,US,Yolo County
Safeway,2751 Fourth St,Santa Rosa,CA,95405,38.4510151,-122.6911824,United States,US,Sonoma County
Safeway,200 S 3rd St,Renton,WA,98057,47.4798337,-122.2148764,United States,US,King County
Safeway,15411 New Hampshire Ave,Silver Spring,MD,20905,39.1083725,-76.9961311,United States,US,Montgomery County
Safeway,4970 S Alma School Rd,Chandler,AZ,85248,33.2336567,-111.8603985,United States,US,Maricopa County
Safeway,2740 E University Dr,Mesa,AZ,85213,33.4241068,-111.7719929,United States,US,Maricopa County
Safeway,40 County Rd 804,Fraser,CO,80442,39.9455604,-105.8108672,United States,US,Grand County
Safeway,2304 Hunter's Woods Plaza,Reston,VA,20191,38.935667,-77.3623594,United States,US,Fairfax County
Safeway,23961 NE State Route 3,Belfair,WA,98528,47.4536887,-122.8234865,United States,US,Mason County
Safeway,14020 Main St NE,Duvall,WA,98019,47.7263395,-121.9848176,United States,US,King County
Safeway,4950 Almaden Expy,San Jose,CA,95118,37.2603624,-121.8745227,United States,US,Santa Clara County
Safeway,2300 Mendocino Ave,Santa Rosa,CA,95403,38.4636909,-122.7176081,United States,US,Sonoma County
Safeway,6520 S Academy Blvd,Colorado Springs,CO,80906,38.7674556,-104.8150018,United States,US,El Paso County
Safeway,1101 E US Hwy 24,Woodland Park,CO,80863,38.9825699,-105.0467917,United States,US,Teller County
Safeway,19718 Germantown Rd,Germantown,MD,20874,39.1807395,-77.2662729,United States,US,Montgomery County
Safeway,301 Westfield St,Silverton,OR,97381,45.0032445,-122.7939568,United States,US,Marion County
Safeway,570 N Montana St,Dillon,MT,59725,45.2240388,-112.6281118,United States,US,Beaverhead County
Safeway,653 S State St,Ukiah,CA,95482,39.1444554,-123.2059489,United States,US,Mendocino County
Safeway,1999 W Wickenburg Way,Wickenburg,AZ,85390,33.9610209,-112.7710918,United States,US,Maricopa County
Safeway,12318 15th Ave NE,Seattle,WA,98125,47.7180957,-122.3119647,United States,US,King County
Safeway,7353 Federal Blvd,Westminster,CO,80030,39.8296721,-105.0274326,United States,US,Adams County
Safeway,7414 Little River Turnpike,Annandale,VA,22003,38.832325,-77.2008136,United States,US,Fairfax County
Safeway,116 Riverbend Dr,Leavenworth,WA,98826,47.5969357,-120.6456648,United States,US,Chelan County
Safeway,455 N Columbia St,Milton Freewater,OR,97862,45.9408009,-118.3881918,United States,US,Umatilla County
Safeway,6202 S 16th St,Phoenix,AZ,85042,33.3905974,-112.0493137,United States,US,Maricopa County
Safeway,7815 N Lake Blvd,Kings Beach,CA,96143,39.2393844,-120.0339315,United States,US,Placer County
Safeway,610 E Wine Country Rd,Grandview,WA,98930,46.2555098,-119.8926218,United States,US,Yakima County
Safeway,707 S 56th St,Tacoma,WA,98408,47.2066842,-122.4410296,United States,US,Pierce County
Safeway,2644 Chapel Lake Dr,Gambrills,MD,21054,39.0402168,-76.6804331,United States,US,Anne Arundel County
Safeway,12442 W Ken Caryl Ave,Littleton,CO,80127,39.5793377,-105.1348333,United States,US,Jefferson County
Safeway,300 Bellevue Way NE,Bellevue,WA,98004,47.6129984,-122.201015,United States,US,King County
Safeway,2490 N Hwy 99 W,McMinnville,OR,97128,45.2276642,-123.1727032,United States,US,Yamhill County
Safeway,1159 W Chandler Blvd,Chandler,AZ,85224,33.3039879,-111.8630068,United States,US,Maricopa County
Safeway,1060 E Ray Rd,Chandler,AZ,85225,33.3216629,-111.8226303,United States,US,Maricopa County
Safeway,9596 Old Keene Mill Rd,Burke,VA,22015,38.7784644,-77.275176,United States,US,Fairfax County
Vons,1790 Moorpark Rd,Thousand Oaks,CA,91360,34.2015085,-118.8667803,United States,US,Ventura County
Safeway,6711 NE 63rd St,Vancouver,WA,98661,45.6664205,-122.6036331,United States,US,Clark County
Safeway,1100 NE Broadway,Portland,OR,97232,45.5347021,-122.6541648,United States,US,Multnomah County
Safeway,560 Corona St,Denver,CO,80218,39.7249623,-104.9732943,United States,US,Denver County
Safeway,3325 28th St,Boulder,CO,80301,40.0353313,-105.2602617,United States,US,Boulder County
Safeway,444 Wmc Dr,Westminster,MD,21158,39.5865815,-77.0124879,United States,US,Carroll County
Safeway,8640 Sierra College Blvd,Roseville,CA,95661,38.7419037,-121.2284747,United States,US,Placer County
Safeway,3380 Coach Ln,Cameron Park,CA,95682,38.6563828,-120.9709612,United States,US,El Dorado County
Safeway,1109 Yelm Ave E,Yelm,WA,98597,46.9343718,-122.5942939,United States,US,Thurston County
Safeway,20211 Goshen Rd,Gaithersburg,MD,20879,39.1883934,-77.185001,United States,US,Montgomery County
Vons,520 W Tefft St,Nipomo,CA,93444,35.0373749,-120.4869565,United States,US,San Luis Obispo County
Vons,4001 Inglewood Ave,Redondo Beach,CA,90278,33.8932029,-118.3624634,United States,US,Los Angeles County
Safeway,735 NW Gilman Blvd,Issaquah,WA,98027,47.5414168,-122.0481589,United States,US,King County
Vons,1260 W Redondo Beach Blvd,Gardena,CA,90247,33.8908959,-118.2977909,United States,US,Los Angeles County
Vons,3650 S Bristol St,Santa Ana,CA,92704,33.6981988,-117.8870126,United States,US,Orange County
Safeway,3930 SE Powell Blvd,Portland,OR,97202,45.4969871,-122.622033,United States,US,Multnomah County
Safeway,1265 Center St,Salem,OR,97301,44.9407812,-123.0242008,United States,US,Marion County
Safeway,400 N Ruby St,Ellensburg,WA,98926,46.9960717,-120.542995,United States,US,Kittitas County
Safeway,122 Robles Dr,Vallejo,CA,94591,38.0845317,-122.2102402,United States,US,Solano County
Safeway,10300 Federal Blvd,Federal Heights,CO,80260,39.8834326,-105.0226845,United States,US,Adams County
Safeway,3622 E Southern Ave,Mesa,AZ,85206,33.3952074,-111.7521975,United States,US,Maricopa County
Vons,4226 Woodruff Ave,Lakewood,CA,90713,33.8350202,-118.1155705,United States,US,Los Angeles County
Safeway,637 W Route 66,Williams,AZ,86046,35.2481054,-112.1941585,United States,US,Coconino County
Safeway,1503 City Ctr Rd,Mckinleyville,CA,95519,40.9438725,-124.1028492,United States,US,Humboldt County
Safeway,203 SW 20th St,Pendleton,OR,97801,45.6661079,-118.80728,United States,US,Umatilla County
Safeway,3169 Crater Lake Hwy,Medford,OR,97504,42.3625339,-122.8586554,United States,US,Jackson County
Safeway,7655 Mclaughlin Rd,Falcon,CO,80831,38.9415136,-104.6014928,United States,US,El Paso County
Safeway,10223 Gravelly Lake Dr SW,Lakewood,WA,98499,47.1641938,-122.5194278,United States,US,Pierce County
Safeway,40774 Mt Hwy 35,Polson,MT,59860,47.6881349,-114.1239045,United States,US,Lake County
Safeway,5021 Laguna Blvd,Elk Grove,CA,95758,38.4242462,-121.4465999,United States,US,Sacramento County
Safeway,2449 W Kettleman Ln,Lodi,CA,95242,38.1174724,-121.3057864,United States,US,San Joaquin County
Safeway,720 Mangrove Ave,Chico,CA,95926,39.7365932,-121.8335955,United States,US,Butte County
Safeway,225 Brierhill Dr,Bel Air,MD,21015,39.5418989,-76.3253754,United States,US,Harford County
Safeway,2615 NE 112th Ave,Vancouver,WA,98684,45.6412802,-122.5570036,United States,US,Clark County
Safeway,4811 N 83rd Ave,Phoenix,AZ,85033,33.5077667,-112.2358869,United States,US,Maricopa County
Safeway,1601 Coalton Rd,Superior,CO,80027,39.9304214,-105.1491041,United States,US,Boulder County
Safeway,10335 Reisterstown Rd,Owings Mills,MD,21117,39.4182384,-76.7763013,United States,US,Baltimore County
Safeway,1990 14th Ave SE,Albany,OR,97322,44.6278271,-123.079781,United States,US,Linn County
Safeway,905 E Meade Ave,Yakima,WA,98901,46.5784104,-120.4887044,United States,US,Yakima County
Safeway,2001 Mchenry Ave Suite C,Modesto,CA,95350,37.6714874,-120.9958323,United States,US,Stanislaus County
Safeway,10641 W Olive Ave,Peoria,AZ,85345,33.5638291,-112.2886048,United States,US,Maricopa County
Safeway,20901 N Pima Rd,Scottsdale,AZ,85255,33.6758456,-111.8880657,United States,US,Maricopa County
Safeway,138 SW 148th St,Burien,WA,98166,47.4713011,-122.3369559,United States,US,King County
Safeway,1705 S Hwy 97,Redmond,OR,97756,44.2608196,-121.1794242,United States,US,Deschutes County
Safeway,1539 NE Stephens St,Roseburg,OR,97470,43.2289151,-123.3492514,United States,US,Douglas County
Safeway,3333 Arapahoe Rd N #B,Erie,CO,80516,40.0170074,-105.100667,United States,US,
Safeway,5510 Norbeck Rd,Rockville,MD,20853,39.0944008,-77.1100875,United States,US,Montgomery County
Vons,20440 Devonshire St,Chatsworth,CA,91311,34.2567073,-118.5786127,United States,US,Los Angeles County
Vons,820 Arneill Rd,Camarillo,CA,93010,34.2248012,-119.0369916,United States,US,Ventura County
Vons,4033 Laurel Canyon Blvd,Studio City,CA,91604,34.1445477,-118.3961465,United States,US,Los Angeles County
Safeway,1313 Londontowne Blvd,Eldersburg,MD,21784,39.4072095,-76.9489965,United States,US,Carroll County
Safeway,2890 NW Bucklin Hill Rd,Silverdale,WA,98383,47.652686,-122.6882152,United States,US,Kitsap County
Safeway,1301 Main St,Alamosa,CO,81101,37.4692763,-105.8763502,United States,US,Alamosa County
Safeway,2811 Middlefield Rd,Palo Alto,CA,94306,37.4328661,-122.1273209,United States,US,Santa Clara County
Safeway,1940 E Broadway Blvd,Tucson,AZ,85719,32.219984,-110.9429342,United States,US,Pima County
Safeway,3307 Evergreen Blvd Bld 5,Washougal,WA,98671,45.5791588,-122.3361208,United States,US,Clark County
Safeway,413 Elden St,Herndon,VA,20170,38.9668222,-77.3765582,United States,US,Fairfax County
Safeway,590 NE Circle Blvd,Corvallis,OR,97330,44.5869132,-123.2512068,United States,US,Benton County
Safeway,4215 Cheshire Station Plaza,Dale City,VA,22193,38.6453055,-77.3329809,United States,US,Prince William County
Safeway,6700 NE 162nd Ave Suite 500,Vancouver,WA,98682,45.6703223,-122.5062071,United States,US,Clark County
Safeway,1637 N Trekell Rd,Casa Grande,AZ,85122,32.895549,-111.7409017,United States,US,Pinal County
Vons,561 N Glendale Ave,Glendale,CA,91206,34.1549746,-118.2447133,United States,US,Los Angeles County
Safeway,325 S Sharon Park Dr,Menlo Park,CA,94025,37.4239944,-122.1967954,United States,US,San Mateo County
Safeway,1540 Main St,Sweet Home,OR,97386,44.3994949,-122.7257487,United States,US,Linn County
Safeway,15 Marina Blvd,San Francisco,CA,94123,37.8043948,-122.4328779,United States,US,San Francisco County
Safeway,22000 Salamo Rd,West Linn,OR,97068,45.3645911,-122.6474927,United States,US,Clackamas County
Safeway,1421 Tara Hill Dr,Pinole,CA,94564,37.9943978,-122.3041079,United States,US,Contra Costa County
Safeway,403 Redland Blvd,Rockville,MD,20850,39.1133298,-77.1717025,United States,US,Montgomery County
Safeway,4701 Sangamore Rd,Bethesda,MD,20816,38.95006,-77.1194824,United States,US,Montgomery County
Safeway,1902 W Main St,Mesa,AZ,85201,33.4165921,-111.8730677,United States,US,Maricopa County
Safeway,906 E Olive St,Lamar,CO,81052,38.0874402,-102.6081666,United States,US,Prowers County
Safeway,5051 Business Ctr Dr,Fairfield,CA,94534,38.2168264,-122.1410736,United States,US,Solano County
Safeway,838 Sir Francis Drake,San Anselmo,CA,94960,37.9807149,-122.5642294,United States,US,Marin County
Safeway,3955 Missouri Flat Rd,Placerville,CA,95667,38.7134483,-120.8396334,United States,US,El Dorado County
Safeway,80 W Dares Beach Rd,Prince Frederick,MD,20678,38.5454047,-76.5902705,United States,US,Calvert County
Safeway,1449 N Arizona Blvd,Coolidge,AZ,85128,32.9938027,-111.5223468,United States,US,Pinal County
Safeway,900 W Deuce Of Clubs,Show Low,AZ,85901,34.2463249,-110.0519984,United States,US,Navajo County
Vons,522 N Orange St,Redlands,CA,92374,34.0598876,-117.1810845,United States,US,San Bernardino County
Vons,4241 Tierra Rejada Rd,Moorpark,CA,93021,34.2676626,-118.8993068,United States,US,Ventura County
Vons,2701 B Harbor Blvd,Costa Mesa,CA,92626,33.6723978,-117.9209881,United States,US,Orange County
Vons,729 N H St,Lompoc,CA,93436,34.6496279,-120.459152,United States,US,Santa Barbara County
Carrs,664 W Evergreen Ave,Palmer,AK,99645,61.5980534,-149.1270397,United States,US,Matanuska-Susitna
Safeway,2710 1st St,Cheney,WA,99004,47.5058714,-117.5674422,United States,US,Spokane County
Vons,7390 Cherry Ave,Fontana,CA,92336,34.1198922,-117.490461,United States,US,San Bernardino County
Safeway,980 N Hwy 491,Gallup,NM,87301,35.5355203,-108.7565186,United States,US,McKinley County
Safeway,10635 Folsom Blvd,Rancho Cordova,CA,95670,38.595593,-121.293213,United States,US,Sacramento County
Safeway,1031 N US Hwy 89,Chino Valley,AZ,86323,34.7611032,-112.4518141,United States,US,
Safeway,5137 E Baseline Rd,Gilbert,AZ,85234,33.3774186,-111.723551,United States,US,Maricopa County
Safeway,9100 N Silverbell Rd,Tucson,AZ,85743,32.3722404,-111.1368583,United States,US,Pima County
Safeway,6501 E Greenway Pkwy Bldg 4,Scottsdale,AZ,85254,33.6246021,-111.9414679,United States,US,Maricopa County
Safeway,1524 W Main St,Molalla,OR,97038,45.1517321,-122.6035523,United States,US,Clackamas County
Vons,1190 N Main St,Bishop,CA,93514,37.3736335,-118.3933982,United States,US,Inyo County
Vons,5638 E Kings Canyon,Fresno,CA,93727,36.7344288,-119.6990655,United States,US,Fresno County
Vons,1650 Herndon Ave,Clovis,CA,93611,36.8363043,-119.6851836,United States,US,Fresno County
Safeway,591 Tres Pinos Rd,Hollister,CA,95023,36.838748,-121.3916826,United States,US,San Benito County
Safeway,9645 Belair Rd,Perry Hall,MD,21128,39.4135797,-76.4604464,United States,US,Baltimore County
Safeway,22350 S Sterling Blvd,Sterling,VA,20164,38.9976371,-77.407719,United States,US,Loudoun County
Safeway,1017 N Market Plaza,Pueblo,CO,81007,38.3252345,-104.6985362,United States,US,Pueblo County
Safeway,67 Lincoln Blvd,Lincoln,CA,95648,38.8784969,-121.2940622,United States,US,Placer County
Safeway,1725 Pacific Ave,Woodland,WA,98674,45.9120799,-122.7479635,United States,US,Cowlitz County
Safeway,190 John Hunn Brown Rd,Dover,DE,19901,39.1583971,-75.5092908,United States,US,Kent County
Safeway,5270 SW Philomath Blvd,Corvallis,OR,97333,44.5505122,-123.3088722,United States,US,Benton County
Vons,475 W Main St,Brawley,CA,92227,32.9791968,-115.5504371,United States,US,Imperial County
Safeway,2808 Country Club Blvd,Stockton,CA,95204,37.9621855,-121.3375435,United States,US,San Joaquin County
Safeway,1301 W Duval Mine Rd,Sahuarita,AZ,85629,31.9009408,-110.9925044,United States,US,Pima County
Randalls,2225 Louisiana St,Houston,TX,77002,29.7488736,-95.3744077,United States,US,Harris County
Randalls,600 Kingwood Dr,Kingwood,TX,77339,30.0497038,-95.2460832,United States,US,Montgomery County
Randalls,2301 Ranch Rd 620 S,Lakeway,TX,78734,30.3413989,-97.9670587,United States,US,Travis County
Tom Thumb,1000 Keller Pkwy,Keller,TX,76248,32.9322513,-97.2280652,United States,US,Tarrant County
Tom Thumb,106 N Denton Tap Rd,Coppell,TX,75019,32.9706941,-96.991895,United States,US,Dallas County
Tom Thumb,2645 Arapaho Rd,Garland,TX,75044,32.9608694,-96.6669025,United States,US,Dallas County
Tom Thumb,1501 Pioneer Rd,Mesquite,TX,75149,32.7461013,-96.5861801,United States,US,Dallas County
Tom Thumb,1075 W FM 3040,Lewisville,TX,75067,33.006627,-97.0172501,United States,US,Denton County
Tom Thumb,4215 S Carrier Pkwy,Grand Prairie,TX,75052,32.6709758,-97.0046758,United States,US,Dallas County
Tom Thumb,7801 Alma Dr,Plano,TX,75025,33.0833154,-96.7137798,United States,US,Collin County
Tom Thumb,101 Trophy Lake Dr,Trophy Club,TX,76262,33.0001486,-97.2052124,United States,US,Denton County
Safeway,1535 Main St,Windsor,CO,80550,40.4785619,-104.9280614,United States,US,Weld County
Safeway,1425 S Murray Blvd,Colorado Springs,CO,80916,38.8124465,-104.7464426,United States,US,El Paso County
Safeway,1850 Prairie City Rd,Folsom,CA,95630,38.6498822,-121.1657552,United States,US,Sacramento County
Vons,2511 Anthem Village,Henderson,NV,89052,35.9783672,-115.0997899,United States,US,Clark County
Vons,33644 Yucaipa Blvd,Yucaipa,CA,92399,34.0353684,-117.0700763,United States,US,San Bernardino County
Vons,4627 Carmel Mountain Rd,San Diego,CA,92130,32.9203046,-117.2149726,United States,US,San Diego County
Safeway,11501 Canyon Rd E,Puyallup,WA,98373,47.1519054,-122.3558664,United States,US,Pierce County
Safeway,3919 N Market St,Spokane,WA,99207,47.6941742,-117.3673573,United States,US,Spokane County
Safeway,20685 SW Roy Rogers,Sherwood,OR,97140,45.3697795,-122.8454102,United States,US,Washington County
Safeway,189 W Lee Hwy,Warrenton,VA,20186,38.7306411,-77.7971443,United States,US,Fauquier County
Carrs,1340 Gambell St,Anchorage,AK,99501,61.2091159,-149.8718999,United States,US,Anchorage
Safeway,717 SR 9 NE,Lake Stevens,WA,98258,48.0014402,-122.1053031,United States,US,Snohomish County
Safeway,4101 Northview Dr,Bowie,MD,20716,38.9459493,-76.7368358,United States,US,Prince George's County
Carrs,1650 W Northern Lights Blvd,Anchorage,AK,99517,61.1941966,-149.9160476,United States,US,Anchorage
Carrs,11409 Business Park Blvd,Eagle River,AK,99577,61.3246286,-149.5728735,United States,US,
Safeway,10576 Kenai Spur Hwy,Kenai,AK,99611,60.5602526,-151.2408883,United States,US,Kenai Peninsula Borough
Carrs,5600 Debarr Rd,Anchorage,AK,99504,61.2082476,-149.776091,United States,US,Anchorage
Carrs,595 E Parks Hwy,Wasilla,AK,99654,61.5826505,-149.4360033,United States,US,Matanuska-Susitna
Carrs,4000 W Dimond Blvd,Anchorage,AK,99502,61.1363191,-149.953594,United States,US,Anchorage
Carrs,1501 Huffman Rd,Anchorage,AK,99515,61.1096597,-149.8538031,United States,US,Anchorage
Safeway,337 E Ridgeville Blvd,Mount Airy,MD,21771,39.3660593,-77.1605593,United States,US,Carroll County
Carrs,7731 E Northern Lights Blvd,Anchorage,AK,99504,61.1958198,-149.7344083,United States,US,Anchorage
Safeway,2417 Tongass Ave,Ketchikan,AK,99901,55.3484871,-131.6733986,United States,US,Ketchikan Gateway
Safeway,18495 E Queen Creek Rd,Queen Creek,AZ,85142,33.2028363,-111.642224,United States,US,
Safeway,3033 Vintage Blvd,Juneau,AK,99801,58.3710302,-134.5955939,United States,US,Juneau
Safeway,301 N Santa Claus Ln,North Pole,AK,99705,64.7581303,-147.3547382,United States,US,Fairbanks North Star
Safeway,1020 Johnson Ln,South Lake Tahoe,CA,96150,38.9440786,-119.9672782,United States,US,El Dorado County
Safeway,6498 Pony Express Trail,Pollock Pines,CA,95726,38.7620545,-120.5766555,United States,US,El Dorado County
Safeway,1070 E Cypress Ave,Redding,CA,96002,40.5728327,-122.351392,United States,US,Shasta County
Safeway,2111 Adams Ave,La Grande,OR,97850,45.3212901,-118.0815771,United States,US,Union County
Safeway,8134 County Rd 13,Firestone,CO,80504,40.1192062,-104.9397067,United States,US,Weld County
Safeway,90 Sterling Hwy,Homer,AK,99603,59.6433839,-151.5345017,United States,US,Kenai Peninsula Borough
Safeway,1313 Meals St,Valdez,AK,99686,61.1313766,-146.3485345,United States,US,Valdez-Cordova
Safeway,2029 Airport Beach Rd,Unalaska,AK,99692,53.8852977,-166.5476468,United States,US,Aleutians West
Eagle,415 Bering St,Nome,AK,99762,64.5012065,-165.4080206,United States,US,Nome
Eagle,147 Hightower Rd,Girdwood,AK,99587,60.9626952,-149.1343265,United States,US,Anchorage
Safeway,12320 N 83rd Ave,Peoria,AZ,85381,33.5965671,-112.2397057,United States,US,Maricopa County
Safeway,"13023 NE Hwy 99, Suite 1",Vancouver,WA,98686,45.7153076,-122.6499715,United States,US,Clark County
Safeway,215 Whitesell St NW,Orting,WA,98360,47.0988532,-122.2093008,United States,US,Pierce County
Safeway,8925 Madison Ave,Fair Oaks,CA,95628,38.6654024,-121.2240724,United States,US,Sacramento County
Safeway,5980 Kingstowne Towne Ctr,Alexandria,VA,22315,38.7699634,-77.1413591,United States,US,Fairfax County
Safeway,32551 N Scottsdale Rd,Scottsdale,AZ,85266,33.7812654,-111.922415,United States,US,Maricopa County
Randalls,9911 Brodie Ln,Austin,TX,78748,30.1838903,-97.8477599,United States,US,Travis County
Tom Thumb,4301 Cross Timbers Rd,Flower Mound,TX,75028,33.0402734,-97.097516,United States,US,Denton County
Randalls,10228 W Broadway St,Pearland,TX,77584,29.5548695,-95.3789079,United States,US,Brazoria County
Safeway,1550 Hwy 92,Delta,CO,81416,38.7508644,-108.0515301,United States,US,Delta County
Safeway,24040 Bothell Everett Hwy,Bothell,WA,98021,47.7787443,-122.2208158,United States,US,Snohomish County
Safeway,2220 Sunset Blvd,Rocklin,CA,95765,38.8028107,-121.2743496,United States,US,Placer County
Safeway,771 Thornton Pkwy,Thornton,CO,80229,39.872346,-104.9758182,United States,US,Adams County
Safeway,6360 E Golf Links Rd,Tucson,AZ,85730,32.1902416,-110.8559142,United States,US,Pima County
Safeway,880 S Perry St,Castle Rock,CO,80104,39.3619974,-104.8609679,United States,US,Douglas County
Safeway,555 E Calaveras Blvd,Milpitas,CA,95035,37.4350143,-121.897972,United States,US,Santa Clara County
Safeway,8858 Waltham Woods Rd,Parkville,MD,21234,39.4002052,-76.5439552,United States,US,Baltimore County
Safeway,990 E Swan Creek Rd,Fort Washington,MD,20744,38.726917,-76.9918475,United States,US,Prince George's County
Safeway,103 American Canyon Rd,American Canyon,CA,94503,38.1646336,-122.2550716,United States,US,Napa County
Safeway,516 1st Ave W,Seattle,WA,98119,47.6235718,-122.3578014,United States,US,King County
Safeway,3970 Stockton Hill Rd,Kingman,AZ,86409,35.2383246,-114.0356996,United States,US,Mohave County
Safeway,320 W Century Blvd,Bend,OR,97702,44.0473229,-121.3295075,United States,US,Deschutes County
Safeway,20535 SW Tualatin Valley Hwy,Aloha,OR,97006,45.4967485,-122.8880331,United States,US,Washington County
Safeway,1080 Pleasant Grove Blvd,Roseville,CA,95678,38.7768414,-121.2914698,United States,US,Placer County
Safeway,235 Tennant Station,Morgan Hill,CA,95037,37.112799,-121.6391836,United States,US,Santa Clara County
Safeway,1580 E Main St,Cortez,CO,81321,37.3504421,-108.5657964,United States,US,Montezuma County
Safeway,5450 Dewey Dr,Fair Oaks,CA,95628,38.6652393,-121.3072479,United States,US,Sacramento County
Randalls,1400 Cypress Creek Rd,Cedar Park,TX,78613,30.4828906,-97.8295716,United States,US,Williamson County
Vons,9643 Mission Gorge Rd,Santee,CA,92071,32.8374073,-116.9871944,United States,US,San Diego County
Safeway,989 Sunrise Ave,Roseville,CA,95661,38.7310727,-121.2710414,United States,US,Placer County
Pavilions,21181 Newport Coast Dr,Newport Coast,CA,92657,33.6066954,-117.8277542,United States,US,Orange County
Pavilions,2660 San Miguel Dr,Newport Beach,CA,92660,33.6265908,-117.8484436,United States,US,Orange County
Vons,450 S Ventura Rd,Oxnard,CA,93030,34.198632,-119.1932992,United States,US,Ventura County
Vons,6351 Haven Ave,Rancho Cucamonga,CA,91737,34.1387311,-117.5740727,United States,US,San Bernardino County
Safeway,14840 Hwy 4,Discovery Bay,CA,94505,37.8911398,-121.6207054,United States,US,Contra Costa County
Safeway,1688 Anderson Rd,Mclean,VA,22102,38.9228596,-77.2016564,United States,US,Fairfax County
Safeway,2709 E Hwy 101,Port Angeles,WA,98362,48.1054261,-123.379751,United States,US,Clallam County
Safeway,9620 28th Ave SW,Seattle,WA,98126,47.5168218,-122.367243,United States,US,King County
Tom Thumb,8805 Lakeview Pkwy,Rowlett,TX,75088,32.9204234,-96.516392,United States,US,Rockwall County
Safeway,7643 Arundel Mills Blvd,Hanover,MD,21076,39.1519216,-76.7228763,United States,US,Anne Arundel County
Safeway,18730 E Hampden Ave,Aurora,CO,80013,39.6513006,-104.7697785,United States,US,Arapahoe County
Safeway,2720 41st Ave,Soquel,CA,95073,36.9850929,-121.9636636,United States,US,Santa Cruz County
Safeway,8071 Guide Meridian Rd #101,Lynden,WA,98264,48.9343255,-122.4873086,United States,US,Whatcom County
Safeway,46848 Mission Blvd,Fremont,CA,94539,37.4896649,-121.9275781,United States,US,Alameda County
Safeway,4440 Tassajara Rd,Dublin,CA,94568,37.7066995,-121.8741391,United States,US,Alameda County
Safeway,5660 Commercial St SE,Salem,OR,97306,44.8729477,-123.0242796,United States,US,Marion County
Safeway,40 Shining Willow Way,La Plata,MD,20646,38.5424218,-76.9821277,United States,US,Charles County
Safeway,1925 Main St,Chester,MD,21619,38.9741851,-76.2741605,United States,US,Queen Anne's County
Safeway,8330 N Ivanhoe St,Portland,OR,97203,45.5878366,-122.7531276,United States,US,Multnomah County
Safeway,4280 Martin Way E,Olympia,WA,98516,47.0495224,-122.8291476,United States,US,Thurston County
Safeway,7499 Dublin Blvd,Dublin,CA,94568,37.7063415,-121.9272225,United States,US,Alameda County
Safeway,2275 Pine St,Redding,CA,96001,40.5767228,-122.3852554,United States,US,Shasta County
Safeway,14939 Shady Grove Rd,Rockville,MD,20850,39.098003,-77.1921888,United States,US,Montgomery County
Safeway,80 NE Cedar St,Madras,OR,97741,44.6439505,-121.1281892,United States,US,Jefferson County
Vons,29530 Rancho California Rd,Temecula,CA,92591,33.5051681,-117.1478909,United States,US,Riverside County
Vons,1155 E Twain Ave,Las Vegas,NV,89169,36.1209019,-115.138783,United States,US,Clark County
Safeway,9262 Rainier Ave S,Seattle,WA,98118,47.5208018,-122.2683081,United States,US,King County
Safeway,13101 SE Kent-Kangley Rd,Kent,WA,98030,47.356628,-122.1668778,United States,US,King County
Safeway,3051 Countryside Dr,Turlock,CA,95380,37.5193347,-120.8822293,United States,US,Stanislaus County
Vons,5700 Stockdale Hwy,Bakersfield,CA,93309,35.3554159,-119.0650843,United States,US,Kern County
Vons,8540 W Desert Inn Rd,Las Vegas,NV,89117,36.1316267,-115.277276,United States,US,Clark County
Tom Thumb,980 Hwy N 287,Mansfield,TX,76063,32.5824718,-97.128787,United States,US,Tarrant County
Tom Thumb,7000 Snider Plaza,Dallas,TX,75205,32.8505083,-96.7872519,United States,US,Dallas County
Safeway,6925 Mesa Ridge Pkwy,Fountain,CO,80817,38.7163261,-104.6989612,United States,US,El Paso County
Safeway,1550 N Pacific Hwy,Woodburn,OR,97071,45.1505057,-122.8301162,United States,US,Marion County
Safeway,6200 Pacific Ave SE,Lacey,WA,98503,47.0392623,-122.7998154,United States,US,Thurston County
Safeway,2637 N Pearl St,Tacoma,WA,98407,47.2728897,-122.5143895,United States,US,Pierce County
Safeway,13440 N 7th St,Phoenix,AZ,85022,33.608965,-112.0669191,United States,US,Maricopa County
Safeway,1334 E Chandler Blvd,Phoenix,AZ,85048,33.3069685,-112.0538781,United States,US,Maricopa County
Safeway,2140 W Grant Rd,Tucson,AZ,85745,32.2522986,-111.0126023,United States,US,Pima County
Safeway,9125 E Tanque Verde,Tucson,AZ,85749,32.2589674,-110.7970848,United States,US,Pima County
Safeway,9705 N Thornydale Rd,Tucson,AZ,85742,32.3823717,-111.0487419,United States,US,Pima County
Safeway,9050 E Valencia Rd,Tucson,AZ,85747,32.1178697,-110.7988632,United States,US,Pima County
Safeway,7177 E Tanque Verde Rd,Tucson,AZ,85715,32.2520331,-110.8391289,United States,US,Pima County
Safeway,9460 E Golf Links Rd,Tucson,AZ,85730,32.1901903,-110.7909382,United States,US,Pima County
Safeway,3970 Rivermark Plaza,Santa Clara,CA,95054,37.3947253,-121.9475777,United States,US,Santa Clara County
Safeway,2201 E Madison St,Seattle,WA,98112,47.6178326,-122.3033646,United States,US,King County
Safeway,17049 W Bell Rd,Surprise,AZ,85374,33.6378307,-112.4253995,United States,US,Maricopa County
Safeway,7561 W 80th Ave,Arvada,CO,80003,39.8434619,-105.0806756,United States,US,Jefferson County
Vons,5671 Kanan Rd,Agoura,CA,91301,34.153664,-118.7591815,United States,US,Los Angeles County
Vons,1311 Wilshire Blvd,Santa Monica,CA,90403,34.0263141,-118.4898398,United States,US,Los Angeles County
Safeway,3540 E Main St,Farmington,NM,87402,36.7513068,-108.1610205,United States,US,San Juan County
Vons,7788 Regents Rd,San Diego,CA,92122,32.8625868,-117.2234252,United States,US,San Diego County
Safeway,3125 Stockton Hill Rd,Kingman,AZ,86401,35.2145919,-114.0370004,United States,US,Mohave County
Vons,15740 La Forge St,Whittier,CA,90603,33.9409551,-117.994277,United States,US,Los Angeles County
Safeway,1201 S Plaza Way,Flagstaff,AZ,86001,35.1893082,-111.6639299,United States,US,Coconino County
Vons,4033 W Ave L,Lancaster,CA,93536,34.6615953,-118.2024227,United States,US,Los Angeles County
Vons,25850 N The Old Rd,Valencia,CA,91381,34.3911742,-118.5720449,United States,US,Los Angeles County
Safeway,10773 N Scottsdale Rd,Scottsdale,AZ,85254,33.5843292,-111.9245671,United States,US,Maricopa County
Vons,4500 Coffee Rd,Bakersfield,CA,93308,35.4001634,-119.0904451,United States,US,Kern County
Vons,13730 Foothill Blvd,Sylmar,CA,91342,34.3082931,-118.4331957,United States,US,Los Angeles County
Vons,19333 Victory Blvd,Reseda,CA,91335,34.1876769,-118.5545374,United States,US,Los Angeles County
Vons,5555 Balboa Ave,San Diego,CA,92111,32.8185127,-117.1791079,United States,US,San Diego County
Vons,11861 Valley View St,Garden Grove,CA,92845,33.7901681,-118.0290381,United States,US,Orange County
Safeway,3132 E Camelback Rd,Phoenix,AZ,85016,33.5113798,-112.0147546,United States,US,Maricopa County
Safeway,260 W Continental Rd,Green Valley,AZ,85614,31.8527914,-110.9965818,United States,US,Pima County
Vons,5805 E Los Angeles Ave,Simi Valley,CA,93063,34.2732641,-118.6777767,United States,US,Ventura County
Vons,330 W El Norte Pkwy,Escondido,CA,92026,33.1435521,-117.0941472,United States,US,San Diego County
Randalls,"2951 Marina Bay Dr, Suite B",League City,TX,77573,29.5387211,-95.0629729,United States,US,Galveston County
Safeway,1635 E Cottonwood Ln,Cottonwood,AZ,86326,34.7273347,-112.0078614,United States,US,Yavapai County
Vons,3645 Midway Dr,San Diego,CA,92110,32.751159,-117.217448,United States,US,San Diego County
Safeway,13503 Camino Del Sol,Sun City West,AZ,85375,33.655033,-112.3498896,United States,US,Maricopa County
Vons,932 E Badillo St,Covina,CA,91724,34.0850897,-117.8715267,United States,US,Los Angeles County
Safeway,1767 E Prince Rd,Tucson,AZ,85719,32.273638,-110.9453081,United States,US,Pima County
Vons,6951 El Camino Real,Carlsbad,CA,92009,33.1034861,-117.268622,United States,US,San Diego County
Vons,18439 Ventura Blvd,Tarzana,CA,91356,34.1690153,-118.5342896,United States,US,Los Angeles County
Safeway,20 W White Mountain Blvd,Lakeside,AZ,85929,34.1427167,-109.9541,United States,US,Navajo County
Vons,2250 Otay Lakes Rd,Chula Vista,CA,91915,32.6457871,-116.9661533,United States,US,San Diego County
Safeway,121 W Riverside Dr,Parker,AZ,85344,34.1546843,-114.2757338,United States,US,La Paz County
Safeway,203 S Mountain Ave,Springerville,AZ,85938,34.1304751,-109.2895049,United States,US,Apache County
Vons,3118 S Sepulveda Blvd,Los Angeles,CA,90034,34.0265855,-118.4269502,United States,US,Los Angeles County
Vons,9119 Reseda Blvd,Northridge,CA,91324,34.235955,-118.5377556,United States,US,Los Angeles County
Vons,11986 Bernardo Plaza Dr,San Diego,CA,92128,33.0210886,-117.0722025,United States,US,San Diego County
Vons,13255 Black Mountain Rd,San Diego,CA,92129,32.9574856,-117.1249069,United States,US,San Diego County
Safeway,2190 E Fry Blvd,Sierra Vista,AZ,85635,31.5529463,-110.2758682,United States,US,Cochise County
Pavilions,600 N Pacific Coast Hwy,Laguna Beach,CA,92651,33.5465002,-117.7933935,United States,US,Orange County
Vons,5922 Edinger Ave,Huntington Beach,CA,92649,33.728603,-118.0249373,United States,US,Orange County
Vons,32401 Camino Capistrano,San Juan Capistrano,CA,92675,33.4926436,-117.6635604,United States,US,Orange County
Vons,2048 Avenida De Los Arboles,Thousand Oaks,CA,91362,34.2099857,-118.8408366,United States,US,Ventura County
Vons,8011 University Ave,La Mesa,CA,91942,32.765421,-117.024054,United States,US,San Diego County
Vons,5275 Mission Oaks Blvd,Camarillo,CA,93012,34.2297424,-118.9985717,United States,US,Ventura County
Vons,115 W Main St,Ventura,CA,93001,34.2823602,-119.3023286,United States,US,Ventura County
Safeway,4747 E Greenway Rd,Phoenix,AZ,85032,33.6247193,-111.9790544,United States,US,Maricopa County
Vons,9860 National Blvd,Los Angeles,CA,90034,34.030187,-118.4014314,United States,US,Los Angeles County
Vons,1040 Coast Village Rd,Montecito,CA,93108,34.4226069,-119.6515007,United States,US,Santa Barbara County
Vons,5600 Santa Ana Canyon Rd,Anaheim,CA,92807,33.8498375,-117.791666,United States,US,Orange County
Pavilions,4365 Glencoe Ave,Marina Del Rey,CA,90292,33.9850466,-118.4397668,United States,US,Los Angeles County
Safeway,6580 Hwy 93 S,Whitefish,MT,59937,48.3991887,-114.3369716,United States,US,Flathead County
Vons,10675 Scripps Poway Pkwy,San Diego,CA,92131,32.9354594,-117.0983467,United States,US,San Diego County
Vons,1212 Beryl St,Redondo Beach,CA,90277,33.8538753,-118.3802683,United States,US,Los Angeles County
Vons,715 Pier Ave,Hermosa Beach,CA,90254,33.8658773,-118.3944151,United States,US,Los Angeles County
Vons,24160 Lyons Ave,Newhall,CA,91321,34.3779965,-118.5572742,United States,US,Los Angeles County
Vons,620 Dennery Rd,San Diego,CA,92154,32.5831174,-117.0347214,United States,US,San Diego County
Vons,1702 Garnet Ave,San Diego,CA,92109,32.8020084,-117.238855,United States,US,San Diego County
Vons,3550 Murphy Canyon Dr,San Diego,CA,92123,32.8073112,-117.1166399,United States,US,San Diego County
Pavilions,3850 Valley Centre Dr,San Diego,CA,92130,32.9393889,-117.2317833,United States,US,San Diego County
Vons,4725 Clairemont Dr,San Diego,CA,92117,32.8303369,-117.2050512,United States,US,San Diego County
Vons,940 S Santa Fe Ave,Vista,CA,92084,33.1942213,-117.2326123,United States,US,San Diego County
Vons,777 Glendora Ave,West Covina,CA,91790,34.0625681,-117.9324975,United States,US,Los Angeles County
Vons,7789 Foothill Blvd,Tujunga,CA,91042,34.2590646,-118.3010791,United States,US,Los Angeles County
Vons,1160 Via Verde Ave,San Dimas,CA,91773,34.072598,-117.8290443,United States,US,Los Angeles County
Vons,4404 Bonita Rd,Bonita,CA,91902,32.6599111,-117.0313994,United States,US,San Diego County
Vons,12199 Hesperia Rd,Victorville,CA,92395,34.4725765,-117.2896832,United States,US,San Bernardino County
Vons,10460 Clairemont Mesa Blvd,San Diego,CA,92124,32.8303943,-117.104375,United States,US,San Diego County
Vons,8310 Mira Mesa Blvd,San Diego,CA,92126,32.9153011,-117.1448855,United States,US,San Diego County
Vons,2560 El Camino Real,Carlsbad,CA,92008,33.1787141,-117.3247364,United States,US,San Diego County
Vons,262 N El Camino Real,Encinitas,CA,92024,33.051139,-117.2622512,United States,US,San Diego County
Vons,8778 19th St,Rancho Cucamonga,CA,91701,34.1337955,-117.6145346,United States,US,San Bernardino County
Safeway,1489 Bird Ave,San Jose,CA,95125,37.3059649,-121.8908582,United States,US,Santa Clara County
Vons,155 California Blvd,Pasadena,CA,91105,34.1366401,-118.1536146,United States,US,Los Angeles County
Vons,550 E Baseline Rd,Claremont,CA,91711,34.1205886,-117.7061269,United States,US,Los Angeles County
Vons,2345 E Valley Pkwy,Escondido,CA,92027,33.1397166,-117.0447401,United States,US,San Diego County
Vons,1440 W 25th St,San Pedro,CA,90732,33.7230804,-118.3109733,United States,US,Los Angeles County
Vons,5688 Telephone Rd,Ventura,CA,93003,34.2642791,-119.2151514,United States,US,Ventura County
Vons,350 N Lemon Ave,Walnut,CA,91789,34.019636,-117.8639268,United States,US,Los Angeles County
Vons,435 W Foothill Blvd,Glendora,CA,91741,34.1375302,-117.8715267,United States,US,Los Angeles County
Vons,78-271 State Hwy 111,La Quinta,CA,92253,33.7147701,-116.2979495,United States,US,Riverside County
Vons,12961 W Chapman Ave,Garden Grove,CA,92840,33.7896337,-117.9070497,United States,US,Orange County
Vons,14200 Palm Dr,Desert Hot Springs,CA,92240,33.9460118,-116.4994165,United States,US,Riverside County
Vons,8949 N Cedar Ave,Fresno,CA,93720,36.8648823,-119.7583298,United States,US,Fresno County
Vons,130 W Foothill Blvd,Monrovia,CA,91016,34.1499277,-118.0020486,United States,US,Los Angeles County
Pavilions,5949 E Spring St,Long Beach,CA,90808,33.8118162,-118.1154672,United States,US,Los Angeles County
Vons,16450 Beach Blvd,Westminster,CA,92683,33.7243174,-117.9877745,United States,US,Orange County
Safeway,25 Kaneohe Bay Dr,Kailua,HI,96734,21.423325,-157.7483262,United States,US,Honolulu County
Vons,5500 Woodruff Ave,Lakewood,CA,90713,33.8569136,-118.1153768,United States,US,Los Angeles County
Pavilions,26022 Marguerite Pkwy,Mission Viejo,CA,92692,33.5860156,-117.6576478,United States,US,Orange County
Pavilions,11030 Jefferson Blvd,Culver City,CA,90230,33.9968596,-118.3938525,United States,US,Los Angeles County
Pavilions,1110 W Alameda Ave,Burbank,CA,91506,34.1613653,-118.3135008,United States,US,Los Angeles County
Pavilions,1135 Lindero Canyon Rd,Thousand Oaks,CA,91362,34.1838717,-118.7879667,United States,US,Ventura County
Pavilions,8010 E Santa Ana Canyon Rd,Anaheim Hills,CA,92808,33.8671965,-117.7515543,United States,US,Orange County
Pavilions,22451 Antonio Pkwy,Rancho Santa Margarita,CA,92688,33.6368143,-117.5915355,United States,US,Orange County
Safeway,94-780B Meheula Pkwy,Mililani,HI,96789,21.4419641,-158.0226459,United States,US,Honolulu County
Pavilions,845 E California St,Pasadena,CA,91106,34.1363147,-118.1330551,United States,US,Los Angeles County
Pavilions,6534 Platt Ave,West Hills,CA,91307,34.1895279,-118.6413607,United States,US,Los Angeles County
Pavilions,1213 S Fair Oaks Ave,South Pasadena,CA,91030,34.1058277,-118.153228,United States,US,Los Angeles County
Pavilions,727 N Vine St,Los Angeles,CA,90038,34.0844797,-118.3271089,United States,US,Los Angeles County
Pavilions,820 Montana Ave,Santa Monica,CA,90403,34.027865,-118.4998298,United States,US,Los Angeles County
Vons,4705 Torrance Blvd,Torrance,CA,90503,33.8384084,-118.36352,United States,US,Los Angeles County
Pavilions,7 Peninsula Ctr,Rolling Hills Estates,CA,90274,33.7755842,-118.3778814,United States,US,Los Angeles County
Pavilions,1000 Bayside Dr,Newport Beach,CA,92660,33.611332,-117.892598,United States,US,Orange County
Safeway,1025 Alhambra Blvd,Sacramento,CA,95816,38.571579,-121.4647214,United States,US,Sacramento County
Safeway,757 E 20th Ave,Denver,CO,80205,39.748482,-104.9775367,United States,US,Denver County
Safeway,1304 N Liberty Lake Rd,Liberty Lake,WA,99019,47.6698087,-117.1040053,United States,US,Spokane County
Vons,16830 San Fernando Mission Bvd,Granada Hills,CA,91344,34.2709792,-118.4988955,United States,US,Los Angeles County
Vons,311 W Los Feliz Blvd,Glendale,CA,91204,34.1294285,-118.2586403,United States,US,Los Angeles County
Safeway,1095 Hwy 95,Hawthorne,NV,89415,38.535258,-118.6307179,United States,US,Mineral County
Safeway,850 N Lake Blvd,Tahoe City,CA,96145,39.1739451,-120.1369173,United States,US,Placer County
Vons,3461 W Third St,Los Angeles,CA,90020,34.0700012,-118.2909396,United States,US,Los Angeles County
Vons,710 Broadway,Santa Monica,CA,90401,34.0172735,-118.4901499,United States,US,Los Angeles County
Safeway,5345 Elkhorn Blvd,Sacramento,CA,95842,38.6864264,-121.33942,United States,US,Sacramento County
Vons,17380 Sunset Blvd,Pacific Palisades,CA,90272,34.0392954,-118.5539902,United States,US,Los Angeles County
Vons,1430 S Fairfax Ave,Los Angeles,CA,90019,34.0505386,-118.3661917,United States,US,Los Angeles County
Vons,4030 Centinela Ave,Los Angeles,CA,90066,33.9992715,-118.4290546,United States,US,Los Angeles County
Vons,245 Palos Verdes Blvd,Redondo Beach,CA,90277,33.8163947,-118.3859122,United States,US,Los Angeles County
Vons,410 Manhattan Beach Blvd,Manhattan Beach,CA,90266,33.8850764,-118.4078716,United States,US,Los Angeles County
Vons,3900 E Ocean Ave,Long Beach,CA,90803,33.7598458,-118.1471029,United States,US,Los Angeles County
Vons,1221 S Gaffey St,San Pedro,CA,90731,33.7329884,-118.2936805,United States,US,Los Angeles County
Vons,11322 Los Alamitos Blvd,Los Alamitos,CA,90720,33.7978951,-118.0707466,United States,US,Orange County
Safeway,4805 Granite Dr,Rocklin,CA,95677,38.7901234,-121.2221533,United States,US,Placer County
Safeway,1596 St Hwy 99,Gridley,CA,95948,39.3623918,-121.686321,United States,US,Butte County
Vons,2039 Verdugo Blvd,Montrose,CA,91020,34.2056987,-118.2215039,United States,US,Los Angeles County
Safeway,600 Edith St,Corning,CA,96021,39.929608,-122.1981062,United States,US,Tehama County
Vons,817 E Main St,Santa Maria,CA,93454,34.953578,-120.4239427,United States,US,Santa Barbara County
Vons,3900 Broad St,San Luis Obispo,CA,93401,35.2504988,-120.6421003,United States,US,San Luis Obispo County
Vons,7135 El Camino Real,Atascadero,CA,93422,35.4858248,-120.6621405,United States,US,San Luis Obispo County
Safeway,699 Lewelling Blvd,San Leandro,CA,94579,37.6881775,-122.1371512,United States,US,Alameda County
Safeway,137 Corte Madera Town Ctr,Corte Madera,CA,94925,37.9279695,-122.5177114,United States,US,Marin County
Vons,7544 Girard Ave,La Jolla,CA,92037,32.8416872,-117.273582,United States,US,San Diego County
Vons,780 N Brea Blvd,Brea,CA,92821,33.9306013,-117.8931373,United States,US,Orange County
Vons,931 Lomas Santa Fe Dr,Solana Beach,CA,92075,32.9940539,-117.2545016,United States,US,San Diego County
Vons,130 W Lincoln,Anaheim,CA,92805,33.8350194,-117.9145916,United States,US,Orange County
Vons,2684 N Tustin Ave,Orange,CA,92865,33.8332921,-117.8374768,United States,US,Orange County
Vons,665 Saturn Blvd,San Diego,CA,92154,32.5849117,-117.0901023,United States,US,San Diego County
Safeway,620 W Platte Ave,Fort Morgan,CO,80701,40.2529939,-103.8101245,United States,US,Morgan County
Safeway,11088 W Jewell,Lakewood,CO,80232,39.6812688,-105.1226978,United States,US,Jefferson County
Vons,985 Tamarack Ave,Carlsbad,CA,92008,33.1522779,-117.3339596,United States,US,San Diego County
Vons,351 W Felicita Ave,Escondido,CA,92025,33.1031634,-117.0732483,United States,US,San Diego County
Vons,1000 W El Norte Pkwy,Escondido,CA,92026,33.1484248,-117.1074705,United States,US,San Diego County
Vons,2606 Del Mar Heights Rd,Del Mar,CA,92014,32.951488,-117.246576,United States,US,San Diego County
Vons,13438 Poway Rd,Poway,CA,92064,32.9578844,-117.0395951,United States,US,San Diego County
Vons,6155 El Cajon Blvd,San Diego,CA,92115,32.7608964,-117.0649734,United States,US,San Diego County
Vons,4145 30th St,San Diego,CA,92104,32.7530559,-117.1295085,United States,US,San Diego County
Vons,3610 Adams Ave,San Diego,CA,92116,32.7641426,-117.1146618,United States,US,San Diego County
Vons,6555 Mission Gorge Rd,San Diego,CA,92120,32.7924388,-117.0964161,United States,US,San Diego County
Vons,845 College Blvd,Oceanside,CA,92057,33.2407275,-117.2946147,United States,US,San Diego County
Vons,868 Orange Ave,Coronado,CA,92118,32.6878767,-117.179321,United States,US,San Diego County
Vons,3993 Governor Dr,San Diego,CA,92122,32.8534669,-117.2032119,United States,US,San Diego County
Vons,42170 Big Bear Blvd,Big Bear Lake,CA,92315,34.2524029,-116.8850774,United States,US,San Bernardino County
Vons,1270 E Main St,Barstow,CA,92311,34.8957964,-117.0085042,United States,US,San Bernardino County
Vons,535 N Mckinley St,Corona,CA,92879,33.8912506,-117.5200856,United States,US,Riverside County
Vons,4733 E Palm Canyon Dr,Palm Springs,CA,92264,33.7923671,-116.4945237,United States,US,Riverside County
Vons,27220 Sun City Blvd,Sun City,CA,92586,33.7128981,-117.1931965,United States,US,Riverside County
Vons,475 E Windmill Ln,Las Vegas,NV,89123,36.0412126,-115.1524162,United States,US,Clark County
Vons,1131 E Tropicana Ave,Las Vegas,NV,89119,36.1001295,-115.1384131,United States,US,Clark County
Vons,481 Old Mammoth Rd,Mammoth Lakes,CA,93546,37.6386908,-118.9654604,United States,US,Mono County
Vons,750 N Imperial Ave,El Centro,CA,92243,32.7988493,-115.5717165,United States,US,Imperial County
Vons,40044 Hwy 49,Oakhurst,CA,93644,37.3305612,-119.659242,United States,US,Madera County
Pavilions,3901 Portola Parkway,Irvine,CA,92602,33.7348931,-117.7607621,United States,US,Orange County
Vons,5610 Lake Isabella Blvd,Lake Isabella,CA,93240,35.6178365,-118.476086,United States,US,Kern County
Vons,9000 Ming Ave,Bakersfield,CA,93311,35.3414311,-119.1034731,United States,US,Kern County
Vons,1125 Maricopa Hwy,Ojai,CA,93023,34.441201,-119.2623137,United States,US,Ventura County
Vons,2433 Harbor Blvd,Ventura,CA,93001,34.2630576,-119.2702383,United States,US,Ventura County
Vons,576 W Main St,Santa Paula,CA,93060,34.3445207,-119.0812103,United States,US,Ventura County
Vons,2101 N Rose Ave,Oxnard,CA,93036,34.2218328,-119.1617781,United States,US,Ventura County
Vons,636 Ventura St,Fillmore,CA,93015,34.3950319,-118.9162363,United States,US,Ventura County
Safeway,1010 SW Jefferson St,Portland,OR,97201,45.5157328,-122.6846898,United States,US,Multnomah County
Safeway,3375 Jefferson St,Napa,CA,94558,38.3212907,-122.3017161,United States,US,Napa County
Safeway Community Markets,1850 Solano Ave,Berkeley,CA,94707,37.8910562,-122.2784148,United States,US,Alameda County
Andronico's,1200 Irving St,San Francisco,CA,94122,37.7641205,-122.4712261,United States,US,San Francisco County
Safeway Community Markets,1550 Shattuck Ave,Berkeley,CA,94709,37.878766,-122.269894,United States,US,Alameda County
Safeway Community Markets,690 Fremont Ave,Los Altos,CA,94024,37.3608811,-122.0970262,United States,US,Santa Clara County
Safeway Community Markets,100 Center Blvd,San Anselmo,CA,94960,37.9770427,-122.5631739,United States,US,Marin County
Safeway,701 Sonoma Mountain Pkwy,Petaluma,CA,94954,38.2692224,-122.6391862,United States,US,Sonoma County
Safeway,1211 W College Ave,Santa Rosa,CA,95401,38.4460031,-122.7415846,United States,US,Sonoma County
Safeway,1307 16th St,Wheatland,WY,82201,42.060747,-104.9645316,United States,US,Platte County
Safeway,554 N 3rd St,Laramie,WY,82072,41.3171631,-105.5942017,United States,US,Albany County
Randalls,2727 Exposition Blvd,Austin,TX,78703,30.3042649,-97.7638905,United States,US,Travis County
Randalls,5311 Balcones Dr,Austin,TX,78731,30.3354215,-97.7580532,United States,US,Travis County
Randalls,3300 Bee Caves Rd,West Lake Hills,TX,78746,30.2749574,-97.7989114,United States,US,Travis County
Randalls,6600 Mopac Expy S,Austin,TX,78749,30.2205593,-97.8376878,United States,US,Travis County
Randalls,1500 W 35th St,Austin,TX,78703,30.3065873,-97.7490549,United States,US,Travis County
Randalls,8040 Mesa Dr,Austin,TX,78731,30.3715752,-97.758223,United States,US,Travis County
Randalls,715 S Exposition Blvd,Austin,TX,78703,30.2838699,-97.7757137,United States,US,Travis County
Randalls,5721 Williams Dr,Georgetown,TX,78633,30.7039176,-97.7489938,United States,US,Williamson County
Randalls,2025 W Ben White Blvd,Austin,TX,78704,30.2295952,-97.7897391,United States,US,Travis County
Randalls,10900 Research Blvd,Austin,TX,78759,30.4022055,-97.7472723,United States,US,Travis County
Vons,1855 E Cochran St,Simi Valley,CA,93065,34.2802947,-118.7629797,United States,US,Ventura County
Vons,500 E Manchester Blvd,Inglewood,CA,90301,33.9606996,-118.3487516,United States,US,Los Angeles County
Tom Thumb,4001 Villanova St,Dallas,TX,75225,32.8636448,-96.8021956,United States,US,Dallas County
Pavilions,27320 Alicia Pkwy,Laguna Niguel,CA,92677,33.5660631,-117.7128523,United States,US,Orange County
Vons,2667 E Windmill Pkwy,Henderson,NV,89074,36.0414613,-115.102755,United States,US,Clark County
Vons,185 E 17th St,Costa Mesa,CA,92627,33.6345489,-117.9204148,United States,US,Orange County
Safeway,111 18th St,Burlington,CO,80807,39.3013526,-102.2736595,United States,US,Kit Carson County
Tom Thumb,819 Arapaho Rd,Richardson,TX,75080,32.9619514,-96.7507472,United States,US,Dallas County
Tom Thumb,6333 E Mockingbird Ln,Dallas,TX,75214,32.8376449,-96.754334,United States,US,Dallas County
Tom Thumb,10455 N Central Expwy,Dallas,TX,75231,32.8889769,-96.7712852,United States,US,Dallas County
Tom Thumb,3100 Independence Pkwy,Plano,TX,75075,33.0398472,-96.7518587,United States,US,Collin County
Safeway,1944 Illinois St,Sidney,NE,69162,41.1449616,-102.9893451,United States,US,Cheyenne County
Tom Thumb,206 N Grand Ave,Gainesville,TX,76240,33.6253812,-97.1324884,United States,US,Cooke County
Vons,1758 Grand Ave,Grover Beach,CA,93433,35.1197726,-120.6104609,United States,US,San Luis Obispo County
Tom Thumb,925 N West Hwy,Garland,TX,75041,32.8623445,-96.6431636,United States,US,Dallas County
Safeway,230 Morehead St,Chadron,NE,69337,42.8304459,-103.002663,United States,US,Dawes County
Tom Thumb,5968 W Parker Rd,Plano,TX,75093,33.0430426,-96.8284842,United States,US,Collin County
Tom Thumb,3100 S Hulen St,Fort Worth,TX,76109,32.7060641,-97.3900397,United States,US,Tarrant County
Tom Thumb,2535 Firewheel Pkwy,Garland,TX,75040,32.9373984,-96.6055375,United States,US,Dallas County
Tom Thumb,100 W Southlake Blvd,Southlake,TX,76092,32.9426115,-97.1519134,United States,US,Tarrant County
Tom Thumb,4848 Preston Rd,Frisco,TX,75034,33.1190305,-96.803786,United States,US,Collin County
Tom Thumb,4112 N Josey,Carrollton,TX,75007,33.0233172,-96.8831886,United States,US,Denton County
Tom Thumb,3945 Legacy Dr,Plano,TX,75023,33.0739401,-96.7706465,United States,US,Collin County
Vons,369 Magnolia Ave,Corona,CA,92879,33.8545606,-117.5655435,United States,US,Riverside County
Vons,3233 Foothill Blvd,La Crescenta,CA,91214,34.2307839,-118.2488867,United States,US,Los Angeles County
Safeway,1801 W 11th St,Tracy,CA,95376,37.7400828,-121.4493674,United States,US,San Joaquin County
Safeway,1051 SW 1st Ave,Canby,OR,97013,45.2552838,-122.7026078,United States,US,Clackamas County
Safeway,1026 Hunt Ave,Saint Helena,CA,94574,38.5058606,-122.4680884,United States,US,Napa County
Safeway,298 King St,San Francisco,CA,94107,37.776774,-122.3940414,United States,US,San Francisco County
Safeway,2203 Mission St,Santa Cruz,CA,95060,36.9613584,-122.0452122,United States,US,Santa Cruz County
Safeway,52 W Central Ave,Edgewater,MD,21037,38.9280564,-76.5735399,United States,US,Anne Arundel County
Tom Thumb,612 Grapevine Hwy,Hurst,TX,76054,32.8640436,-97.1795293,United States,US,Tarrant County
Safeway,1677 S Havana St,Aurora,CO,80012,39.6863981,-104.8673436,United States,US,Arapahoe County
Vons,6450 Sky Pointe Dr,Las Vegas,NV,89131,36.2803707,-115.2614689,United States,US,Clark County
Vons,7405 S Durango Dr,Las Vegas,NV,89113,36.0538404,-115.2813051,United States,US,Clark County
Vons,45 E Horizon Ridge Pkwy,Henderson,NV,89002,36.0091236,-114.993307,United States,US,Clark County
Safeway,3043 Nutley St,Fairfax,VA,22031,38.8714952,-77.2608773,United States,US,Fairfax County
Safeway,440 N Estrella Pkwy,Goodyear,AZ,85338,33.4517792,-112.3943451,United States,US,Maricopa County
Safeway,9045 Woodcreek Oaks Blvd,Roseville,CA,95747,38.7940789,-121.3305565,United States,US,Placer County
Safeway,3110 Balfour Rd,Brentwood,CA,94513,37.9240775,-121.7218615,United States,US,Contra Costa County
Safeway,1140 N Springbrook Rd,Newberg,OR,97132,45.3085733,-122.9454064,United States,US,Yamhill County
Safeway,3602 W 144th Ave,Broomfield,CO,80020,39.9565341,-105.0357421,United States,US,Broomfield County
Safeway,681 Horizon Dr,Grand Junction,CO,81506,39.1039886,-108.5513255,United States,US,Mesa County
Safeway,3250 Leif Erickson Dr,Astoria,OR,97103,46.1922179,-123.8082933,United States,US,Clatsop County
Carrs,1725 Abbott Rd,Anchorage,AK,99507,61.1421295,-149.8453989,United States,US,Anchorage
Safeway,2635 Housley Rd,Annapolis,MD,21401,38.9872212,-76.555145,United States,US,Anne Arundel County
Safeway,14555 SW Teal Blvd,Beaverton,OR,97007,45.4415082,-122.8289787,United States,US,Washington County
Safeway,12821 Braemar Village Plaza,Bristow,VA,20136,38.7508944,-77.5706959,United States,US,Prince William County
Randalls,2051 Gattis School Rd,Round Rock,TX,78664,30.4956038,-97.6542069,United States,US,Williamson County
Safeway,411 Three Rivers Dr,Kelso,WA,98626,46.1419799,-122.901878,United States,US,Cowlitz County
Safeway,430 SE Bishop Blvd,Pullman,WA,99163,46.7155147,-117.1778788,United States,US,Whitman County
Safeway,13308 Meridian E,Puyallup,WA,98373,47.1351434,-122.2941915,United States,US,Pierce County
Tom Thumb,5809 E Lovers Ln,Dallas,TX,75206,32.8518532,-96.7669593,United States,US,Dallas County
Tom Thumb,14280 Marsh Ln,Addison,TX,75001,32.9384086,-96.8536945,United States,US,Dallas County
Safeway,1855 N Power Rd,Mesa,AZ,85205,33.4497378,-111.6821888,United States,US,Maricopa County
Safeway,5802 134th Place SE,Everett,WA,98208,47.8758929,-122.1536031,United States,US,Snohomish County
Safeway,735 7th Ave,San Francisco,CA,94118,37.7745526,-122.4653886,United States,US,San Francisco County
Safeway,2125 W Hwy 70,Thatcher,AZ,85552,32.8170869,-109.6794522,United States,US,Graham County
Safeway,340 E Mcdowell Rd,Phoenix,AZ,85004,33.4662592,-112.067478,United States,US,Maricopa County
Safeway,1516 Constitution Blvd,Salinas,CA,93905,36.6988107,-121.6205549,United States,US,Monterey County
Vons,7311 N Figueroa St,Los Angeles,CA,90041,34.1361551,-118.1895508,United States,US,Los Angeles County
Safeway,2858 Vista Blvd,Sparks,NV,89434,39.5554641,-119.7034402,United States,US,Washoe County
Vons,3520 Riverside Plaza,Riverside,CA,92506,33.954647,-117.38948,United States,US,Riverside County
Vons,38995 Sky Canyon Dr,Murrieta,CA,92563,33.5537798,-117.1386026,United States,US,Riverside County
Safeway,3051 Waldorf Market Pl,Waldorf,MD,20603,38.6268873,-76.916859,United States,US,Charles County
Vons,4520 Sunset Blvd,Los Angeles,CA,90027,34.0969729,-118.2880171,United States,US,Los Angeles County
Safeway,4548 Centerplace Dr,Greeley,CO,80634,40.3943255,-104.7527285,United States,US,Weld County
Safeway,700 S Greeley Hwy,Cheyenne,WY,82007,41.1108905,-104.8026005,United States,US,Laramie County
Safeway,5 Crossroads Blvd,Carmel,CA,93923,36.5364215,-121.9111312,United States,US,Monterey County
Randalls,1890 FM 359 Rd,Richmond,TX,77406,29.6220342,-95.7423242,United States,US,Fort Bend County
Randalls,525 S Fry Rd,Katy,TX,77450,29.7793597,-95.7169845,United States,US,Harris County
Randalls,18322 Clay Rd,Houston,TX,77084,29.8327097,-95.6837631,United States,US,Harris County
Randalls,2250 Buckthorne Place,Spring,TX,77380,30.1404757,-95.4721289,United States,US,Montgomery County
Safeway,9101 E Baseline,Mesa,AZ,85209,33.3770094,-111.6380319,United States,US,Maricopa County
Vons,2764 E Thompson Blvd,Ventura,CA,93003,34.2712244,-119.2592734,United States,US,Ventura County
Vons,6040 Telegraph Rd,Ventura,CA,93003,34.2768598,-119.2125538,United States,US,Ventura County
Vons,82 W Foothill Blvd,Upland,CA,91786,34.1083343,-117.6529268,United States,US,San Bernardino County
Safeway,2207 Francisco Dr,El Dorado Hills,CA,95762,38.7109334,-121.0844751,United States,US,El Dorado County
Safeway,1814 19th St,Sacramento,CA,95811,38.5680828,-121.4859377,United States,US,Sacramento County
Tom Thumb,1701 Randol Mill Rd,Arlington,TX,76012,32.7507524,-97.1337727,United States,US,Tarrant County
Vons,6170 Hamner Ave,Eastvale,CA,91752,33.9765251,-117.5578394,United States,US,Riverside County
Safeway,4320 SE King Rd,Milwaukie,OR,97222,45.4469682,-122.6182945,United States,US,Clackamas County
Vons,2938 Tapo Canyon Rd,Simi Valley,CA,93063,34.2885635,-118.7156094,United States,US,Ventura County
Safeway,14840 SE Webster Rd,Milwaukie,OR,97267,45.4157501,-122.590793,United States,US,Clackamas County
Safeway,2851 Del Paso Rd,Sacramento,CA,95835,38.6575749,-121.5247183,United States,US,Sacramento County
Safeway,13828 W Waddell Rd,Surprise,AZ,85379,33.6100001,-112.357619,United States,US,Maricopa County
Vons,3100 Fowler Ave,Clovis,CA,93611,36.7954422,-119.6842267,United States,US,Fresno County
Safeway,19266 Coastal Hwy,Rehoboth Beach,DE,19971,38.724312,-75.1256744,United States,US,Sussex County
Safeway,6445 Pacific Ave,Stockton,CA,95207,38.0085178,-121.3214578,United States,US,San Joaquin County
Safeway,2227 S Shore Ctr,Alameda,CA,94501,37.7574125,-122.2510056,United States,US,Alameda County
Safeway,5035 W Baseline Rd,Laveen,AZ,85339,33.3769907,-112.1658688,United States,US,Maricopa County
Safeway,11060 Bollinger Canyon Rd,San Ramon,CA,94582,37.7749047,-121.9220741,United States,US,Contra Costa County
Safeway,12410 Fairwood Pkwy,Bowie,MD,20720,38.9647031,-76.7894206,United States,US,Prince George's County
Safeway,6220 E 14th Ave,Denver,CO,80220,39.7372568,-104.9156156,United States,US,Denver County
Safeway,4750 E Indian School Rd,Phoenix,AZ,85018,33.4959166,-111.9792636,United States,US,Maricopa County
Safeway,800 Redwood Hwy Frontage Rd #110,Mill Valley,CA,94941,37.8982871,-122.5146063,United States,US,Marin County
Safeway,525 El Camino Real,Menlo Park,CA,94025,37.4505164,-122.1790396,United States,US,San Mateo County
Safeway,8355 N Rampart Range Rd,Littleton,CO,80125,39.4836084,-105.074505,United States,US,Douglas County
Safeway,1815 4th St,Tillamook,OR,97141,45.455203,-123.8455034,United States,US,Tillamook County
Vons,3439 Via Montebello,Carlsbad,CA,92009,33.0815259,-117.2320611,United States,US,San Diego County
Safeway,1907 Seward Hwy,Seward,AK,99664,60.1260606,-149.4365578,United States,US,Kenai Peninsula Borough
Safeway,10020 NE 137th St,Kirkland,WA,98034,47.7229358,-122.2063616,United States,US,King County
Vons,"2495 Truxtun Rd, Suite 100",San Diego,CA,92106,32.7369288,-117.2160853,United States,US,San Diego County
Safeway,490 L St NW,Washington,DC,20001,38.9035684,-77.0186955,United States,US,
Pavilions,8969 Santa Monica Blvd,West Hollywood,CA,90069,34.0835831,-118.3868829,United States,US,Los Angeles County
Safeway,888 Kapahulu Ave,Honolulu,HI,96816,21.2837816,-157.8147368,United States,US,Honolulu County
Safeway,10541 Connecticut Ave,Kensington,MD,20895,39.027675,-77.0752437,United States,US,Montgomery County
Safeway,3627 Airport Way,Fairbanks,AK,99709,64.8357242,-147.8081716,United States,US,Fairbanks North Star
Safeway,1165 W Main St,Lander,WY,82520,42.837809,-108.7456178,United States,US,Fremont County
Safeway,1451 S Ritchie Hwy,Arnold,MD,21012,39.0302741,-76.5039294,United States,US,Anne Arundel County
Safeway,12110 Industry Rd,Jackson,CA,95642,38.3682445,-120.8000474,United States,US,Amador County
Safeway,11201 Georgia Ave,Wheaton,MD,20902,39.0388823,-77.0506005,United States,US,Montgomery County
Vons,515 W Washington St,San Diego,CA,92103,32.749432,-117.1681707,United States,US,San Diego County
Safeway,1303 NW Lovejoy St,Portland,OR,97209,45.530245,-122.6848787,United States,US,Multnomah County
Safeway,181 W Mineral Ave,Littleton,CO,80120,39.5746127,-104.9920079,United States,US,Arapahoe County
Safeway,27152 Main St,Conifer,CO,80433,39.5272196,-105.3034231,United States,US,Jefferson County
Safeway,9807 Main St,Damascus,MD,20872,39.2902743,-77.2018916,United States,US,Montgomery County
Safeway,7605 Crain Hwy,Upper Marlboro,MD,20772,38.7865708,-76.7942708,United States,US,Prince George's County
Safeway,3333 Spartan Rd,Olney,MD,20832,39.1501313,-77.065443,United States,US,Montgomery County
Safeway,28455 N Vistancia Blvd,Peoria,AZ,85383,33.7406607,-112.3205766,United States,US,Maricopa County
Pavilions,1101 Pacific Coast Hwy,Seal Beach,CA,90740,33.7440689,-118.1000145,United States,US,Orange County
Safeway,3830 Georgia Ave NW,Washington,DC,20011,38.9384222,-77.025033,United States,US,
Safeway,13380 E Mary Ann Cleveland Way,Vail,AZ,85641,32.0500625,-110.7087079,United States,US,Pima County
Safeway,1200 Second Ave,Monte Vista,CO,81144,37.5782753,-106.1421968,United States,US,Rio Grande County
Safeway,910 W Cherry St,Louisville,CO,80027,39.9637924,-105.16007,United States,US,Boulder County
Pavilions,29211 Heathercliff Rd,Malibu,CA,90265,34.0211179,-118.8100626,United States,US,Los Angeles County
Safeway,160 1st St,Los Altos,CA,94022,37.3791046,-122.1191572,United States,US,Santa Clara County
Safeway,470 N Santa Cruz Ave,Los Gatos,CA,95030,37.2313895,-121.9791252,United States,US,Santa Clara County
Safeway,1920 S Nevada Ave,Colorado Springs,CO,80905,38.8062228,-104.8234148,United States,US,El Paso County
Safeway,232 G St,Salida,CO,81201,38.536198,-105.9945009,United States,US,Chaffee County
Vons,11800 De Palma Rd,Corona,CA,92883,33.7474455,-117.4532529,United States,US,Riverside County
Safeway,3800 W Happy Valley Rd,Glendale,AZ,85310,33.7144357,-112.1409449,United States,US,Maricopa County
Safeway,1900 N Poplar Way,Leadville,CO,80461,39.2600827,-106.2931301,United States,US,Lake County
Vons,1291 S Victoria Ave,Oxnard,CA,93035,34.2633498,-119.2121607,United States,US,Ventura County
Vons,1745 Eastlake Pkwy,Chula Vista,CA,91915,32.6197494,-116.9608662,United States,US,San Diego County
Safeway,5720 Nave Dr,Novato,CA,94949,38.062302,-122.5321069,United States,US,Marin County
Vons,1600 Foothill Blvd,La Verne,CA,91750,34.1158187,-117.773688,United States,US,Los Angeles County
Safeway,3325 N Hunt Hwy,Florence,AZ,85132,33.0626129,-111.4837624,United States,US,Pinal County
Safeway,840 Village Ctr Dr,Colorado Springs,CO,80919,38.9238281,-104.8443465,United States,US,El Paso County
Safeway,2010 Freedom Blvd,Freedom,CA,95019,36.9400157,-121.7753737,United States,US,Santa Cruz County
Safeway,815 Canyon Del Rey Blvd,Del Rey Oaks,CA,93940,36.5975601,-121.8503811,United States,US,Monterey County
Safeway,867 Sutton Way,Grass Valley,CA,95945,39.2355769,-121.0322558,United States,US,Nevada County
Safeway,709 Hickey Blvd,Pacifica,CA,94044,37.6610102,-122.477594,United States,US,San Mateo County
Safeway,5000 Bradley Blvd,Bethesda,MD,20815,38.9774602,-77.0991634,United States,US,Montgomery County
Safeway,15916 S Crain Hwy,Brandywine,MD,20613,38.6744147,-76.8724683,United States,US,Prince George's County
Safeway,6790 Bernal Ave,Pleasanton,CA,94566,37.6560494,-121.8994836,United States,US,Alameda County
Vons,2355 E Colorado Blvd,Pasadena,CA,91107,34.147471,-118.1022092,United States,US,Los Angeles County
Vons,453 Santa Fe Dr,Encinitas,CA,92024,33.0347705,-117.2827669,United States,US,San Diego County
Vons,600 E Broadway,Long Beach,CA,90802,33.7689355,-118.1844146,United States,US,Los Angeles County
Safeway,6310 College Ave,Oakland,CA,94618,37.8507561,-122.2520065,United States,US,Alameda County
Safeway,525 El Camino Real,Millbrae,CA,94030,37.6034485,-122.3941441,United States,US,San Mateo County
Safeway,6118 Arlington Blvd,Falls Church,VA,22044,38.868555,-77.1422248,United States,US,Fairfax County
Safeway,150 E El Camino Real,Sunnyvale,CA,94087,37.364652,-122.0307262,United States,US,Santa Clara County
Safeway,1100 4th St SW,Washington,DC,20024,38.8776018,-77.0173133,United States,US,
Safeway,381 E Maka'Ala St,Hilo,HI,96720,19.7006939,-155.0606425,United States,US,Hawaii County
Safeway,4454 Nuhou St Suite,Lihue,HI,96766,21.9686549,-159.3864001,United States,US,Kauai County
Safeway,91-1119 Keaunui Dr,Ewa Beach,HI,96706,21.326923,-158.0200844,United States,US,Honolulu County
Safeway,5760 Cottle Rd,San Jose,CA,95123,37.2464867,-121.8029656,United States,US,Santa Clara County
Safeway,2555 Harris St,Eureka,CA,95503,40.7809785,-124.1384582,United States,US,Humboldt County
Safeway,1632 Hover Rd,Longmont,CO,80501,40.1874008,-105.1294251,United States,US,Boulder County
Safeway,2798 Arapahoe Ave,Boulder,CO,80302,40.0137969,-105.2603846,United States,US,Boulder County
Safeway,1855 Wisconsin Ave NW,Washington,DC,20007,38.9161167,-77.0672894,United States,US,
Safeway,2160 W Drake Rd Unit 6,Fort Collins,CO,80526,40.5546594,-105.1165765,United States,US,Larimer County
Safeway,860 Cleveland,Loveland,CO,80537,40.4007594,-105.0738252,United States,US,Larimer County
Safeway,1605 Bridge St,Brighton,CO,80601,39.9878979,-104.8014152,United States,US,Adams County
Safeway,3526 W 10th St,Greeley,CO,80634,40.4216808,-104.7364525,United States,US,Weld County
Safeway,4800 E Baseline Rd,Boulder,CO,80303,39.9987877,-105.2348361,United States,US,Boulder County
Safeway,2622 California Ave SW,Seattle,WA,98116,47.5799392,-122.3859457,United States,US,King County
Safeway Market,100 S 2nd St,San Jose,CA,95113,37.3346985,-121.8875062,United States,US,Santa Clara County
Safeway,11450 San Pablo Ave,El Cerrito,CA,94530,37.9224192,-122.3156723,United States,US,Contra Costa County
Safeway,707 Contra Costa Blvd,Pleasant Hill,CA,94523,37.9709616,-122.0615502,United States,US,Contra Costa County
Safeway,1234 S Beretania St,Honolulu,HI,96814,21.3016161,-157.8421682,United States,US,Honolulu County
Safeway,645 San Antonio Rd,Mountain View,CA,94040,37.4017553,-122.1118106,United States,US,Santa Clara County
Safeway,6519 S Main St,Bonners Ferry,ID,83805,48.6777674,-116.3288119,United States,US,Boundary County
Randalls,9660 Westheimer Rd,Houston,TX,77063,29.7386681,-95.5369576,United States,US,Harris County
Tom Thumb,5550 FM 423,Frisco,TX,75034,33.1254599,-96.888774,United States,US,Denton County
Tom Thumb,3070 N Goliad St,Rockwall,TX,75087,32.9645094,-96.4624985,United States,US,Rockwall County
Safeway,1017 York Rd,Towson,MD,21204,39.4116297,-76.6089581,United States,US,Baltimore County
Randalls,5145 N FM 620 Rd,Austin,TX,78732,30.3891052,-97.8838104,United States,US,Travis County
Tom Thumb,7117 Inwood Rd,Dallas,TX,75209,32.8444624,-96.8226218,United States,US,Dallas County
Safeway,13434 Colton Pl,Oregon City,OR,97045,45.3342938,-122.5911092,United States,US,Clackamas County
Safeway,1735 W Main St,Bozeman,MT,59715,45.6802388,-111.0602024,United States,US,Gallatin County
Pavilions,3100 W Balboa Blvd,Newport Beach,CA,92663,33.6147135,-117.931033,United States,US,Orange County
Safeway,1451 Highlands Dr,Issaquah,WA,98029,47.5422148,-122.018132,United States,US,King County
Safeway,12 Manor Plz,Pacifica,CA,94044,37.6501883,-122.4919204,United States,US,San Mateo County
Safeway,4015 E Castro Valley Blvd,Castro Valley,CA,94552,37.6947386,-122.0504513,United States,US,Alameda County
Safeway,389 S Mcdowell Blvd,Petaluma,CA,94954,38.2491273,-122.6219167,United States,US,Sonoma County
Vons,3027 Rancho Vista Blvd,Palmdale,CA,93551,34.6034589,-118.1841246,United States,US,Los Angeles County
Safeway,2800 Ygnacio Valley Rd,Walnut Creek,CA,94598,37.9270207,-122.0184245,United States,US,Contra Costa County
Safeway,601 Westlake Ctr,Daly City,CA,94015,37.6993528,-122.4816092,United States,US,San Mateo County
Vons,1201 Avocado Blvd,El Cajon,CA,92020,32.7615741,-116.9612945,United States,US,San Diego County
Randalls,4775 W Panther Creek Dr,The Woodlands,TX,77381,30.1679385,-95.5039847,United States,US,Montgomery County
Vons,57590 29 Palms Hwy,Yucca Valley,CA,92284,34.1268684,-116.4082287,United States,US,San Bernardino County
Randalls,5130 Bellaire Blvd,Bellaire,TX,77401,29.7061794,-95.4698354,United States,US,Harris County
Randalls,5161 San Felipe St,Houston,TX,77056,29.7492034,-95.4660772,United States,US,Harris County
Vons,20445 Yorba Linda Blvd,Yorba Linda,CA,92886,33.8932942,-117.7757264,United States,US,Orange County
Vons,1129 S Fair Oaks Ave,South Pasadena,CA,91030,34.1058277,-118.153228,United States,US,Los Angeles County
Vons,1820 Ximeno Ave,Long Beach,CA,90815,33.7904607,-118.1373205,United States,US,Los Angeles County
Vons,301 N Pass Ave,Burbank,CA,91505,34.1547723,-118.3467275,United States,US,Los Angeles County
Vons,2122 S Hacienda Blvd,Hacienda Heights,CA,91745,33.9949708,-117.9672764,United States,US,Los Angeles County
Safeway,4732 Brooklyn Ave NE,Seattle,WA,98105,47.6642778,-122.3139103,United States,US,King County
Safeway,58 Maui Lani Pkwy,Wailuku,HI,96793,20.8874003,-156.493091,United States,US,Maui County
Safeway,2980 E Capitol Expy,San Jose,CA,95148,37.3314984,-121.8108859,United States,US,Santa Clara County
Pak 'N Save,555 Floresta Blvd,San Leandro,CA,94578,37.7027553,-122.1436971,United States,US,Alameda County
Safeway,2255 Gellert Blvd,South San Francisco,CA,94080,37.6466496,-122.4518815,United States,US,San Mateo County
Safeway,12725 First Ave S,Burien,WA,98168,47.4890506,-122.3357696,United States,US,King County
Pak 'N Save,2237 W Cleveland Ave,Madera,CA,93637,36.9751923,-120.0839684,United States,US,Madera County
Safeway,2550 Bell Rd,Auburn,CA,95603,38.9440043,-121.0937879,United States,US,Placer County
Safeway,1187 S Main St,Manteca,CA,95337,37.7867336,-121.2188396,United States,US,San Joaquin County
Pak 'N Save,3889 San Pablo Ave,Emeryville,CA,94608,37.8292821,-122.2800984,United States,US,Alameda County
Safeway,1291 Sanguinetti Rd,Sonora,CA,95370,37.9737164,-120.3621065,United States,US,Tuolumne County
Safeway,5100 Broadway,Oakland,CA,94611,37.8349563,-122.2486385,United States,US,Alameda County
Safeway,2800 SE Hawthorne Blvd,Portland,OR,97214,45.5117408,-122.637528,United States,US,Multnomah County
Vons,2725 Agoura Rd,Thousand Oaks,CA,91361,34.152948,-118.8258373,United States,US,Ventura County
Safeway,8145 SW Barbur Blvd,Portland,OR,97219,45.4656328,-122.6988621,United States,US,Multnomah County
Vons,16550 W Soledad Canyon Rd,Santa Clarita,CA,91387,34.4257314,-118.4252653,United States,US,Los Angeles County
Randalls,3441 N Lakeline Blvd,Leander,TX,78641,30.5429991,-97.8650798,United States,US,Williamson County
Safeway,19245 10th Ave NE,Poulsbo,WA,98370,47.7381916,-122.6368999,United States,US,Kitsap County
Safeway,9890 S Estrella Pkwy,Goodyear,AZ,85338,33.3576587,-112.4285876,United States,US,Maricopa County
Vons,8891 Atlanta Ave,Huntington Beach,CA,92646,33.6584751,-117.9730418,United States,US,Orange County
Vons,10321 Sepulveda Blvd,Mission Hills,CA,91345,34.2749758,-118.468043,United States,US,Los Angeles County
Safeway,40950 N Ironwood Rd,San Tan Valley,AZ,85140,33.2516594,-111.5651414,United States,US,Pinal County
Safeway,240 S Hill St,Globe,AZ,85501,33.3946943,-110.7857198,United States,US,Gila County
Safeway,702 W Hopi Dr,Holbrook,AZ,86025,34.9034775,-110.1671991,United States,US,Navajo County
Vons,745 E Naomi Ave,Arcadia,CA,91007,34.1250495,-118.0576473,United States,US,Los Angeles County
Safeway,585 Siskiyou Blvd,Ashland,OR,97520,42.1935818,-122.7062087,United States,US,Jackson County
Safeway,15332 Aurora Ave N,Shoreline,WA,98133,47.7409021,-122.343634,United States,US,King County
Safeway,5616 176th St E,Puyallup,WA,98375,47.0957346,-122.3532324,United States,US,Pierce County
Pavilions,9467 W Olympic Blvd,Beverly Hills,CA,90212,34.0600326,-118.3997883,United States,US,Los Angeles County
Safeway,950 W Hamilton Ave,Campbell,CA,95008,37.2931447,-121.9667011,United States,US,Santa Clara County
Safeway,320 Midway Ave,Grand Coulee,WA,99133,47.9416017,-119.0054,United States,US,Grant County
Safeway,902 W Francis Ave,Spokane,WA,99205,47.7161195,-117.4246157,United States,US,Spokane County
Safeway,3526 King St,Alexandria,VA,22302,38.8275476,-77.0894522,United States,US,
Safeway,20620 W Homestead Rd,Cupertino,CA,95014,37.3361552,-122.0345557,United States,US,Santa Clara County
Safeway,601 S Pioneer Way,Moses Lake,WA,98837,47.1292361,-119.2683793,United States,US,Grant County
Safeway,933 E Mission Ave,Spokane,WA,99202,47.6723397,-117.394723,United States,US,Spokane County
Safeway,1800 Rockville Pike,Rockville,MD,20852,39.0596829,-77.1214535,United States,US,Montgomery County
Vons,804 Beverly Blvd,Montebello,CA,90640,34.0202608,-118.1060041,United States,US,Los Angeles County
Vons,1342 N Alvarado St,Los Angeles,CA,90026,34.0794703,-118.2613418,United States,US,Los Angeles County
Safeway,106 W Manson Rd,Chelan,WA,98816,47.8421031,-120.0197361,United States,US,Chelan County
Safeway,101 E Main St,Hamilton,MT,59840,46.2462457,-114.1550119,United States,US,Ravalli County
Safeway,3702 East-West Hwy,Hyattsville,MD,20782,38.9670212,-76.9511802,United States,US,Prince George's County
Safeway,2500 Massachusetts Ave,Butte,MT,59701,45.9877174,-112.5063791,United States,US,Silver Bow County
Vons,240 Sumner Ave,Avalon,CA,90704,33.3427097,-118.3267694,United States,US,Los Angeles County
Safeway,2600 Fifth St,Alameda,CA,94501,37.7855171,-122.2807186,United States,US,Alameda County
Safeway,1275 E Sunset Dr,Bellingham,WA,98226,48.7745032,-122.4585507,United States,US,Whatcom County
Safeway,1001 N 4th St,Coeur D'Alene,ID,83814,47.6830115,-116.7818917,United States,US,Kootenai County
Safeway,7601 Evergreen Way,Everett,WA,98203,47.928595,-122.2198317,United States,US,Snohomish County
Safeway,15805 Pacific Ave S,Tacoma,WA,98444,47.1129278,-122.4322484,United States,US,Pierce County
Tom Thumb Express,2720 Live Oak St,Dallas,TX,75204,32.7889505,-96.7884052,United States,US,Dallas County
Tom Thumb,2400 W 7th St,Fort Worth,TX,76107,32.7514911,-97.3513019,United States,US,Tarrant County
Safeway,3355 Bethel Rd SE,Port Orchard,WA,98366,47.5183557,-122.6301611,United States,US,Kitsap County
Safeway,4300 NE 4th St,Renton,WA,98059,47.4895372,-122.1613959,United States,US,King County
Safeway,4831 Point Fosdick Dr NW,Gig Harbor,WA,98335,47.3021339,-122.5758166,United States,US,Pierce County
Safeway,10380 E Broadway Blvd,Tucson,AZ,85748,32.2195792,-110.7712084,United States,US,Pima County
Vons,7895 Highland Village Place,San Diego,CA,92129,32.9609224,-117.1535891,United States,US,San Diego County
Vons,26518 Bouquet Canyon Rd,Saugus,CA,91350,34.427021,-118.5352017,United States,US,Los Angeles County
Vons,163 S Turnpike Rd,Goleta,CA,93111,34.437739,-119.7905307,United States,US,Santa Barbara County
Vons,5630 Lake Murray Blvd,La Mesa,CA,91942,32.7823428,-117.0324225,United States,US,San Diego County
Vons,2010 Cliff Dr,Santa Barbara,CA,93109,34.4025369,-119.7237365,United States,US,Santa Barbara County
Vons,671 Rancho Santa Fe Rd,San Marcos,CA,92078,33.1321951,-117.2054171,United States,US,San Diego County
Safeway,3655 W Anthem Way,Anthem,AZ,85086,33.8651346,-112.1391093,United States,US,Maricopa County
Safeway,580 N Rengstorff Ave,Mountain View,CA,94043,37.4110387,-122.0939712,United States,US,Santa Clara County
Safeway,30 College Rd,Fairbanks,AK,99701,64.8515679,-147.7002121,United States,US,Fairbanks North Star
Safeway,2411 N Proctor St,Tacoma,WA,98406,47.2694564,-122.4880675,United States,US,Pierce County
Safeway,6850 NE Bothell Way,Kenmore,WA,98028,47.7590275,-122.2475443,United States,US,King County
Safeway,2109 SW 336th St,Federal Way,WA,98023,47.2997093,-122.3618619,United States,US,King County
Vons,4550 Atlantic Ave,Long Beach,CA,90807,33.8409018,-118.1826621,United States,US,Los Angeles County
Vons,24325 Crenshaw Blvd,Torrance,CA,90505,33.8040267,-118.3294527,United States,US,Los Angeles County
Safeway,510 Grant Rd,East Wenatchee,WA,98802,47.405034,-120.2808212,United States,US,Douglas County
Tom Thumb,522 Royal Ln,Dallas,TX,75230,32.896315,-96.8048833,United States,US,Dallas County
Safeway,14826 Hwy 99 N,Lynnwood,WA,98087,47.8635566,-122.2840182,United States,US,Snohomish County
Safeway,21401 Pacific Hwy S,Des Moines,WA,98198,47.4100194,-122.2994989,United States,US,King County
Safeway,1100 S Market Blvd,Chehalis,WA,98532,46.6551233,-122.9540752,United States,US,Lewis County
Safeway,900 E Meridian Suite 12,Milton,WA,98354,47.2480394,-122.2951796,United States,US,Pierce County
Tom Thumb,8698 Skillman St,Dallas,TX,75243,32.896321,-96.7210392,United States,US,Dallas County
Tom Thumb,633 W Wheatland Rd,Duncanville,TX,75116,32.6482198,-96.9227583,United States,US,Dallas County
Tom Thumb,3878 Oaklawn Ave #180,Dallas,TX,75219,32.8154852,-96.8006898,United States,US,Dallas County
Tom Thumb,7331 Gaston Ave,Dallas,TX,75214,32.8128156,-96.7299148,United States,US,Dallas County
Tom Thumb,2301 Justin Rd,Flower Mound,TX,75028,33.0715839,-97.0638773,United States,US,Denton County
Tom Thumb,900 W McDermott Dr,Allen,TX,75013,33.1031089,-96.682421,United States,US,Collin County
Tom Thumb,18212 Preston Rd,Dallas,TX,75252,32.9998487,-96.7937419,United States,US,Collin County
Tom Thumb,11920 Preston Rd,Dallas,TX,75230,32.9114126,-96.8032419,United States,US,Dallas County
Tom Thumb,7700 Northwest Hwy,Dallas,TX,75225,32.8641453,-96.7735748,United States,US,Dallas County
Safeway,34828 SE Douglas St,Snoqualmie,WA,98065,47.5278305,-121.8737651,United States,US,King County
Tom Thumb,315 S Hampton Rd,Dallas,TX,75208,32.7426503,-96.8579515,United States,US,Dallas County
Tom Thumb,2611 W Park Row,Arlington,TX,76013,32.7222713,-97.1502955,United States,US,Tarrant County
Tom Thumb,4010 N Macarthur Blvd,Irving,TX,75038,32.8598445,-96.9574026,United States,US,Dallas County
Tom Thumb,6377 Camp Bowie Blvd,Fort Worth,TX,76116,32.7250441,-97.420138,United States,US,Tarrant County
Tom Thumb,210 E Pleasant Run Rd,Desoto,TX,75115,32.6029703,-96.8559906,United States,US,Dallas County
Tom Thumb,302 S Park Blvd,Grapevine,TX,76051,32.9388392,-97.0971354,United States,US,Tarrant County
Tom Thumb,1380 W Campbell Rd,Richardson,TX,75080,32.979932,-96.7669654,United States,US,Dallas County
Tom Thumb,3411 Custer Pkwy,Richardson,TX,75080,32.9987198,-96.7305001,United States,US,Collin County
Tom Thumb,2200 E 14th St,Plano,TX,75074,33.0167052,-96.6834788,United States,US,Collin County
Tom Thumb,14999 Preston Rd,Dallas,TX,75254,32.9525872,-96.8051627,United States,US,Dallas County
Tom Thumb,745 Cross Timbers Rd,Flower Mound,TX,75028,33.0409232,-97.0382503,United States,US,Denton County
Tom Thumb,2755 N Collins St,Arlington,TX,76006,32.7833664,-97.0933815,United States,US,Tarrant County
Safeway,315 W 2nd St,La Junta,CO,81050,37.9872819,-103.5477584,United States,US,Otero County
Safeway,222 W 7th St,Walsenburg,CO,81089,37.6227522,-104.7829977,United States,US,Huerfano County
Safeway,1414 Main St,Canon City,CO,81212,38.445888,-105.2281773,United States,US,Fremont County
Safeway,1231 S Prairie Ave,Pueblo,CO,81005,38.2449402,-104.6442984,United States,US,Pueblo County
Safeway,200 Quebec St #400,Denver,CO,80230,39.7200488,-104.9017068,United States,US,Denver County
Tom Thumb,3001 Hardin Blvd,McKinney,TX,75070,33.166689,-96.6637939,United States,US,Collin County
Tom Thumb,4000 William D Tate Ave,Grapevine,TX,76051,32.8923844,-97.1020419,United States,US,Tarrant County
Safeway,10350 Willard Way,Fairfax,VA,22030,38.848704,-77.3024663,United States,US,
Safeway,5727 Burke Centre Pkwy,Burke,VA,22015,38.7999413,-77.3213627,United States,US,Fairfax County
Safeway,3713 Lee Hwy,Arlington,VA,22207,38.8968505,-77.1058169,United States,US,Arlington County
Vons,10016 Scripps Ranch Blvd,San Diego,CA,92131,32.9030914,-117.100461,United States,US,San Diego County
Vons,6571 W 80th St,Los Angeles,CA,90045,33.9693258,-118.4054479,United States,US,Los Angeles County
Safeway,2400 Peoples Plaza,Newark,DE,19702,39.6003106,-75.7489596,United States,US,New Castle County
Randalls,5586 Weslayan St,Houston,TX,77005,29.721657,-95.4425939,United States,US,Harris County
Randalls,2323 Clear Lake City Blvd,Houston,TX,77062,29.5927482,-95.1406821,United States,US,Harris County
Safeway,400 Dartmouth Ave,Lovelock,NV,89419,40.1800154,-118.4769974,United States,US,Pershing County
Safeway,37264 Main St,Burney,CA,96013,40.8844067,-121.6592784,United States,US,Shasta County
Safeway,1747 Columbia Rd NW,Washington,DC,20009,38.9240979,-77.0410645,United States,US,
Safeway,437 S King St,Leesburg,VA,20175,39.1089255,-77.5688377,United States,US,Loudoun County
Tom Thumb,921 Westgate Way,Wylie,TX,75098,33.0053071,-96.5543012,United States,US,Collin County
Safeway,155 E 1st St,Coquille,OR,97423,43.1743745,-124.1874152,United States,US,Coos County
Safeway,1601 Maryland Ave NE,Washington,DC,20002,38.9004883,-76.9796023,United States,US,
Safeway,145 E 18th Ave,Eugene,OR,97401,44.0407106,-123.0904631,United States,US,Lane County
Safeway,904 W Main St,Battle Ground,WA,98604,45.7817691,-122.5467575,United States,US,Clark County
Safeway,244 N F St,Lakeview,OR,97630,42.191683,-120.345219,United States,US,Lake County
Safeway,401 W Columbia River Hwy,Clatskanie,OR,97016,46.1027641,-123.2013909,United States,US,Columbia County
Safeway,450 SW Third Ave,Corvallis,OR,97333,44.5608179,-123.2632609,United States,US,Benton County
Safeway,1205 Campbell St,Baker City,OR,97814,44.7808192,-117.8191689,United States,US,Baker County
Safeway,95 82nd Dr,Gladstone,OR,97027,45.3816712,-122.5818163,United States,US,Clackamas County
Safeway,138 W Ellendale Ave,Dallas,OR,97338,44.9302477,-123.3132305,United States,US,Polk County
Safeway,408 NE 81st St,Vancouver,WA,98665,45.6817496,-122.6683853,United States,US,Clark County
Safeway,246 W Monroe St,Burns,OR,97720,43.5870035,-119.0570704,United States,US,Harney County
Safeway,350 E 40th Ave,Eugene,OR,97405,44.0105321,-123.0886157,United States,US,Lane County
Safeway,145 Jackson St,San Francisco,CA,94111,37.7969149,-122.3986593,United States,US,San Francisco County
Tom Thumb Fuel Station,1509 Pioneer Rd,Mesquite,TX,75149,32.7461527,-96.5839485,United States,US,Dallas County
Vons Fuel Station,550 West Tefft St,Nipomo,CA,93444,35.0360723,-120.4867263,United States,US,San Luis Obispo County
Safeway Fuel Station,2611 E Sims Way,Port Townsend,WA,98368,48.108699,-122.7756376,United States,US,Jefferson County
Randalls Fuel Station,10228 W Broadway ST,Pearland,TX,77584,29.5548695,-95.3789079,United States,US,Brazoria County
Safeway Fuel Station,1039 Us Hwy 24,Woodland Park,CO,80863,38.9840376,-105.0460839,United States,US,Teller County
Safeway Fuel Station,8206 County Rd 13,Firestone,CO,80520,40.1199204,-104.9411212,United States,US,Weld County
Safeway Fuel Station,7507 Mclaughlin Rd,Falcon,CO,80831,38.9405985,-104.6034078,United States,US,El Paso County
Safeway Fuel Station,3205 Harrison Ave NW,Olympia,WA,98502,47.0467987,-122.9419112,United States,US,Thurston County
Safeway Fuel Station,2808 Vista Blvd,Sparks,NV,89436,39.5555062,-119.7050927,United States,US,Washoe County
Vons Fuel Station,1680 Garnet Ave,Pacific Beach,CA,92109,32.8005126,-117.2394795,United States,US,San Diego County
Safeway Fuel Station,5150F Mae Ann Ave,Reno,NV,89523,39.5314266,-119.8662793,United States,US,Washoe County
Tom Thumb Fuel Station,2775 N Collins,Arlington,TX,76006,32.7841262,-97.0948602,United States,US,Tarrant County
Safeway Fuel Station,26300 Ridge Rd,Damascus,MD,20872,39.2887412,-77.2047888,United States,US,Montgomery County
Pharmacy at Safeway,4550-B Atlantic Ave,Long Beach,CA,90807,33.8409018,-118.1826621,United States,US,Los Angeles County
Safeway,116 University W Blvd,Silver Spring,MD,20901,39.0206132,-77.0153338,United States,US,Montgomery County
Safeway,5545 Connecticut Ave NW,Washington,DC,20015,38.9646349,-77.074884,United States,US,
Safeway,6235 Oxon Hill Rd,Oxon Hill,MD,20745,38.8044647,-76.9856377,United States,US,Prince George's County
Pharmacy at Vons,9350 Campus Point Drive,La Jolla,CA,92037,32.8283259,-117.255854,United States,US,San Diego County
Pharmacy at Safeway,2710 Middlefield Road,Redwood City,CA,94063,37.4756905,-122.2117612,United States,US,San Mateo County
Pharmacy at Safeway,821 S Main St,Myrtle Creek,OR,97457,43.0161671,-123.292275,United States,US,Douglas County
Safeway,6244 Old Dominion Dr,Mclean,VA,22101,38.9203492,-77.1499207,United States,US,Fairfax County
Pharmacy at Safeway,1395 Solano Ave,Albany,CA,94706,37.890931,-122.290333,United States,US,Alameda County
Safeway Fuel Center,1280 E Evans Ave,Denver,CO,80210,39.6783003,-104.9730463,United States,US,Denver County
Pharmacy at Safeway,3 E 1st St,Coquille,OR,97423,43.1749969,-124.1890998,United States,US,Coos County
